{"type":"FeatureCollection","features":[{"type":"Feature","properties":{"hunt_code":"DA1051","boundary_id":"955","BoundaryID":"955","Boundary_Name":"Beaver City","boundary_name":"Beaver City","species":"Deer","sex_type":"Antlerless","weapon":"Archery","season_dates":"Aug 01 2026 - Sept 04 2026","source":"DWR KMZ upload","source_file":"D:/DOWNLOADS/DA1051.kmz","source_boundary_ids":["955"]},"geometry":{"type":"Polygon","coordinates":[[[-112.6500580474635,38.26512903167541],[-112.6506380484093,38.29194595558787],[-112.6508399696586,38.2944079592512],[-112.6509639735613,38.29515696775323],[-112.6515139691782,38.29861597438912],[-112.6517879684457,38.30107695840492],[-112.6485049574674,38.30113000037672],[-112.6390520111327,38.3010600032991],[-112.6254119971924,38.30088703218116],[-112.6254689680246,38.29358099354937],[-112.6211989797157,38.29360197440118],[-112.6119070295702,38.2935860391344],[-112.6121939670893,38.29299904390158],[-112.6127210128705,38.2923599938489],[-112.6138689460076,38.2915719988353],[-112.6149749725703,38.29086504343149],[-112.6160200271042,38.28969896496814],[-112.6173440263417,38.28769302358739],[-112.618657004414,38.28473604298084],[-112.6195450298616,38.28240103992779],[-112.6201300449976,38.28160904009662],[-112.6206990040829,38.28054799190758],[-112.6207420233875,38.27907399697426],[-112.6206820515098,38.27710695669642],[-112.6190880005478,38.27711301912362],[-112.6160989936452,38.27702501051765],[-112.6135780301446,38.27691697086544],[-112.6135899980813,38.27234997800998],[-112.6141990327475,38.27244198869319],[-112.6146870554272,38.27247402232191],[-112.614992967206,38.27236104066352],[-112.6150769981655,38.27215000264973],[-112.6153969959081,38.271996994561],[-112.6155779784269,38.27205497028822],[-112.6161220442424,38.27197502247591],[-112.6165960535568,38.27196804060539],[-112.6167629952599,38.27209902203413],[-112.616939051292,38.27220797930539],[-112.6173110186121,38.2721459881562],[-112.6173440043914,38.27191699822195],[-112.6175529894274,38.27171198565755],[-112.6178539751545,38.27160402091007],[-112.618030959896,38.27121398930126],[-112.6182400047015,38.27101699505713],[-112.6185420172643,38.27090396788126],[-112.6188670112516,38.27088902988513],[-112.6191970137736,38.27090403061251],[-112.6194620338065,38.27068499411446],[-112.6194939511948,38.27046998637437],[-112.6198239492961,38.27017101992949],[-112.6203400401803,38.27004701157672],[-112.6207319747219,38.27016397534636],[-112.6212270469887,38.27030798923276],[-112.6215999958197,38.27033698853383],[-112.6220410372467,38.27016399553791],[-112.6220790059564,38.26983598766233],[-112.6222349531234,38.26963701707319],[-112.6224850557515,38.26956497966438],[-112.6226819594376,38.26964498298776],[-112.6228789480065,38.26977499938175],[-112.6232860544493,38.26983398011923],[-112.6237639510105,38.26980204348214],[-112.6240720192338,38.26974596198027],[-112.6244350431816,38.26958097907359],[-112.6249700561328,38.26920895857149],[-112.6250789612623,38.26898197887203],[-112.6252009544362,38.26885502713094],[-112.6254520134145,38.26877999634214],[-112.6258479881664,38.26858598564963],[-112.6262209477641,38.26842103979594],[-112.6269230549753,38.26813599929643],[-112.6274059715304,38.26809397537789],[-112.6277230227308,38.26806695742585],[-112.6282420084517,38.26803803716044],[-112.6285510301522,38.26806096274845],[-112.6287619773964,38.26800198175989],[-112.6291539889006,38.2678460441012],[-112.6294130238607,38.26775999004005],[-112.6298200144679,38.2676299758478],[-112.630393996766,38.26723900569198],[-112.6309820439289,38.26663903770192],[-112.6311659522701,38.26641398349967],[-112.6314710060613,38.26621896524237],[-112.6317050115529,38.26621003335402],[-112.6320359702315,38.26619200223592],[-112.632382056451,38.26623702133935],[-112.6326610449812,38.26628702848269],[-112.633011037736,38.26643499428659],[-112.6332370487439,38.26641103108233],[-112.6334560240858,38.26627199677924],[-112.6339229912229,38.26608003446789],[-112.6343900219084,38.26624799389683],[-112.634698047972,38.26644601314742],[-112.6349770072131,38.26646402388567],[-112.6352779708328,38.2665559830414],[-112.6352969657418,38.26645496826223],[-112.635297035937,38.26608603123486],[-112.6354669901037,38.26590198758265],[-112.6358200316271,38.26582902747338],[-112.6362230500307,38.26584900007399],[-112.6364570258599,38.26601200097553],[-112.6363140210282,38.26615403642804],[-112.6363060245204,38.26625102295607],[-112.6364949929543,38.26640500908717],[-112.6368150521764,38.26631898863119],[-112.6370589867002,38.26600900932075],[-112.6372780363278,38.26589402794787],[-112.6375410229224,38.26577599973249],[-112.6377050248636,38.26560203887197],[-112.6375730205505,38.26528198629104],[-112.637693997645,38.2650499603247],[-112.6378850140068,38.26499998254014],[-112.638043030154,38.26503796812836],[-112.6382119956862,38.26514104477675],[-112.6383179765777,38.26524896591018],[-112.6384720386287,38.26523302649237],[-112.6386879776681,38.26522397255903],[-112.6389790414278,38.26526199076736],[-112.6393649533779,38.2652990433189],[-112.6397880192129,38.26531602004427],[-112.6405170550041,38.26530699891124],[-112.6409080212526,38.26533496407066],[-112.6414380068567,38.265348997394],[-112.642179015649,38.26529302807941],[-112.6427170255083,38.26516095502518],[-112.6429909953222,38.26491200224079],[-112.6433880162498,38.26452398800805],[-112.6438119650501,38.26441297284948],[-112.6440500506258,38.26448902891236],[-112.6443590328315,38.26460698608002],[-112.6447120332188,38.26468999103111],[-112.6451890490774,38.26477296800564],[-112.6455770155353,38.26466299178264],[-112.6459740513239,38.26448899465678],[-112.6464509724536,38.26466902295801],[-112.6469099811565,38.26481496649645],[-112.6475180170861,38.26505100424871],[-112.6480659765908,38.26503096163029],[-112.6488379934102,38.26499199720657],[-112.6500580474635,38.26512903167541],[-112.6500580474635,38.26512903167541]]]}}],"metadata":{"hunt_code":"DA1051","boundary_id":"955","member_boundary_ids":[],"source_boundary_ids":["955"],"boundary_source_file":"processed_data/boundaries/DA1051.geojson","boundary_geometry_type":"single_geojson_path","geometry_status":"mapped"}}
