{"type":"FeatureCollection","metadata":{"hunt_code":"DB1082","boundary_id":"622","member_boundary_ids":[],"source_boundary_ids":["622"],"source_hunt_code":"DB1082","merged_boundary_id":null,"boundary_geometry_type":"single_boundary_id","generated_from":"display-boundary-index-2026-existing-fallback-reconcile","boundary_source_authority":"Utah DWR","boundary_source_file":"data/hunt-master-canonical-2026-source-of-truth.json","fallback_source_file":"data/hunt_boundaries.geojson"},"features":[{"type":"Feature","properties":{"boundary_id":"622","BoundaryID":"622","Boundary_Name":"Oquirrh-Stansbury","boundary_name":"Oquirrh-Stansbury","source":"arcgis_lite_individual"},"geometry":{"type":"MultiPolygon","coordinates":[[[[-112.14783,40.77061],[-112.06307,40.77086],[-112.00718,40.77002],[-111.98553,40.76433],[-111.95203,40.76531],[-111.93913,40.76611],[-111.91348,40.76444],[-111.91212,40.75649],[-111.90469,40.74578],[-111.90422,40.73945],[-111.90423,40.72221],[-111.90428,40.71698],[-111.90351,40.70428],[-111.90183,40.69928],[-111.9024,40.69393],[-111.90229,40.6836],[-111.90133,40.67405],[-111.90157,40.65478],[-111.90326,40.63996],[-111.90484,40.63516],[-111.90337,40.62951],[-111.90376,40.62125],[-111.90449,40.61912],[-111.90587,40.61092],[-111.90109,40.59062],[-111.89994,40.58072],[-111.89865,40.56133],[-111.89459,40.54436],[-111.89096,40.52617],[-111.89098,40.50433],[-111.89185,40.49096],[-111.90149,40.48104],[-111.90434,40.47712],[-111.91247,40.46536],[-111.9143,40.4592],[-111.91226,40.44958],[-111.89555,40.43634],[-111.87612,40.41863],[-111.86441,40.41117],[-111.83546,40.39216],[-111.83971,40.38814],[-111.85663,40.38766],[-111.85728,40.38742],[-111.88056,40.38726],[-111.93082,40.38752],[-111.95786,40.38337],[-111.98117,40.38036],[-112.00586,40.37711],[-112.02808,40.36956],[-112.0787,40.34664],[-112.1015,40.33237],[-112.10237,40.32468],[-112.09926,40.29849],[-112.09316,40.26957],[-112.09515,40.26131],[-112.10024,40.2573],[-112.16262,40.23653],[-112.18215,40.23097],[-112.19425,40.22752],[-112.20413,40.22446],[-112.21954,40.22168],[-112.24365,40.21736],[-112.25762,40.21422],[-112.27864,40.20974],[-112.30425,40.20338],[-112.31459,40.19963],[-112.31727,40.19863],[-112.3229,40.19625],[-112.32851,40.19398],[-112.33773,40.19157],[-112.34754,40.1903],[-112.35198,40.18957],[-112.35602,40.18878],[-112.36967,40.18634],[-112.38442,40.18355],[-112.38924,40.18309],[-112.39133,40.18306],[-112.39282,40.18285],[-112.39789,40.17968],[-112.40861,40.17377],[-112.41134,40.1737],[-112.4273,40.17389],[-112.42971,40.16844],[-112.43118,40.16529],[-112.43188,40.16529],[-112.43297,40.1653],[-112.4345,40.16532],[-112.43637,40.1653],[-112.43787,40.16431],[-112.43923,40.16284],[-112.44095,40.16186],[-112.44227,40.16124],[-112.44401,40.16044],[-112.44594,40.15933],[-112.44765,40.15784],[-112.44941,40.15626],[-112.45046,40.15532],[-112.45136,40.15455],[-112.45231,40.15363],[-112.45342,40.15245],[-112.45461,40.15115],[-112.45585,40.1498],[-112.45754,40.14793],[-112.45968,40.14559],[-112.46055,40.14464],[-112.462,40.14364],[-112.46398,40.14297],[-112.46603,40.14229],[-112.4701,40.14094],[-112.47137,40.1405],[-112.47307,40.13993],[-112.47498,40.1393],[-112.47701,40.13861],[-112.479,40.13796],[-112.48117,40.13723],[-112.48336,40.1365],[-112.48552,40.13578],[-112.48758,40.13509],[-112.48971,40.13438],[-112.49196,40.13362],[-112.4945,40.13278],[-112.49632,40.13217],[-112.49853,40.13143],[-112.50086,40.13064],[-112.50332,40.12983],[-112.50561,40.12907],[-112.50812,40.12823],[-112.51079,40.12733],[-112.51344,40.12644],[-112.51606,40.12557],[-112.51873,40.12468],[-112.52128,40.12374],[-112.52348,40.12279],[-112.52588,40.12174],[-112.52819,40.12075],[-112.53017,40.1199],[-112.53148,40.11936],[-112.53256,40.11887],[-112.53416,40.11819],[-112.53612,40.11733],[-112.53816,40.11646],[-112.54015,40.11559],[-112.5424,40.11462],[-112.54466,40.11365],[-112.54693,40.1127],[-112.54935,40.11232],[-112.55195,40.11215],[-112.55397,40.11171],[-112.55526,40.11152],[-112.55668,40.11164],[-112.55822,40.11194],[-112.55974,40.11255],[-112.56127,40.11321],[-112.56269,40.11406],[-112.56405,40.11493],[-112.56568,40.11491],[-112.56701,40.11637],[-112.56817,40.11753],[-112.56915,40.11832],[-112.57189,40.11817],[-112.57424,40.11867],[-112.57633,40.11952],[-112.58018,40.12153],[-112.58146,40.12258],[-112.58273,40.12309],[-112.58388,40.12383],[-112.58495,40.12492],[-112.58558,40.12621],[-112.58663,40.12813],[-112.59078,40.13148],[-112.59259,40.13304],[-112.59369,40.13459],[-112.59492,40.13603],[-112.59649,40.13695],[-112.5985,40.13787],[-112.60062,40.13881],[-112.60284,40.1397],[-112.60516,40.1403],[-112.60708,40.14035],[-112.61049,40.13976],[-112.61282,40.13917],[-112.61516,40.13858],[-112.61789,40.13784],[-112.61941,40.13719],[-112.62074,40.13619],[-112.6222,40.13495],[-112.62375,40.13363],[-112.62525,40.13236],[-112.62709,40.13091],[-112.62898,40.12943],[-112.6309,40.12788],[-112.63269,40.12619],[-112.63447,40.12454],[-112.63624,40.1229],[-112.63795,40.12133],[-112.63943,40.11994],[-112.64111,40.1184],[-112.64275,40.11688],[-112.64446,40.11551],[-112.64625,40.11419],[-112.64815,40.11279],[-112.6502,40.11127],[-112.65231,40.10972],[-112.65423,40.1083],[-112.65632,40.10677],[-112.65839,40.10523],[-112.66044,40.10372],[-112.66234,40.10378],[-112.66213,40.10591],[-112.66187,40.10853],[-112.6616,40.11107],[-112.66143,40.11312],[-112.66139,40.11545],[-112.66134,40.11775],[-112.66213,40.11978],[-112.66292,40.12202],[-112.66369,40.12412],[-112.66448,40.1261],[-112.66511,40.12849],[-112.66575,40.13078],[-112.66625,40.1328],[-112.66684,40.13471],[-112.66739,40.13689],[-112.66806,40.13929],[-112.66879,40.14169],[-112.66952,40.14321],[-112.67005,40.14509],[-112.67074,40.14752],[-112.67143,40.14991],[-112.6722,40.1518],[-112.67341,40.1533],[-112.67497,40.15523],[-112.67653,40.15719],[-112.67798,40.159],[-112.67957,40.16101],[-112.68107,40.16287],[-112.68274,40.165],[-112.68456,40.16726],[-112.68641,40.16953],[-112.68818,40.17173],[-112.68995,40.17397],[-112.69174,40.17622],[-112.69338,40.17828],[-112.6951,40.1804],[-112.69679,40.18256],[-112.69847,40.18466],[-112.70008,40.18667],[-112.70176,40.18878],[-112.70334,40.19076],[-112.70498,40.19278],[-112.70672,40.19497],[-112.70853,40.19724],[-112.71041,40.19958],[-112.71233,40.202],[-112.71427,40.20443],[-112.71619,40.20684],[-112.71809,40.2092],[-112.7196,40.2111],[-112.7212,40.21305],[-112.72272,40.21494],[-112.72301,40.22207],[-112.72312,40.22803],[-112.72375,40.23167],[-112.73172,40.25047],[-112.74109,40.26671],[-112.74244,40.29313],[-112.74419,40.32753],[-112.74543,40.35201],[-112.7472,40.38634],[-112.74865,40.41481],[-112.74859,40.44693],[-112.74599,40.4858],[-112.74796,40.50667],[-112.74763,40.53387],[-112.74143,40.54865],[-112.72017,40.59137],[-112.70608,40.61064],[-112.67811,40.66225],[-112.66867,40.68994],[-112.65944,40.72347],[-112.65345,40.74399],[-112.63341,40.74332],[-112.5979,40.73246],[-112.55683,40.72048],[-112.52977,40.70921],[-112.51651,40.70537],[-112.46557,40.69172],[-112.42509,40.68088],[-112.36933,40.66566],[-112.35031,40.66248],[-112.32901,40.66264],[-112.30776,40.66665],[-112.29132,40.67287],[-112.27558,40.68238],[-112.26382,40.69323],[-112.25415,40.70631],[-112.21169,40.7287],[-112.17729,40.74989],[-112.1529,40.76941],[-112.14783,40.77061]]]]}},{"type":"Feature","properties":{"boundary_id":"622","BoundaryID":"622","Boundary_Name":"Oquirrh-Stansbury","boundary_name":"Oquirrh-Stansbury","source":"arcgis_lite_individual"},"geometry":{"type":"MultiPolygon","coordinates":[[[[-112.14783,40.77061],[-112.06307,40.77086],[-112.00718,40.77002],[-111.98553,40.76433],[-111.95203,40.76531],[-111.93913,40.76611],[-111.91348,40.76444],[-111.91212,40.75649],[-111.90469,40.74578],[-111.90422,40.73945],[-111.90423,40.72221],[-111.90428,40.71698],[-111.90351,40.70428],[-111.90183,40.69928],[-111.9024,40.69393],[-111.90229,40.6836],[-111.90133,40.67405],[-111.90157,40.65478],[-111.90326,40.63996],[-111.90484,40.63516],[-111.90337,40.62951],[-111.90376,40.62125],[-111.90449,40.61912],[-111.90587,40.61092],[-111.90109,40.59062],[-111.89994,40.58072],[-111.89865,40.56133],[-111.89459,40.54436],[-111.89096,40.52617],[-111.89098,40.50433],[-111.89185,40.49096],[-111.90149,40.48104],[-111.90434,40.47712],[-111.91247,40.46536],[-111.9143,40.4592],[-111.91226,40.44958],[-111.89555,40.43634],[-111.87612,40.41863],[-111.86441,40.41117],[-111.83546,40.39216],[-111.83971,40.38814],[-111.85663,40.38766],[-111.85728,40.38742],[-111.88056,40.38726],[-111.93082,40.38752],[-111.95786,40.38337],[-111.98117,40.38036],[-112.00586,40.37711],[-112.02808,40.36956],[-112.0787,40.34664],[-112.1015,40.33237],[-112.10237,40.32468],[-112.09926,40.29849],[-112.09316,40.26957],[-112.09515,40.26131],[-112.10024,40.2573],[-112.16262,40.23653],[-112.18215,40.23097],[-112.19425,40.22752],[-112.20413,40.22446],[-112.21954,40.22168],[-112.24365,40.21736],[-112.25762,40.21422],[-112.27864,40.20974],[-112.30425,40.20338],[-112.31459,40.19963],[-112.31727,40.19863],[-112.3229,40.19625],[-112.32851,40.19398],[-112.33773,40.19157],[-112.34754,40.1903],[-112.35198,40.18957],[-112.35602,40.18878],[-112.36967,40.18634],[-112.38442,40.18355],[-112.38924,40.18309],[-112.39133,40.18306],[-112.39282,40.18285],[-112.39789,40.17968],[-112.40861,40.17377],[-112.41134,40.1737],[-112.4273,40.17389],[-112.42971,40.16844],[-112.43118,40.16529],[-112.43188,40.16529],[-112.43297,40.1653],[-112.4345,40.16532],[-112.43637,40.1653],[-112.43787,40.16431],[-112.43923,40.16284],[-112.44095,40.16186],[-112.44227,40.16124],[-112.44401,40.16044],[-112.44594,40.15933],[-112.44765,40.15784],[-112.44941,40.15626],[-112.45046,40.15532],[-112.45136,40.15455],[-112.45231,40.15363],[-112.45342,40.15245],[-112.45461,40.15115],[-112.45585,40.1498],[-112.45754,40.14793],[-112.45968,40.14559],[-112.46055,40.14464],[-112.462,40.14364],[-112.46398,40.14297],[-112.46603,40.14229],[-112.4701,40.14094],[-112.47137,40.1405],[-112.47307,40.13993],[-112.47498,40.1393],[-112.47701,40.13861],[-112.479,40.13796],[-112.48117,40.13723],[-112.48336,40.1365],[-112.48552,40.13578],[-112.48758,40.13509],[-112.48971,40.13438],[-112.49196,40.13362],[-112.4945,40.13278],[-112.49632,40.13217],[-112.49853,40.13143],[-112.50086,40.13064],[-112.50332,40.12983],[-112.50561,40.12907],[-112.50812,40.12823],[-112.51079,40.12733],[-112.51344,40.12644],[-112.51606,40.12557],[-112.51873,40.12468],[-112.52128,40.12374],[-112.52348,40.12279],[-112.52588,40.12174],[-112.52819,40.12075],[-112.53017,40.1199],[-112.53148,40.11936],[-112.53256,40.11887],[-112.53416,40.11819],[-112.53612,40.11733],[-112.53816,40.11646],[-112.54015,40.11559],[-112.5424,40.11462],[-112.54466,40.11365],[-112.54693,40.1127],[-112.54935,40.11232],[-112.55195,40.11215],[-112.55397,40.11171],[-112.55526,40.11152],[-112.55668,40.11164],[-112.55822,40.11194],[-112.55974,40.11255],[-112.56127,40.11321],[-112.56269,40.11406],[-112.56405,40.11493],[-112.56568,40.11491],[-112.56701,40.11637],[-112.56817,40.11753],[-112.56915,40.11832],[-112.57189,40.11817],[-112.57424,40.11867],[-112.57633,40.11952],[-112.58018,40.12153],[-112.58146,40.12258],[-112.58273,40.12309],[-112.58388,40.12383],[-112.58495,40.12492],[-112.58558,40.12621],[-112.58663,40.12813],[-112.59078,40.13148],[-112.59259,40.13304],[-112.59369,40.13459],[-112.59492,40.13603],[-112.59649,40.13695],[-112.5985,40.13787],[-112.60062,40.13881],[-112.60284,40.1397],[-112.60516,40.1403],[-112.60708,40.14035],[-112.61049,40.13976],[-112.61282,40.13917],[-112.61516,40.13858],[-112.61789,40.13784],[-112.61941,40.13719],[-112.62074,40.13619],[-112.6222,40.13495],[-112.62375,40.13363],[-112.62525,40.13236],[-112.62709,40.13091],[-112.62898,40.12943],[-112.6309,40.12788],[-112.63269,40.12619],[-112.63447,40.12454],[-112.63624,40.1229],[-112.63795,40.12133],[-112.63943,40.11994],[-112.64111,40.1184],[-112.64275,40.11688],[-112.64446,40.11551],[-112.64625,40.11419],[-112.64815,40.11279],[-112.6502,40.11127],[-112.65231,40.10972],[-112.65423,40.1083],[-112.65632,40.10677],[-112.65839,40.10523],[-112.66044,40.10372],[-112.66234,40.10378],[-112.66213,40.10591],[-112.66187,40.10853],[-112.6616,40.11107],[-112.66143,40.11312],[-112.66139,40.11545],[-112.66134,40.11775],[-112.66213,40.11978],[-112.66292,40.12202],[-112.66369,40.12412],[-112.66448,40.1261],[-112.66511,40.12849],[-112.66575,40.13078],[-112.66625,40.1328],[-112.66684,40.13471],[-112.66739,40.13689],[-112.66806,40.13929],[-112.66879,40.14169],[-112.66952,40.14321],[-112.67005,40.14509],[-112.67074,40.14752],[-112.67143,40.14991],[-112.6722,40.1518],[-112.67341,40.1533],[-112.67497,40.15523],[-112.67653,40.15719],[-112.67798,40.159],[-112.67957,40.16101],[-112.68107,40.16287],[-112.68274,40.165],[-112.68456,40.16726],[-112.68641,40.16953],[-112.68818,40.17173],[-112.68995,40.17397],[-112.69174,40.17622],[-112.69338,40.17828],[-112.6951,40.1804],[-112.69679,40.18256],[-112.69847,40.18466],[-112.70008,40.18667],[-112.70176,40.18878],[-112.70334,40.19076],[-112.70498,40.19278],[-112.70672,40.19497],[-112.70853,40.19724],[-112.71041,40.19958],[-112.71233,40.202],[-112.71427,40.20443],[-112.71619,40.20684],[-112.71809,40.2092],[-112.7196,40.2111],[-112.7212,40.21305],[-112.72272,40.21494],[-112.72301,40.22207],[-112.72312,40.22803],[-112.72375,40.23167],[-112.73172,40.25047],[-112.74109,40.26671],[-112.74244,40.29313],[-112.74419,40.32753],[-112.74543,40.35201],[-112.7472,40.38634],[-112.74865,40.41481],[-112.74859,40.44693],[-112.74599,40.4858],[-112.74796,40.50667],[-112.74763,40.53387],[-112.74143,40.54865],[-112.72017,40.59137],[-112.70608,40.61064],[-112.67811,40.66225],[-112.66867,40.68994],[-112.65944,40.72347],[-112.65345,40.74399],[-112.63341,40.74332],[-112.5979,40.73246],[-112.55683,40.72048],[-112.52977,40.70921],[-112.51651,40.70537],[-112.46557,40.69172],[-112.42509,40.68088],[-112.36933,40.66566],[-112.35031,40.66248],[-112.32901,40.66264],[-112.30776,40.66665],[-112.29132,40.67287],[-112.27558,40.68238],[-112.26382,40.69323],[-112.25415,40.70631],[-112.21169,40.7287],[-112.17729,40.74989],[-112.1529,40.76941],[-112.14783,40.77061]]]]}},{"type":"Feature","properties":{"boundary_id":"622","BoundaryID":"622","Boundary_Name":"Oquirrh-Stansbury","boundary_name":"Oquirrh-Stansbury","source":"arcgis_lite_individual"},"geometry":{"type":"MultiPolygon","coordinates":[[[[-112.14783,40.77061],[-112.06307,40.77086],[-112.00718,40.77002],[-111.98553,40.76433],[-111.95203,40.76531],[-111.93913,40.76611],[-111.91348,40.76444],[-111.91212,40.75649],[-111.90469,40.74578],[-111.90422,40.73945],[-111.90423,40.72221],[-111.90428,40.71698],[-111.90351,40.70428],[-111.90183,40.69928],[-111.9024,40.69393],[-111.90229,40.6836],[-111.90133,40.67405],[-111.90157,40.65478],[-111.90326,40.63996],[-111.90484,40.63516],[-111.90337,40.62951],[-111.90376,40.62125],[-111.90449,40.61912],[-111.90587,40.61092],[-111.90109,40.59062],[-111.89994,40.58072],[-111.89865,40.56133],[-111.89459,40.54436],[-111.89096,40.52617],[-111.89098,40.50433],[-111.89185,40.49096],[-111.90149,40.48104],[-111.90434,40.47712],[-111.91247,40.46536],[-111.9143,40.4592],[-111.91226,40.44958],[-111.89555,40.43634],[-111.87612,40.41863],[-111.86441,40.41117],[-111.83546,40.39216],[-111.83971,40.38814],[-111.85663,40.38766],[-111.85728,40.38742],[-111.88056,40.38726],[-111.93082,40.38752],[-111.95786,40.38337],[-111.98117,40.38036],[-112.00586,40.37711],[-112.02808,40.36956],[-112.0787,40.34664],[-112.1015,40.33237],[-112.10237,40.32468],[-112.09926,40.29849],[-112.09316,40.26957],[-112.09515,40.26131],[-112.10024,40.2573],[-112.16262,40.23653],[-112.18215,40.23097],[-112.19425,40.22752],[-112.20413,40.22446],[-112.21954,40.22168],[-112.24365,40.21736],[-112.25762,40.21422],[-112.27864,40.20974],[-112.30425,40.20338],[-112.31459,40.19963],[-112.31727,40.19863],[-112.3229,40.19625],[-112.32851,40.19398],[-112.33773,40.19157],[-112.34754,40.1903],[-112.35198,40.18957],[-112.35602,40.18878],[-112.36967,40.18634],[-112.38442,40.18355],[-112.38924,40.18309],[-112.39133,40.18306],[-112.39282,40.18285],[-112.39789,40.17968],[-112.40861,40.17377],[-112.41134,40.1737],[-112.4273,40.17389],[-112.42971,40.16844],[-112.43118,40.16529],[-112.43188,40.16529],[-112.43297,40.1653],[-112.4345,40.16532],[-112.43637,40.1653],[-112.43787,40.16431],[-112.43923,40.16284],[-112.44095,40.16186],[-112.44227,40.16124],[-112.44401,40.16044],[-112.44594,40.15933],[-112.44765,40.15784],[-112.44941,40.15626],[-112.45046,40.15532],[-112.45136,40.15455],[-112.45231,40.15363],[-112.45342,40.15245],[-112.45461,40.15115],[-112.45585,40.1498],[-112.45754,40.14793],[-112.45968,40.14559],[-112.46055,40.14464],[-112.462,40.14364],[-112.46398,40.14297],[-112.46603,40.14229],[-112.4701,40.14094],[-112.47137,40.1405],[-112.47307,40.13993],[-112.47498,40.1393],[-112.47701,40.13861],[-112.479,40.13796],[-112.48117,40.13723],[-112.48336,40.1365],[-112.48552,40.13578],[-112.48758,40.13509],[-112.48971,40.13438],[-112.49196,40.13362],[-112.4945,40.13278],[-112.49632,40.13217],[-112.49853,40.13143],[-112.50086,40.13064],[-112.50332,40.12983],[-112.50561,40.12907],[-112.50812,40.12823],[-112.51079,40.12733],[-112.51344,40.12644],[-112.51606,40.12557],[-112.51873,40.12468],[-112.52128,40.12374],[-112.52348,40.12279],[-112.52588,40.12174],[-112.52819,40.12075],[-112.53017,40.1199],[-112.53148,40.11936],[-112.53256,40.11887],[-112.53416,40.11819],[-112.53612,40.11733],[-112.53816,40.11646],[-112.54015,40.11559],[-112.5424,40.11462],[-112.54466,40.11365],[-112.54693,40.1127],[-112.54935,40.11232],[-112.55195,40.11215],[-112.55397,40.11171],[-112.55526,40.11152],[-112.55668,40.11164],[-112.55822,40.11194],[-112.55974,40.11255],[-112.56127,40.11321],[-112.56269,40.11406],[-112.56405,40.11493],[-112.56568,40.11491],[-112.56701,40.11637],[-112.56817,40.11753],[-112.56915,40.11832],[-112.57189,40.11817],[-112.57424,40.11867],[-112.57633,40.11952],[-112.58018,40.12153],[-112.58146,40.12258],[-112.58273,40.12309],[-112.58388,40.12383],[-112.58495,40.12492],[-112.58558,40.12621],[-112.58663,40.12813],[-112.59078,40.13148],[-112.59259,40.13304],[-112.59369,40.13459],[-112.59492,40.13603],[-112.59649,40.13695],[-112.5985,40.13787],[-112.60062,40.13881],[-112.60284,40.1397],[-112.60516,40.1403],[-112.60708,40.14035],[-112.61049,40.13976],[-112.61282,40.13917],[-112.61516,40.13858],[-112.61789,40.13784],[-112.61941,40.13719],[-112.62074,40.13619],[-112.6222,40.13495],[-112.62375,40.13363],[-112.62525,40.13236],[-112.62709,40.13091],[-112.62898,40.12943],[-112.6309,40.12788],[-112.63269,40.12619],[-112.63447,40.12454],[-112.63624,40.1229],[-112.63795,40.12133],[-112.63943,40.11994],[-112.64111,40.1184],[-112.64275,40.11688],[-112.64446,40.11551],[-112.64625,40.11419],[-112.64815,40.11279],[-112.6502,40.11127],[-112.65231,40.10972],[-112.65423,40.1083],[-112.65632,40.10677],[-112.65839,40.10523],[-112.66044,40.10372],[-112.66234,40.10378],[-112.66213,40.10591],[-112.66187,40.10853],[-112.6616,40.11107],[-112.66143,40.11312],[-112.66139,40.11545],[-112.66134,40.11775],[-112.66213,40.11978],[-112.66292,40.12202],[-112.66369,40.12412],[-112.66448,40.1261],[-112.66511,40.12849],[-112.66575,40.13078],[-112.66625,40.1328],[-112.66684,40.13471],[-112.66739,40.13689],[-112.66806,40.13929],[-112.66879,40.14169],[-112.66952,40.14321],[-112.67005,40.14509],[-112.67074,40.14752],[-112.67143,40.14991],[-112.6722,40.1518],[-112.67341,40.1533],[-112.67497,40.15523],[-112.67653,40.15719],[-112.67798,40.159],[-112.67957,40.16101],[-112.68107,40.16287],[-112.68274,40.165],[-112.68456,40.16726],[-112.68641,40.16953],[-112.68818,40.17173],[-112.68995,40.17397],[-112.69174,40.17622],[-112.69338,40.17828],[-112.6951,40.1804],[-112.69679,40.18256],[-112.69847,40.18466],[-112.70008,40.18667],[-112.70176,40.18878],[-112.70334,40.19076],[-112.70498,40.19278],[-112.70672,40.19497],[-112.70853,40.19724],[-112.71041,40.19958],[-112.71233,40.202],[-112.71427,40.20443],[-112.71619,40.20684],[-112.71809,40.2092],[-112.7196,40.2111],[-112.7212,40.21305],[-112.72272,40.21494],[-112.72301,40.22207],[-112.72312,40.22803],[-112.72375,40.23167],[-112.73172,40.25047],[-112.74109,40.26671],[-112.74244,40.29313],[-112.74419,40.32753],[-112.74543,40.35201],[-112.7472,40.38634],[-112.74865,40.41481],[-112.74859,40.44693],[-112.74599,40.4858],[-112.74796,40.50667],[-112.74763,40.53387],[-112.74143,40.54865],[-112.72017,40.59137],[-112.70608,40.61064],[-112.67811,40.66225],[-112.66867,40.68994],[-112.65944,40.72347],[-112.65345,40.74399],[-112.63341,40.74332],[-112.5979,40.73246],[-112.55683,40.72048],[-112.52977,40.70921],[-112.51651,40.70537],[-112.46557,40.69172],[-112.42509,40.68088],[-112.36933,40.66566],[-112.35031,40.66248],[-112.32901,40.66264],[-112.30776,40.66665],[-112.29132,40.67287],[-112.27558,40.68238],[-112.26382,40.69323],[-112.25415,40.70631],[-112.21169,40.7287],[-112.17729,40.74989],[-112.1529,40.76941],[-112.14783,40.77061]]]]}},{"type":"Feature","properties":{"boundary_id":"622","BoundaryID":"622","Boundary_Name":"Oquirrh-Stansbury","boundary_name":"Oquirrh-Stansbury","source":"arcgis_lite_individual"},"geometry":{"type":"MultiPolygon","coordinates":[[[[-112.14783,40.77061],[-112.06307,40.77086],[-112.00718,40.77002],[-111.98553,40.76433],[-111.95203,40.76531],[-111.93913,40.76611],[-111.91348,40.76444],[-111.91212,40.75649],[-111.90469,40.74578],[-111.90422,40.73945],[-111.90423,40.72221],[-111.90428,40.71698],[-111.90351,40.70428],[-111.90183,40.69928],[-111.9024,40.69393],[-111.90229,40.6836],[-111.90133,40.67405],[-111.90157,40.65478],[-111.90326,40.63996],[-111.90484,40.63516],[-111.90337,40.62951],[-111.90376,40.62125],[-111.90449,40.61912],[-111.90587,40.61092],[-111.90109,40.59062],[-111.89994,40.58072],[-111.89865,40.56133],[-111.89459,40.54436],[-111.89096,40.52617],[-111.89098,40.50433],[-111.89185,40.49096],[-111.90149,40.48104],[-111.90434,40.47712],[-111.91247,40.46536],[-111.9143,40.4592],[-111.91226,40.44958],[-111.89555,40.43634],[-111.87612,40.41863],[-111.86441,40.41117],[-111.83546,40.39216],[-111.83971,40.38814],[-111.85663,40.38766],[-111.85728,40.38742],[-111.88056,40.38726],[-111.93082,40.38752],[-111.95786,40.38337],[-111.98117,40.38036],[-112.00586,40.37711],[-112.02808,40.36956],[-112.0787,40.34664],[-112.1015,40.33237],[-112.10237,40.32468],[-112.09926,40.29849],[-112.09316,40.26957],[-112.09515,40.26131],[-112.10024,40.2573],[-112.16262,40.23653],[-112.18215,40.23097],[-112.19425,40.22752],[-112.20413,40.22446],[-112.21954,40.22168],[-112.24365,40.21736],[-112.25762,40.21422],[-112.27864,40.20974],[-112.30425,40.20338],[-112.31459,40.19963],[-112.31727,40.19863],[-112.3229,40.19625],[-112.32851,40.19398],[-112.33773,40.19157],[-112.34754,40.1903],[-112.35198,40.18957],[-112.35602,40.18878],[-112.36967,40.18634],[-112.38442,40.18355],[-112.38924,40.18309],[-112.39133,40.18306],[-112.39282,40.18285],[-112.39789,40.17968],[-112.40861,40.17377],[-112.41134,40.1737],[-112.4273,40.17389],[-112.42971,40.16844],[-112.43118,40.16529],[-112.43188,40.16529],[-112.43297,40.1653],[-112.4345,40.16532],[-112.43637,40.1653],[-112.43787,40.16431],[-112.43923,40.16284],[-112.44095,40.16186],[-112.44227,40.16124],[-112.44401,40.16044],[-112.44594,40.15933],[-112.44765,40.15784],[-112.44941,40.15626],[-112.45046,40.15532],[-112.45136,40.15455],[-112.45231,40.15363],[-112.45342,40.15245],[-112.45461,40.15115],[-112.45585,40.1498],[-112.45754,40.14793],[-112.45968,40.14559],[-112.46055,40.14464],[-112.462,40.14364],[-112.46398,40.14297],[-112.46603,40.14229],[-112.4701,40.14094],[-112.47137,40.1405],[-112.47307,40.13993],[-112.47498,40.1393],[-112.47701,40.13861],[-112.479,40.13796],[-112.48117,40.13723],[-112.48336,40.1365],[-112.48552,40.13578],[-112.48758,40.13509],[-112.48971,40.13438],[-112.49196,40.13362],[-112.4945,40.13278],[-112.49632,40.13217],[-112.49853,40.13143],[-112.50086,40.13064],[-112.50332,40.12983],[-112.50561,40.12907],[-112.50812,40.12823],[-112.51079,40.12733],[-112.51344,40.12644],[-112.51606,40.12557],[-112.51873,40.12468],[-112.52128,40.12374],[-112.52348,40.12279],[-112.52588,40.12174],[-112.52819,40.12075],[-112.53017,40.1199],[-112.53148,40.11936],[-112.53256,40.11887],[-112.53416,40.11819],[-112.53612,40.11733],[-112.53816,40.11646],[-112.54015,40.11559],[-112.5424,40.11462],[-112.54466,40.11365],[-112.54693,40.1127],[-112.54935,40.11232],[-112.55195,40.11215],[-112.55397,40.11171],[-112.55526,40.11152],[-112.55668,40.11164],[-112.55822,40.11194],[-112.55974,40.11255],[-112.56127,40.11321],[-112.56269,40.11406],[-112.56405,40.11493],[-112.56568,40.11491],[-112.56701,40.11637],[-112.56817,40.11753],[-112.56915,40.11832],[-112.57189,40.11817],[-112.57424,40.11867],[-112.57633,40.11952],[-112.58018,40.12153],[-112.58146,40.12258],[-112.58273,40.12309],[-112.58388,40.12383],[-112.58495,40.12492],[-112.58558,40.12621],[-112.58663,40.12813],[-112.59078,40.13148],[-112.59259,40.13304],[-112.59369,40.13459],[-112.59492,40.13603],[-112.59649,40.13695],[-112.5985,40.13787],[-112.60062,40.13881],[-112.60284,40.1397],[-112.60516,40.1403],[-112.60708,40.14035],[-112.61049,40.13976],[-112.61282,40.13917],[-112.61516,40.13858],[-112.61789,40.13784],[-112.61941,40.13719],[-112.62074,40.13619],[-112.6222,40.13495],[-112.62375,40.13363],[-112.62525,40.13236],[-112.62709,40.13091],[-112.62898,40.12943],[-112.6309,40.12788],[-112.63269,40.12619],[-112.63447,40.12454],[-112.63624,40.1229],[-112.63795,40.12133],[-112.63943,40.11994],[-112.64111,40.1184],[-112.64275,40.11688],[-112.64446,40.11551],[-112.64625,40.11419],[-112.64815,40.11279],[-112.6502,40.11127],[-112.65231,40.10972],[-112.65423,40.1083],[-112.65632,40.10677],[-112.65839,40.10523],[-112.66044,40.10372],[-112.66234,40.10378],[-112.66213,40.10591],[-112.66187,40.10853],[-112.6616,40.11107],[-112.66143,40.11312],[-112.66139,40.11545],[-112.66134,40.11775],[-112.66213,40.11978],[-112.66292,40.12202],[-112.66369,40.12412],[-112.66448,40.1261],[-112.66511,40.12849],[-112.66575,40.13078],[-112.66625,40.1328],[-112.66684,40.13471],[-112.66739,40.13689],[-112.66806,40.13929],[-112.66879,40.14169],[-112.66952,40.14321],[-112.67005,40.14509],[-112.67074,40.14752],[-112.67143,40.14991],[-112.6722,40.1518],[-112.67341,40.1533],[-112.67497,40.15523],[-112.67653,40.15719],[-112.67798,40.159],[-112.67957,40.16101],[-112.68107,40.16287],[-112.68274,40.165],[-112.68456,40.16726],[-112.68641,40.16953],[-112.68818,40.17173],[-112.68995,40.17397],[-112.69174,40.17622],[-112.69338,40.17828],[-112.6951,40.1804],[-112.69679,40.18256],[-112.69847,40.18466],[-112.70008,40.18667],[-112.70176,40.18878],[-112.70334,40.19076],[-112.70498,40.19278],[-112.70672,40.19497],[-112.70853,40.19724],[-112.71041,40.19958],[-112.71233,40.202],[-112.71427,40.20443],[-112.71619,40.20684],[-112.71809,40.2092],[-112.7196,40.2111],[-112.7212,40.21305],[-112.72272,40.21494],[-112.72301,40.22207],[-112.72312,40.22803],[-112.72375,40.23167],[-112.73172,40.25047],[-112.74109,40.26671],[-112.74244,40.29313],[-112.74419,40.32753],[-112.74543,40.35201],[-112.7472,40.38634],[-112.74865,40.41481],[-112.74859,40.44693],[-112.74599,40.4858],[-112.74796,40.50667],[-112.74763,40.53387],[-112.74143,40.54865],[-112.72017,40.59137],[-112.70608,40.61064],[-112.67811,40.66225],[-112.66867,40.68994],[-112.65944,40.72347],[-112.65345,40.74399],[-112.63341,40.74332],[-112.5979,40.73246],[-112.55683,40.72048],[-112.52977,40.70921],[-112.51651,40.70537],[-112.46557,40.69172],[-112.42509,40.68088],[-112.36933,40.66566],[-112.35031,40.66248],[-112.32901,40.66264],[-112.30776,40.66665],[-112.29132,40.67287],[-112.27558,40.68238],[-112.26382,40.69323],[-112.25415,40.70631],[-112.21169,40.7287],[-112.17729,40.74989],[-112.1529,40.76941],[-112.14783,40.77061]]]]}}]}