{"type":"FeatureCollection","metadata":{"hunt_code":"DB1089","boundary_id":"623","member_boundary_ids":[],"source_boundary_ids":["623"],"source_hunt_code":"DB1089","merged_boundary_id":null,"boundary_geometry_type":"single_boundary_id","generated_from":"display-boundary-index-2026-existing-fallback-reconcile","boundary_source_authority":"Utah DWR","boundary_source_file":"data/hunt-master-canonical-2026-source-of-truth.json","fallback_source_file":"data/hunt_boundaries.geojson"},"features":[{"type":"Feature","properties":{"boundary_id":"623","BoundaryID":"623","Boundary_Name":"West Desert, West","boundary_name":"West Desert, West","source":"arcgis_lite_individual"},"geometry":{"type":"MultiPolygon","coordinates":[[[[-112.65668,40.73351],[-112.66537,40.70194],[-112.67404,40.67049],[-112.69965,40.62239],[-112.71191,40.60263],[-112.731,40.56967],[-112.74627,40.53883],[-112.74775,40.52321],[-112.74804,40.49394],[-112.74581,40.47759],[-112.74872,40.43286],[-112.74778,40.39764],[-112.74683,40.37928],[-112.74491,40.34162],[-112.74311,40.30647],[-112.74208,40.28607],[-112.74038,40.25711],[-112.72319,40.24227],[-112.72312,40.23119],[-112.723,40.22547],[-112.72298,40.21581],[-112.72199,40.21402],[-112.72039,40.21207],[-112.71895,40.21029],[-112.71713,40.20802],[-112.71524,40.20564],[-112.7133,40.20322],[-112.71136,40.20078],[-112.70945,40.1984],[-112.70762,40.1961],[-112.70585,40.19386],[-112.70413,40.19174],[-112.70258,40.1898],[-112.70091,40.18771],[-112.69927,40.18566],[-112.69766,40.18364],[-112.69593,40.18146],[-112.69423,40.17934],[-112.69256,40.17724],[-112.69086,40.17511],[-112.68905,40.17283],[-112.68729,40.17064],[-112.68549,40.16841],[-112.68363,40.16612],[-112.68188,40.16392],[-112.68038,40.16202],[-112.67877,40.16],[-112.67718,40.15802],[-112.67574,40.15621],[-112.67419,40.15426],[-112.67266,40.15238],[-112.67172,40.15098],[-112.67111,40.14874],[-112.67039,40.14632],[-112.66976,40.14399],[-112.6692,40.14268],[-112.6684,40.14046],[-112.66768,40.13809],[-112.66717,40.13576],[-112.66649,40.13368],[-112.66597,40.13168],[-112.66547,40.12965],[-112.6648,40.12727],[-112.66403,40.12504],[-112.66335,40.12314],[-112.66248,40.12086],[-112.6617,40.11875],[-112.66131,40.11667],[-112.66145,40.11428],[-112.66153,40.11211],[-112.66172,40.10986],[-112.66201,40.10718],[-112.66224,40.10474],[-112.66202,40.10311],[-112.66241,40.10228],[-112.66383,40.10122],[-112.66565,40.09986],[-112.66771,40.09834],[-112.66987,40.09676],[-112.67207,40.09513],[-112.67424,40.09353],[-112.67634,40.09197],[-112.67847,40.09039],[-112.68057,40.0888],[-112.6825,40.08736],[-112.6846,40.08626],[-112.68655,40.08524],[-112.68828,40.08446],[-112.68981,40.08316],[-112.69153,40.08218],[-112.69367,40.08235],[-112.69561,40.0834],[-112.69803,40.08346],[-112.70066,40.08327],[-112.70302,40.08324],[-112.70555,40.08321],[-112.70808,40.0832],[-112.7102,40.08317],[-112.71274,40.08316],[-112.71553,40.08314],[-112.7183,40.08312],[-112.72092,40.08311],[-112.72351,40.08308],[-112.72604,40.08306],[-112.72821,40.08303],[-112.73072,40.08304],[-112.73318,40.08307],[-112.74565,40.08314],[-112.75563,40.08303],[-112.76221,40.08263],[-112.76789,40.08229],[-112.77346,40.07964],[-112.77809,40.07547],[-112.78263,40.07065],[-112.78578,40.0638],[-112.78659,40.05498],[-112.78601,40.04707],[-112.78611,40.04063],[-112.79109,40.03685],[-112.79702,40.03431],[-112.80458,40.02951],[-112.81244,40.02393],[-112.82009,40.0185],[-112.82769,40.01308],[-112.83517,40.00776],[-112.84443,40.00117],[-112.85263,39.99533],[-112.86069,39.98962],[-112.86862,39.98396],[-112.87651,39.97837],[-112.88339,39.97343],[-112.88896,39.96797],[-112.89201,39.96223],[-112.89539,39.95862],[-112.90376,39.95638],[-112.91284,39.9539],[-112.91845,39.95066],[-112.9253,39.94661],[-112.93105,39.94323],[-112.93601,39.9403],[-112.94351,39.93587],[-112.95212,39.93077],[-112.96221,39.92481],[-112.97169,39.9192],[-112.98161,39.91331],[-112.99093,39.90778],[-113.00555,39.89911],[-113.02966,39.88193],[-113.02524,39.86904],[-113.02251,39.85753],[-113.01982,39.84495],[-113.01952,39.82694],[-113.01714,39.81665],[-113.02364,39.8016],[-113.02393,39.78774],[-113.02399,39.76362],[-113.0237,39.74102],[-113.02326,39.71499],[-113.02196,39.6955],[-113.02438,39.68352],[-113.02431,39.67315],[-112.99784,39.64549],[-112.95164,39.62249],[-112.86192,39.58415],[-112.85239,39.5786],[-112.8197,39.55262],[-112.77225,39.52234],[-112.75587,39.51221],[-112.7475,39.50975],[-112.72805,39.5092],[-112.70659,39.50885],[-112.66704,39.50883],[-112.64729,39.50882],[-112.62551,39.50744],[-112.57831,39.4952],[-112.55125,39.48913],[-112.51586,39.48179],[-112.4836,39.47508],[-112.44332,39.4667],[-112.43658,39.46405],[-112.46598,39.43101],[-112.49478,39.40402],[-112.51483,39.38838],[-112.53779,39.37227],[-112.55868,39.35754],[-112.56368,39.35318],[-112.59469,39.35143],[-112.5984,39.34797],[-112.61233,39.33149],[-112.62297,39.33051],[-112.70526,39.33089],[-112.72027,39.33021],[-112.74616,39.31774],[-112.76478,39.31251],[-112.81319,39.29927],[-112.84762,39.27934],[-112.88249,39.25903],[-112.90954,39.24329],[-112.9458,39.22221],[-112.98892,39.19708],[-113.02729,39.17474],[-113.07721,39.14558],[-113.12272,39.11896],[-113.14274,39.10723],[-113.16468,39.09436],[-113.18442,39.08573],[-113.21445,39.0734],[-113.23261,39.06594],[-113.26359,39.05373],[-113.29618,39.04201],[-113.31509,39.0382],[-113.33937,39.03522],[-113.34435,39.02829],[-113.36115,39.02361],[-113.36828,39.02338],[-113.38153,39.03036],[-113.39704,39.03859],[-113.41122,39.04616],[-113.42476,39.05337],[-113.43989,39.06141],[-113.4503,39.06611],[-113.47639,39.07607],[-113.49415,39.08276],[-113.51262,39.08479],[-113.55073,39.08792],[-113.55903,39.08595],[-113.56549,39.08704],[-113.56976,39.08475],[-113.57581,39.08463],[-113.58184,39.08447],[-113.58922,39.08227],[-113.59965,39.08377],[-113.60864,39.07915],[-113.62987,39.07604],[-113.65421,39.07109],[-113.68384,39.07636],[-113.70284,39.07906],[-113.72457,39.07157],[-113.75082,39.0623],[-113.79442,39.04684],[-113.81853,39.03956],[-113.8504,39.04189],[-113.92009,39.04727],[-114.00084,39.05346],[-114.0489,39.08519],[-114.04853,39.25553],[-114.04822,39.37896],[-114.04784,39.49859],[-114.04758,39.60176],[-114.04705,39.69145],[-114.04779,39.775],[-114.04715,39.87941],[-114.04701,39.96354],[-114.0468,40.00778],[-114.04656,40.12431],[-114.04644,40.20217],[-114.04637,40.2714],[-114.04616,40.37602],[-114.04511,40.43107],[-114.04542,40.47869],[-114.04449,40.63414],[-114.04398,40.69739],[-114.04362,40.73798],[-114.0311,40.74149],[-114.01732,40.74594],[-114.00641,40.74707],[-113.99527,40.74593],[-113.97028,40.74197],[-113.92584,40.73995],[-113.85952,40.73864],[-113.78236,40.73707],[-113.70208,40.73541],[-113.60259,40.73323],[-113.51529,40.73124],[-113.3989,40.72851],[-113.32927,40.72754],[-113.26884,40.72656],[-113.23222,40.72614],[-113.1623,40.72529],[-113.12486,40.72842],[-113.06694,40.74436],[-112.99833,40.76318],[-112.98028,40.77084],[-112.9426,40.80035],[-112.91066,40.81856],[-112.89045,40.82182],[-112.85344,40.80204],[-112.80614,40.77615],[-112.76958,40.75755],[-112.69204,40.74954],[-112.65307,40.74522],[-112.65668,40.73351]]]]}},{"type":"Feature","properties":{"boundary_id":"623","BoundaryID":"623","Boundary_Name":"West Desert, West","boundary_name":"West Desert, West","source":"arcgis_lite_individual"},"geometry":{"type":"MultiPolygon","coordinates":[[[[-112.65668,40.73351],[-112.66537,40.70194],[-112.67404,40.67049],[-112.69965,40.62239],[-112.71191,40.60263],[-112.731,40.56967],[-112.74627,40.53883],[-112.74775,40.52321],[-112.74804,40.49394],[-112.74581,40.47759],[-112.74872,40.43286],[-112.74778,40.39764],[-112.74683,40.37928],[-112.74491,40.34162],[-112.74311,40.30647],[-112.74208,40.28607],[-112.74038,40.25711],[-112.72319,40.24227],[-112.72312,40.23119],[-112.723,40.22547],[-112.72298,40.21581],[-112.72199,40.21402],[-112.72039,40.21207],[-112.71895,40.21029],[-112.71713,40.20802],[-112.71524,40.20564],[-112.7133,40.20322],[-112.71136,40.20078],[-112.70945,40.1984],[-112.70762,40.1961],[-112.70585,40.19386],[-112.70413,40.19174],[-112.70258,40.1898],[-112.70091,40.18771],[-112.69927,40.18566],[-112.69766,40.18364],[-112.69593,40.18146],[-112.69423,40.17934],[-112.69256,40.17724],[-112.69086,40.17511],[-112.68905,40.17283],[-112.68729,40.17064],[-112.68549,40.16841],[-112.68363,40.16612],[-112.68188,40.16392],[-112.68038,40.16202],[-112.67877,40.16],[-112.67718,40.15802],[-112.67574,40.15621],[-112.67419,40.15426],[-112.67266,40.15238],[-112.67172,40.15098],[-112.67111,40.14874],[-112.67039,40.14632],[-112.66976,40.14399],[-112.6692,40.14268],[-112.6684,40.14046],[-112.66768,40.13809],[-112.66717,40.13576],[-112.66649,40.13368],[-112.66597,40.13168],[-112.66547,40.12965],[-112.6648,40.12727],[-112.66403,40.12504],[-112.66335,40.12314],[-112.66248,40.12086],[-112.6617,40.11875],[-112.66131,40.11667],[-112.66145,40.11428],[-112.66153,40.11211],[-112.66172,40.10986],[-112.66201,40.10718],[-112.66224,40.10474],[-112.66202,40.10311],[-112.66241,40.10228],[-112.66383,40.10122],[-112.66565,40.09986],[-112.66771,40.09834],[-112.66987,40.09676],[-112.67207,40.09513],[-112.67424,40.09353],[-112.67634,40.09197],[-112.67847,40.09039],[-112.68057,40.0888],[-112.6825,40.08736],[-112.6846,40.08626],[-112.68655,40.08524],[-112.68828,40.08446],[-112.68981,40.08316],[-112.69153,40.08218],[-112.69367,40.08235],[-112.69561,40.0834],[-112.69803,40.08346],[-112.70066,40.08327],[-112.70302,40.08324],[-112.70555,40.08321],[-112.70808,40.0832],[-112.7102,40.08317],[-112.71274,40.08316],[-112.71553,40.08314],[-112.7183,40.08312],[-112.72092,40.08311],[-112.72351,40.08308],[-112.72604,40.08306],[-112.72821,40.08303],[-112.73072,40.08304],[-112.73318,40.08307],[-112.74565,40.08314],[-112.75563,40.08303],[-112.76221,40.08263],[-112.76789,40.08229],[-112.77346,40.07964],[-112.77809,40.07547],[-112.78263,40.07065],[-112.78578,40.0638],[-112.78659,40.05498],[-112.78601,40.04707],[-112.78611,40.04063],[-112.79109,40.03685],[-112.79702,40.03431],[-112.80458,40.02951],[-112.81244,40.02393],[-112.82009,40.0185],[-112.82769,40.01308],[-112.83517,40.00776],[-112.84443,40.00117],[-112.85263,39.99533],[-112.86069,39.98962],[-112.86862,39.98396],[-112.87651,39.97837],[-112.88339,39.97343],[-112.88896,39.96797],[-112.89201,39.96223],[-112.89539,39.95862],[-112.90376,39.95638],[-112.91284,39.9539],[-112.91845,39.95066],[-112.9253,39.94661],[-112.93105,39.94323],[-112.93601,39.9403],[-112.94351,39.93587],[-112.95212,39.93077],[-112.96221,39.92481],[-112.97169,39.9192],[-112.98161,39.91331],[-112.99093,39.90778],[-113.00555,39.89911],[-113.02966,39.88193],[-113.02524,39.86904],[-113.02251,39.85753],[-113.01982,39.84495],[-113.01952,39.82694],[-113.01714,39.81665],[-113.02364,39.8016],[-113.02393,39.78774],[-113.02399,39.76362],[-113.0237,39.74102],[-113.02326,39.71499],[-113.02196,39.6955],[-113.02438,39.68352],[-113.02431,39.67315],[-112.99784,39.64549],[-112.95164,39.62249],[-112.86192,39.58415],[-112.85239,39.5786],[-112.8197,39.55262],[-112.77225,39.52234],[-112.75587,39.51221],[-112.7475,39.50975],[-112.72805,39.5092],[-112.70659,39.50885],[-112.66704,39.50883],[-112.64729,39.50882],[-112.62551,39.50744],[-112.57831,39.4952],[-112.55125,39.48913],[-112.51586,39.48179],[-112.4836,39.47508],[-112.44332,39.4667],[-112.43658,39.46405],[-112.46598,39.43101],[-112.49478,39.40402],[-112.51483,39.38838],[-112.53779,39.37227],[-112.55868,39.35754],[-112.56368,39.35318],[-112.59469,39.35143],[-112.5984,39.34797],[-112.61233,39.33149],[-112.62297,39.33051],[-112.70526,39.33089],[-112.72027,39.33021],[-112.74616,39.31774],[-112.76478,39.31251],[-112.81319,39.29927],[-112.84762,39.27934],[-112.88249,39.25903],[-112.90954,39.24329],[-112.9458,39.22221],[-112.98892,39.19708],[-113.02729,39.17474],[-113.07721,39.14558],[-113.12272,39.11896],[-113.14274,39.10723],[-113.16468,39.09436],[-113.18442,39.08573],[-113.21445,39.0734],[-113.23261,39.06594],[-113.26359,39.05373],[-113.29618,39.04201],[-113.31509,39.0382],[-113.33937,39.03522],[-113.34435,39.02829],[-113.36115,39.02361],[-113.36828,39.02338],[-113.38153,39.03036],[-113.39704,39.03859],[-113.41122,39.04616],[-113.42476,39.05337],[-113.43989,39.06141],[-113.4503,39.06611],[-113.47639,39.07607],[-113.49415,39.08276],[-113.51262,39.08479],[-113.55073,39.08792],[-113.55903,39.08595],[-113.56549,39.08704],[-113.56976,39.08475],[-113.57581,39.08463],[-113.58184,39.08447],[-113.58922,39.08227],[-113.59965,39.08377],[-113.60864,39.07915],[-113.62987,39.07604],[-113.65421,39.07109],[-113.68384,39.07636],[-113.70284,39.07906],[-113.72457,39.07157],[-113.75082,39.0623],[-113.79442,39.04684],[-113.81853,39.03956],[-113.8504,39.04189],[-113.92009,39.04727],[-114.00084,39.05346],[-114.0489,39.08519],[-114.04853,39.25553],[-114.04822,39.37896],[-114.04784,39.49859],[-114.04758,39.60176],[-114.04705,39.69145],[-114.04779,39.775],[-114.04715,39.87941],[-114.04701,39.96354],[-114.0468,40.00778],[-114.04656,40.12431],[-114.04644,40.20217],[-114.04637,40.2714],[-114.04616,40.37602],[-114.04511,40.43107],[-114.04542,40.47869],[-114.04449,40.63414],[-114.04398,40.69739],[-114.04362,40.73798],[-114.0311,40.74149],[-114.01732,40.74594],[-114.00641,40.74707],[-113.99527,40.74593],[-113.97028,40.74197],[-113.92584,40.73995],[-113.85952,40.73864],[-113.78236,40.73707],[-113.70208,40.73541],[-113.60259,40.73323],[-113.51529,40.73124],[-113.3989,40.72851],[-113.32927,40.72754],[-113.26884,40.72656],[-113.23222,40.72614],[-113.1623,40.72529],[-113.12486,40.72842],[-113.06694,40.74436],[-112.99833,40.76318],[-112.98028,40.77084],[-112.9426,40.80035],[-112.91066,40.81856],[-112.89045,40.82182],[-112.85344,40.80204],[-112.80614,40.77615],[-112.76958,40.75755],[-112.69204,40.74954],[-112.65307,40.74522],[-112.65668,40.73351]]]]}},{"type":"Feature","properties":{"boundary_id":"623","BoundaryID":"623","Boundary_Name":"West Desert, West","boundary_name":"West Desert, West","source":"arcgis_lite_individual"},"geometry":{"type":"MultiPolygon","coordinates":[[[[-112.65668,40.73351],[-112.66537,40.70194],[-112.67404,40.67049],[-112.69965,40.62239],[-112.71191,40.60263],[-112.731,40.56967],[-112.74627,40.53883],[-112.74775,40.52321],[-112.74804,40.49394],[-112.74581,40.47759],[-112.74872,40.43286],[-112.74778,40.39764],[-112.74683,40.37928],[-112.74491,40.34162],[-112.74311,40.30647],[-112.74208,40.28607],[-112.74038,40.25711],[-112.72319,40.24227],[-112.72312,40.23119],[-112.723,40.22547],[-112.72298,40.21581],[-112.72199,40.21402],[-112.72039,40.21207],[-112.71895,40.21029],[-112.71713,40.20802],[-112.71524,40.20564],[-112.7133,40.20322],[-112.71136,40.20078],[-112.70945,40.1984],[-112.70762,40.1961],[-112.70585,40.19386],[-112.70413,40.19174],[-112.70258,40.1898],[-112.70091,40.18771],[-112.69927,40.18566],[-112.69766,40.18364],[-112.69593,40.18146],[-112.69423,40.17934],[-112.69256,40.17724],[-112.69086,40.17511],[-112.68905,40.17283],[-112.68729,40.17064],[-112.68549,40.16841],[-112.68363,40.16612],[-112.68188,40.16392],[-112.68038,40.16202],[-112.67877,40.16],[-112.67718,40.15802],[-112.67574,40.15621],[-112.67419,40.15426],[-112.67266,40.15238],[-112.67172,40.15098],[-112.67111,40.14874],[-112.67039,40.14632],[-112.66976,40.14399],[-112.6692,40.14268],[-112.6684,40.14046],[-112.66768,40.13809],[-112.66717,40.13576],[-112.66649,40.13368],[-112.66597,40.13168],[-112.66547,40.12965],[-112.6648,40.12727],[-112.66403,40.12504],[-112.66335,40.12314],[-112.66248,40.12086],[-112.6617,40.11875],[-112.66131,40.11667],[-112.66145,40.11428],[-112.66153,40.11211],[-112.66172,40.10986],[-112.66201,40.10718],[-112.66224,40.10474],[-112.66202,40.10311],[-112.66241,40.10228],[-112.66383,40.10122],[-112.66565,40.09986],[-112.66771,40.09834],[-112.66987,40.09676],[-112.67207,40.09513],[-112.67424,40.09353],[-112.67634,40.09197],[-112.67847,40.09039],[-112.68057,40.0888],[-112.6825,40.08736],[-112.6846,40.08626],[-112.68655,40.08524],[-112.68828,40.08446],[-112.68981,40.08316],[-112.69153,40.08218],[-112.69367,40.08235],[-112.69561,40.0834],[-112.69803,40.08346],[-112.70066,40.08327],[-112.70302,40.08324],[-112.70555,40.08321],[-112.70808,40.0832],[-112.7102,40.08317],[-112.71274,40.08316],[-112.71553,40.08314],[-112.7183,40.08312],[-112.72092,40.08311],[-112.72351,40.08308],[-112.72604,40.08306],[-112.72821,40.08303],[-112.73072,40.08304],[-112.73318,40.08307],[-112.74565,40.08314],[-112.75563,40.08303],[-112.76221,40.08263],[-112.76789,40.08229],[-112.77346,40.07964],[-112.77809,40.07547],[-112.78263,40.07065],[-112.78578,40.0638],[-112.78659,40.05498],[-112.78601,40.04707],[-112.78611,40.04063],[-112.79109,40.03685],[-112.79702,40.03431],[-112.80458,40.02951],[-112.81244,40.02393],[-112.82009,40.0185],[-112.82769,40.01308],[-112.83517,40.00776],[-112.84443,40.00117],[-112.85263,39.99533],[-112.86069,39.98962],[-112.86862,39.98396],[-112.87651,39.97837],[-112.88339,39.97343],[-112.88896,39.96797],[-112.89201,39.96223],[-112.89539,39.95862],[-112.90376,39.95638],[-112.91284,39.9539],[-112.91845,39.95066],[-112.9253,39.94661],[-112.93105,39.94323],[-112.93601,39.9403],[-112.94351,39.93587],[-112.95212,39.93077],[-112.96221,39.92481],[-112.97169,39.9192],[-112.98161,39.91331],[-112.99093,39.90778],[-113.00555,39.89911],[-113.02966,39.88193],[-113.02524,39.86904],[-113.02251,39.85753],[-113.01982,39.84495],[-113.01952,39.82694],[-113.01714,39.81665],[-113.02364,39.8016],[-113.02393,39.78774],[-113.02399,39.76362],[-113.0237,39.74102],[-113.02326,39.71499],[-113.02196,39.6955],[-113.02438,39.68352],[-113.02431,39.67315],[-112.99784,39.64549],[-112.95164,39.62249],[-112.86192,39.58415],[-112.85239,39.5786],[-112.8197,39.55262],[-112.77225,39.52234],[-112.75587,39.51221],[-112.7475,39.50975],[-112.72805,39.5092],[-112.70659,39.50885],[-112.66704,39.50883],[-112.64729,39.50882],[-112.62551,39.50744],[-112.57831,39.4952],[-112.55125,39.48913],[-112.51586,39.48179],[-112.4836,39.47508],[-112.44332,39.4667],[-112.43658,39.46405],[-112.46598,39.43101],[-112.49478,39.40402],[-112.51483,39.38838],[-112.53779,39.37227],[-112.55868,39.35754],[-112.56368,39.35318],[-112.59469,39.35143],[-112.5984,39.34797],[-112.61233,39.33149],[-112.62297,39.33051],[-112.70526,39.33089],[-112.72027,39.33021],[-112.74616,39.31774],[-112.76478,39.31251],[-112.81319,39.29927],[-112.84762,39.27934],[-112.88249,39.25903],[-112.90954,39.24329],[-112.9458,39.22221],[-112.98892,39.19708],[-113.02729,39.17474],[-113.07721,39.14558],[-113.12272,39.11896],[-113.14274,39.10723],[-113.16468,39.09436],[-113.18442,39.08573],[-113.21445,39.0734],[-113.23261,39.06594],[-113.26359,39.05373],[-113.29618,39.04201],[-113.31509,39.0382],[-113.33937,39.03522],[-113.34435,39.02829],[-113.36115,39.02361],[-113.36828,39.02338],[-113.38153,39.03036],[-113.39704,39.03859],[-113.41122,39.04616],[-113.42476,39.05337],[-113.43989,39.06141],[-113.4503,39.06611],[-113.47639,39.07607],[-113.49415,39.08276],[-113.51262,39.08479],[-113.55073,39.08792],[-113.55903,39.08595],[-113.56549,39.08704],[-113.56976,39.08475],[-113.57581,39.08463],[-113.58184,39.08447],[-113.58922,39.08227],[-113.59965,39.08377],[-113.60864,39.07915],[-113.62987,39.07604],[-113.65421,39.07109],[-113.68384,39.07636],[-113.70284,39.07906],[-113.72457,39.07157],[-113.75082,39.0623],[-113.79442,39.04684],[-113.81853,39.03956],[-113.8504,39.04189],[-113.92009,39.04727],[-114.00084,39.05346],[-114.0489,39.08519],[-114.04853,39.25553],[-114.04822,39.37896],[-114.04784,39.49859],[-114.04758,39.60176],[-114.04705,39.69145],[-114.04779,39.775],[-114.04715,39.87941],[-114.04701,39.96354],[-114.0468,40.00778],[-114.04656,40.12431],[-114.04644,40.20217],[-114.04637,40.2714],[-114.04616,40.37602],[-114.04511,40.43107],[-114.04542,40.47869],[-114.04449,40.63414],[-114.04398,40.69739],[-114.04362,40.73798],[-114.0311,40.74149],[-114.01732,40.74594],[-114.00641,40.74707],[-113.99527,40.74593],[-113.97028,40.74197],[-113.92584,40.73995],[-113.85952,40.73864],[-113.78236,40.73707],[-113.70208,40.73541],[-113.60259,40.73323],[-113.51529,40.73124],[-113.3989,40.72851],[-113.32927,40.72754],[-113.26884,40.72656],[-113.23222,40.72614],[-113.1623,40.72529],[-113.12486,40.72842],[-113.06694,40.74436],[-112.99833,40.76318],[-112.98028,40.77084],[-112.9426,40.80035],[-112.91066,40.81856],[-112.89045,40.82182],[-112.85344,40.80204],[-112.80614,40.77615],[-112.76958,40.75755],[-112.69204,40.74954],[-112.65307,40.74522],[-112.65668,40.73351]]]]}},{"type":"Feature","properties":{"boundary_id":"623","BoundaryID":"623","Boundary_Name":"West Desert, West","boundary_name":"West Desert, West","source":"arcgis_lite_individual"},"geometry":{"type":"MultiPolygon","coordinates":[[[[-112.65668,40.73351],[-112.66537,40.70194],[-112.67404,40.67049],[-112.69965,40.62239],[-112.71191,40.60263],[-112.731,40.56967],[-112.74627,40.53883],[-112.74775,40.52321],[-112.74804,40.49394],[-112.74581,40.47759],[-112.74872,40.43286],[-112.74778,40.39764],[-112.74683,40.37928],[-112.74491,40.34162],[-112.74311,40.30647],[-112.74208,40.28607],[-112.74038,40.25711],[-112.72319,40.24227],[-112.72312,40.23119],[-112.723,40.22547],[-112.72298,40.21581],[-112.72199,40.21402],[-112.72039,40.21207],[-112.71895,40.21029],[-112.71713,40.20802],[-112.71524,40.20564],[-112.7133,40.20322],[-112.71136,40.20078],[-112.70945,40.1984],[-112.70762,40.1961],[-112.70585,40.19386],[-112.70413,40.19174],[-112.70258,40.1898],[-112.70091,40.18771],[-112.69927,40.18566],[-112.69766,40.18364],[-112.69593,40.18146],[-112.69423,40.17934],[-112.69256,40.17724],[-112.69086,40.17511],[-112.68905,40.17283],[-112.68729,40.17064],[-112.68549,40.16841],[-112.68363,40.16612],[-112.68188,40.16392],[-112.68038,40.16202],[-112.67877,40.16],[-112.67718,40.15802],[-112.67574,40.15621],[-112.67419,40.15426],[-112.67266,40.15238],[-112.67172,40.15098],[-112.67111,40.14874],[-112.67039,40.14632],[-112.66976,40.14399],[-112.6692,40.14268],[-112.6684,40.14046],[-112.66768,40.13809],[-112.66717,40.13576],[-112.66649,40.13368],[-112.66597,40.13168],[-112.66547,40.12965],[-112.6648,40.12727],[-112.66403,40.12504],[-112.66335,40.12314],[-112.66248,40.12086],[-112.6617,40.11875],[-112.66131,40.11667],[-112.66145,40.11428],[-112.66153,40.11211],[-112.66172,40.10986],[-112.66201,40.10718],[-112.66224,40.10474],[-112.66202,40.10311],[-112.66241,40.10228],[-112.66383,40.10122],[-112.66565,40.09986],[-112.66771,40.09834],[-112.66987,40.09676],[-112.67207,40.09513],[-112.67424,40.09353],[-112.67634,40.09197],[-112.67847,40.09039],[-112.68057,40.0888],[-112.6825,40.08736],[-112.6846,40.08626],[-112.68655,40.08524],[-112.68828,40.08446],[-112.68981,40.08316],[-112.69153,40.08218],[-112.69367,40.08235],[-112.69561,40.0834],[-112.69803,40.08346],[-112.70066,40.08327],[-112.70302,40.08324],[-112.70555,40.08321],[-112.70808,40.0832],[-112.7102,40.08317],[-112.71274,40.08316],[-112.71553,40.08314],[-112.7183,40.08312],[-112.72092,40.08311],[-112.72351,40.08308],[-112.72604,40.08306],[-112.72821,40.08303],[-112.73072,40.08304],[-112.73318,40.08307],[-112.74565,40.08314],[-112.75563,40.08303],[-112.76221,40.08263],[-112.76789,40.08229],[-112.77346,40.07964],[-112.77809,40.07547],[-112.78263,40.07065],[-112.78578,40.0638],[-112.78659,40.05498],[-112.78601,40.04707],[-112.78611,40.04063],[-112.79109,40.03685],[-112.79702,40.03431],[-112.80458,40.02951],[-112.81244,40.02393],[-112.82009,40.0185],[-112.82769,40.01308],[-112.83517,40.00776],[-112.84443,40.00117],[-112.85263,39.99533],[-112.86069,39.98962],[-112.86862,39.98396],[-112.87651,39.97837],[-112.88339,39.97343],[-112.88896,39.96797],[-112.89201,39.96223],[-112.89539,39.95862],[-112.90376,39.95638],[-112.91284,39.9539],[-112.91845,39.95066],[-112.9253,39.94661],[-112.93105,39.94323],[-112.93601,39.9403],[-112.94351,39.93587],[-112.95212,39.93077],[-112.96221,39.92481],[-112.97169,39.9192],[-112.98161,39.91331],[-112.99093,39.90778],[-113.00555,39.89911],[-113.02966,39.88193],[-113.02524,39.86904],[-113.02251,39.85753],[-113.01982,39.84495],[-113.01952,39.82694],[-113.01714,39.81665],[-113.02364,39.8016],[-113.02393,39.78774],[-113.02399,39.76362],[-113.0237,39.74102],[-113.02326,39.71499],[-113.02196,39.6955],[-113.02438,39.68352],[-113.02431,39.67315],[-112.99784,39.64549],[-112.95164,39.62249],[-112.86192,39.58415],[-112.85239,39.5786],[-112.8197,39.55262],[-112.77225,39.52234],[-112.75587,39.51221],[-112.7475,39.50975],[-112.72805,39.5092],[-112.70659,39.50885],[-112.66704,39.50883],[-112.64729,39.50882],[-112.62551,39.50744],[-112.57831,39.4952],[-112.55125,39.48913],[-112.51586,39.48179],[-112.4836,39.47508],[-112.44332,39.4667],[-112.43658,39.46405],[-112.46598,39.43101],[-112.49478,39.40402],[-112.51483,39.38838],[-112.53779,39.37227],[-112.55868,39.35754],[-112.56368,39.35318],[-112.59469,39.35143],[-112.5984,39.34797],[-112.61233,39.33149],[-112.62297,39.33051],[-112.70526,39.33089],[-112.72027,39.33021],[-112.74616,39.31774],[-112.76478,39.31251],[-112.81319,39.29927],[-112.84762,39.27934],[-112.88249,39.25903],[-112.90954,39.24329],[-112.9458,39.22221],[-112.98892,39.19708],[-113.02729,39.17474],[-113.07721,39.14558],[-113.12272,39.11896],[-113.14274,39.10723],[-113.16468,39.09436],[-113.18442,39.08573],[-113.21445,39.0734],[-113.23261,39.06594],[-113.26359,39.05373],[-113.29618,39.04201],[-113.31509,39.0382],[-113.33937,39.03522],[-113.34435,39.02829],[-113.36115,39.02361],[-113.36828,39.02338],[-113.38153,39.03036],[-113.39704,39.03859],[-113.41122,39.04616],[-113.42476,39.05337],[-113.43989,39.06141],[-113.4503,39.06611],[-113.47639,39.07607],[-113.49415,39.08276],[-113.51262,39.08479],[-113.55073,39.08792],[-113.55903,39.08595],[-113.56549,39.08704],[-113.56976,39.08475],[-113.57581,39.08463],[-113.58184,39.08447],[-113.58922,39.08227],[-113.59965,39.08377],[-113.60864,39.07915],[-113.62987,39.07604],[-113.65421,39.07109],[-113.68384,39.07636],[-113.70284,39.07906],[-113.72457,39.07157],[-113.75082,39.0623],[-113.79442,39.04684],[-113.81853,39.03956],[-113.8504,39.04189],[-113.92009,39.04727],[-114.00084,39.05346],[-114.0489,39.08519],[-114.04853,39.25553],[-114.04822,39.37896],[-114.04784,39.49859],[-114.04758,39.60176],[-114.04705,39.69145],[-114.04779,39.775],[-114.04715,39.87941],[-114.04701,39.96354],[-114.0468,40.00778],[-114.04656,40.12431],[-114.04644,40.20217],[-114.04637,40.2714],[-114.04616,40.37602],[-114.04511,40.43107],[-114.04542,40.47869],[-114.04449,40.63414],[-114.04398,40.69739],[-114.04362,40.73798],[-114.0311,40.74149],[-114.01732,40.74594],[-114.00641,40.74707],[-113.99527,40.74593],[-113.97028,40.74197],[-113.92584,40.73995],[-113.85952,40.73864],[-113.78236,40.73707],[-113.70208,40.73541],[-113.60259,40.73323],[-113.51529,40.73124],[-113.3989,40.72851],[-113.32927,40.72754],[-113.26884,40.72656],[-113.23222,40.72614],[-113.1623,40.72529],[-113.12486,40.72842],[-113.06694,40.74436],[-112.99833,40.76318],[-112.98028,40.77084],[-112.9426,40.80035],[-112.91066,40.81856],[-112.89045,40.82182],[-112.85344,40.80204],[-112.80614,40.77615],[-112.76958,40.75755],[-112.69204,40.74954],[-112.65307,40.74522],[-112.65668,40.73351]]]]}}]}