{"type":"FeatureCollection","metadata":{"hunt_code":"DB1088","boundary_id":"624","member_boundary_ids":[],"source_boundary_ids":["624"],"source_hunt_code":"DB1088","merged_boundary_id":null,"boundary_geometry_type":"single_boundary_id","generated_from":"display-boundary-index-2026-existing-fallback-reconcile","boundary_source_authority":"Utah DWR","boundary_source_file":"data/hunt-master-canonical-2026-source-of-truth.json","fallback_source_file":"data/hunt_boundaries.geojson"},"features":[{"type":"Feature","properties":{"boundary_id":"624","BoundaryID":"624","Boundary_Name":"West Desert, Tintic","boundary_name":"West Desert, Tintic","source":"arcgis_lite_individual"},"geometry":{"type":"MultiPolygon","coordinates":[[[[-112.4273,40.17389],[-112.41134,40.1737],[-112.40861,40.17377],[-112.39789,40.17968],[-112.39282,40.18285],[-112.39133,40.18306],[-112.38924,40.18309],[-112.38442,40.18355],[-112.36967,40.18634],[-112.35602,40.18878],[-112.35198,40.18957],[-112.34754,40.1903],[-112.33773,40.19157],[-112.32851,40.19398],[-112.3229,40.19625],[-112.31727,40.19863],[-112.31459,40.19963],[-112.30425,40.20338],[-112.27864,40.20974],[-112.25762,40.21422],[-112.24365,40.21736],[-112.21954,40.22168],[-112.20413,40.22446],[-112.19425,40.22752],[-112.18215,40.23097],[-112.16262,40.23653],[-112.10024,40.2573],[-112.09515,40.26131],[-112.09316,40.26957],[-112.09926,40.29849],[-112.10237,40.32468],[-112.1015,40.33237],[-112.0787,40.34664],[-112.02808,40.36956],[-112.00586,40.37711],[-111.98117,40.38036],[-111.95786,40.38337],[-111.93082,40.38752],[-111.88056,40.38726],[-111.85728,40.38742],[-111.85663,40.38766],[-111.83971,40.38814],[-111.83157,40.38503],[-111.8167,40.37581],[-111.80065,40.37043],[-111.75994,40.34434],[-111.73222,40.32654],[-111.72611,40.31975],[-111.72561,40.30062],[-111.72409,40.28162],[-111.71152,40.26675],[-111.69518,40.25034],[-111.69371,40.24277],[-111.68235,40.23151],[-111.666,40.21672],[-111.65884,40.20797],[-111.64674,40.19118],[-111.64657,40.16129],[-111.647,40.13144],[-111.65014,40.1273],[-111.65739,40.12337],[-111.6758,40.10921],[-111.69819,40.08944],[-111.70323,40.08405],[-111.72528,40.06303],[-111.73224,40.05527],[-111.74463,40.04366],[-111.76021,40.02768],[-111.76241,40.02131],[-111.76304,39.99817],[-111.76571,39.9847],[-111.77184,39.97587],[-111.78932,39.96269],[-111.80082,39.9526],[-111.81163,39.93586],[-111.81332,39.91952],[-111.82817,39.89337],[-111.82898,39.87178],[-111.8355,39.85048],[-111.83331,39.82314],[-111.83467,39.81019],[-111.83838,39.79395],[-111.83861,39.7756],[-111.83533,39.75918],[-111.83247,39.74541],[-111.81769,39.7176],[-111.81803,39.70731],[-111.82505,39.69468],[-111.83926,39.6811],[-111.85384,39.67141],[-111.88913,39.65579],[-111.90016,39.6436],[-111.91027,39.60239],[-111.92217,39.59038],[-111.93849,39.56746],[-111.95072,39.54913],[-111.96249,39.50928],[-111.97271,39.4892],[-111.98222,39.48574],[-111.99017,39.48455],[-111.99618,39.48664],[-112.00373,39.48459],[-112.01023,39.48111],[-112.01693,39.48233],[-112.0277,39.48402],[-112.04783,39.48906],[-112.05231,39.48913],[-112.04903,39.49044],[-112.0555,39.49337],[-112.05713,39.49485],[-112.05769,39.49901],[-112.05069,39.50247],[-112.05193,39.50639],[-112.0585,39.50241],[-112.06221,39.50701],[-112.06504,39.50423],[-112.06706,39.50821],[-112.07071,39.50824],[-112.0755,39.50852],[-112.08253,39.51187],[-112.08835,39.51772],[-112.09694,39.51813],[-112.10216,39.51836],[-112.10575,39.51994],[-112.10855,39.52443],[-112.10729,39.52833],[-112.10671,39.53409],[-112.11019,39.53676],[-112.11449,39.53716],[-112.11625,39.5412],[-112.11675,39.54476],[-112.12204,39.54622],[-112.12646,39.54929],[-112.12815,39.5508],[-112.12981,39.55403],[-112.13165,39.55585],[-112.13591,39.5568],[-112.14044,39.55723],[-112.13832,39.55886],[-112.14306,39.56281],[-112.14231,39.56547],[-112.14188,39.56864],[-112.14297,39.57442],[-112.14946,39.5762],[-112.15073,39.57951],[-112.15021,39.582],[-112.15592,39.58047],[-112.15984,39.58468],[-112.16505,39.58593],[-112.17125,39.58202],[-112.19218,39.5686],[-112.20946,39.55737],[-112.21904,39.55308],[-112.22819,39.54812],[-112.24034,39.54225],[-112.24694,39.53973],[-112.26519,39.53715],[-112.29077,39.53406],[-112.30776,39.53357],[-112.32979,39.53289],[-112.34681,39.52887],[-112.36045,39.52627],[-112.36745,39.52451],[-112.37173,39.52692],[-112.35851,39.54751],[-112.33418,39.58471],[-112.30441,39.64058],[-112.28401,39.65827],[-112.21563,39.70344],[-112.20249,39.71447],[-112.1801,39.75733],[-112.15892,39.77146],[-112.14906,39.78972],[-112.13822,39.83694],[-112.138,39.88426],[-112.14338,39.91672],[-112.15185,39.92279],[-112.18568,39.93987],[-112.21533,39.94448],[-112.23404,39.94835],[-112.24426,39.95816],[-112.24682,39.96062],[-112.24929,39.96302],[-112.25202,39.96566],[-112.2546,39.96838],[-112.25657,39.97097],[-112.25831,39.97396],[-112.25956,39.97678],[-112.26077,39.97992],[-112.26206,39.98303],[-112.26377,39.98564],[-112.26572,39.98836],[-112.26747,39.99078],[-112.26933,39.99335],[-112.27115,39.99586],[-112.27281,39.9982],[-112.27469,40.00096],[-112.27556,40.00385],[-112.27594,40.00655],[-112.27633,40.00931],[-112.27697,40.01204],[-112.27804,40.01499],[-112.27917,40.01807],[-112.28021,40.02088],[-112.28121,40.02364],[-112.28212,40.02616],[-112.28317,40.02898],[-112.28482,40.0322],[-112.28669,40.03526],[-112.28853,40.03823],[-112.29038,40.04129],[-112.29203,40.04397],[-112.29371,40.04672],[-112.29548,40.04955],[-112.2978,40.05218],[-112.30036,40.05419],[-112.30366,40.05601],[-112.30687,40.05769],[-112.31058,40.05961],[-112.3138,40.06129],[-112.31722,40.06308],[-112.32074,40.06491],[-112.32409,40.06665],[-112.32749,40.06843],[-112.33045,40.06997],[-112.33353,40.07156],[-112.33706,40.07339],[-112.34058,40.07515],[-112.34413,40.07614],[-112.34833,40.07631],[-112.3519,40.07566],[-112.36479,40.07237],[-112.37342,40.07227],[-112.39141,40.07696],[-112.40654,40.08105],[-112.42304,40.08553],[-112.42969,40.08794],[-112.43081,40.09512],[-112.43081,40.10402],[-112.43079,40.11249],[-112.43076,40.14283],[-112.43073,40.15797],[-112.43054,40.16563],[-112.4281,40.17214],[-112.4273,40.17389]]]]}},{"type":"Feature","properties":{"boundary_id":"624","BoundaryID":"624","Boundary_Name":"West Desert, Tintic","boundary_name":"West Desert, Tintic","source":"arcgis_lite_individual"},"geometry":{"type":"MultiPolygon","coordinates":[[[[-112.4273,40.17389],[-112.41134,40.1737],[-112.40861,40.17377],[-112.39789,40.17968],[-112.39282,40.18285],[-112.39133,40.18306],[-112.38924,40.18309],[-112.38442,40.18355],[-112.36967,40.18634],[-112.35602,40.18878],[-112.35198,40.18957],[-112.34754,40.1903],[-112.33773,40.19157],[-112.32851,40.19398],[-112.3229,40.19625],[-112.31727,40.19863],[-112.31459,40.19963],[-112.30425,40.20338],[-112.27864,40.20974],[-112.25762,40.21422],[-112.24365,40.21736],[-112.21954,40.22168],[-112.20413,40.22446],[-112.19425,40.22752],[-112.18215,40.23097],[-112.16262,40.23653],[-112.10024,40.2573],[-112.09515,40.26131],[-112.09316,40.26957],[-112.09926,40.29849],[-112.10237,40.32468],[-112.1015,40.33237],[-112.0787,40.34664],[-112.02808,40.36956],[-112.00586,40.37711],[-111.98117,40.38036],[-111.95786,40.38337],[-111.93082,40.38752],[-111.88056,40.38726],[-111.85728,40.38742],[-111.85663,40.38766],[-111.83971,40.38814],[-111.83157,40.38503],[-111.8167,40.37581],[-111.80065,40.37043],[-111.75994,40.34434],[-111.73222,40.32654],[-111.72611,40.31975],[-111.72561,40.30062],[-111.72409,40.28162],[-111.71152,40.26675],[-111.69518,40.25034],[-111.69371,40.24277],[-111.68235,40.23151],[-111.666,40.21672],[-111.65884,40.20797],[-111.64674,40.19118],[-111.64657,40.16129],[-111.647,40.13144],[-111.65014,40.1273],[-111.65739,40.12337],[-111.6758,40.10921],[-111.69819,40.08944],[-111.70323,40.08405],[-111.72528,40.06303],[-111.73224,40.05527],[-111.74463,40.04366],[-111.76021,40.02768],[-111.76241,40.02131],[-111.76304,39.99817],[-111.76571,39.9847],[-111.77184,39.97587],[-111.78932,39.96269],[-111.80082,39.9526],[-111.81163,39.93586],[-111.81332,39.91952],[-111.82817,39.89337],[-111.82898,39.87178],[-111.8355,39.85048],[-111.83331,39.82314],[-111.83467,39.81019],[-111.83838,39.79395],[-111.83861,39.7756],[-111.83533,39.75918],[-111.83247,39.74541],[-111.81769,39.7176],[-111.81803,39.70731],[-111.82505,39.69468],[-111.83926,39.6811],[-111.85384,39.67141],[-111.88913,39.65579],[-111.90016,39.6436],[-111.91027,39.60239],[-111.92217,39.59038],[-111.93849,39.56746],[-111.95072,39.54913],[-111.96249,39.50928],[-111.97271,39.4892],[-111.98222,39.48574],[-111.99017,39.48455],[-111.99618,39.48664],[-112.00373,39.48459],[-112.01023,39.48111],[-112.01693,39.48233],[-112.0277,39.48402],[-112.04783,39.48906],[-112.05231,39.48913],[-112.04903,39.49044],[-112.0555,39.49337],[-112.05713,39.49485],[-112.05769,39.49901],[-112.05069,39.50247],[-112.05193,39.50639],[-112.0585,39.50241],[-112.06221,39.50701],[-112.06504,39.50423],[-112.06706,39.50821],[-112.07071,39.50824],[-112.0755,39.50852],[-112.08253,39.51187],[-112.08835,39.51772],[-112.09694,39.51813],[-112.10216,39.51836],[-112.10575,39.51994],[-112.10855,39.52443],[-112.10729,39.52833],[-112.10671,39.53409],[-112.11019,39.53676],[-112.11449,39.53716],[-112.11625,39.5412],[-112.11675,39.54476],[-112.12204,39.54622],[-112.12646,39.54929],[-112.12815,39.5508],[-112.12981,39.55403],[-112.13165,39.55585],[-112.13591,39.5568],[-112.14044,39.55723],[-112.13832,39.55886],[-112.14306,39.56281],[-112.14231,39.56547],[-112.14188,39.56864],[-112.14297,39.57442],[-112.14946,39.5762],[-112.15073,39.57951],[-112.15021,39.582],[-112.15592,39.58047],[-112.15984,39.58468],[-112.16505,39.58593],[-112.17125,39.58202],[-112.19218,39.5686],[-112.20946,39.55737],[-112.21904,39.55308],[-112.22819,39.54812],[-112.24034,39.54225],[-112.24694,39.53973],[-112.26519,39.53715],[-112.29077,39.53406],[-112.30776,39.53357],[-112.32979,39.53289],[-112.34681,39.52887],[-112.36045,39.52627],[-112.36745,39.52451],[-112.37173,39.52692],[-112.35851,39.54751],[-112.33418,39.58471],[-112.30441,39.64058],[-112.28401,39.65827],[-112.21563,39.70344],[-112.20249,39.71447],[-112.1801,39.75733],[-112.15892,39.77146],[-112.14906,39.78972],[-112.13822,39.83694],[-112.138,39.88426],[-112.14338,39.91672],[-112.15185,39.92279],[-112.18568,39.93987],[-112.21533,39.94448],[-112.23404,39.94835],[-112.24426,39.95816],[-112.24682,39.96062],[-112.24929,39.96302],[-112.25202,39.96566],[-112.2546,39.96838],[-112.25657,39.97097],[-112.25831,39.97396],[-112.25956,39.97678],[-112.26077,39.97992],[-112.26206,39.98303],[-112.26377,39.98564],[-112.26572,39.98836],[-112.26747,39.99078],[-112.26933,39.99335],[-112.27115,39.99586],[-112.27281,39.9982],[-112.27469,40.00096],[-112.27556,40.00385],[-112.27594,40.00655],[-112.27633,40.00931],[-112.27697,40.01204],[-112.27804,40.01499],[-112.27917,40.01807],[-112.28021,40.02088],[-112.28121,40.02364],[-112.28212,40.02616],[-112.28317,40.02898],[-112.28482,40.0322],[-112.28669,40.03526],[-112.28853,40.03823],[-112.29038,40.04129],[-112.29203,40.04397],[-112.29371,40.04672],[-112.29548,40.04955],[-112.2978,40.05218],[-112.30036,40.05419],[-112.30366,40.05601],[-112.30687,40.05769],[-112.31058,40.05961],[-112.3138,40.06129],[-112.31722,40.06308],[-112.32074,40.06491],[-112.32409,40.06665],[-112.32749,40.06843],[-112.33045,40.06997],[-112.33353,40.07156],[-112.33706,40.07339],[-112.34058,40.07515],[-112.34413,40.07614],[-112.34833,40.07631],[-112.3519,40.07566],[-112.36479,40.07237],[-112.37342,40.07227],[-112.39141,40.07696],[-112.40654,40.08105],[-112.42304,40.08553],[-112.42969,40.08794],[-112.43081,40.09512],[-112.43081,40.10402],[-112.43079,40.11249],[-112.43076,40.14283],[-112.43073,40.15797],[-112.43054,40.16563],[-112.4281,40.17214],[-112.4273,40.17389]]]]}},{"type":"Feature","properties":{"boundary_id":"624","BoundaryID":"624","Boundary_Name":"West Desert, Tintic","boundary_name":"West Desert, Tintic","source":"arcgis_lite_individual"},"geometry":{"type":"MultiPolygon","coordinates":[[[[-112.4273,40.17389],[-112.41134,40.1737],[-112.40861,40.17377],[-112.39789,40.17968],[-112.39282,40.18285],[-112.39133,40.18306],[-112.38924,40.18309],[-112.38442,40.18355],[-112.36967,40.18634],[-112.35602,40.18878],[-112.35198,40.18957],[-112.34754,40.1903],[-112.33773,40.19157],[-112.32851,40.19398],[-112.3229,40.19625],[-112.31727,40.19863],[-112.31459,40.19963],[-112.30425,40.20338],[-112.27864,40.20974],[-112.25762,40.21422],[-112.24365,40.21736],[-112.21954,40.22168],[-112.20413,40.22446],[-112.19425,40.22752],[-112.18215,40.23097],[-112.16262,40.23653],[-112.10024,40.2573],[-112.09515,40.26131],[-112.09316,40.26957],[-112.09926,40.29849],[-112.10237,40.32468],[-112.1015,40.33237],[-112.0787,40.34664],[-112.02808,40.36956],[-112.00586,40.37711],[-111.98117,40.38036],[-111.95786,40.38337],[-111.93082,40.38752],[-111.88056,40.38726],[-111.85728,40.38742],[-111.85663,40.38766],[-111.83971,40.38814],[-111.83157,40.38503],[-111.8167,40.37581],[-111.80065,40.37043],[-111.75994,40.34434],[-111.73222,40.32654],[-111.72611,40.31975],[-111.72561,40.30062],[-111.72409,40.28162],[-111.71152,40.26675],[-111.69518,40.25034],[-111.69371,40.24277],[-111.68235,40.23151],[-111.666,40.21672],[-111.65884,40.20797],[-111.64674,40.19118],[-111.64657,40.16129],[-111.647,40.13144],[-111.65014,40.1273],[-111.65739,40.12337],[-111.6758,40.10921],[-111.69819,40.08944],[-111.70323,40.08405],[-111.72528,40.06303],[-111.73224,40.05527],[-111.74463,40.04366],[-111.76021,40.02768],[-111.76241,40.02131],[-111.76304,39.99817],[-111.76571,39.9847],[-111.77184,39.97587],[-111.78932,39.96269],[-111.80082,39.9526],[-111.81163,39.93586],[-111.81332,39.91952],[-111.82817,39.89337],[-111.82898,39.87178],[-111.8355,39.85048],[-111.83331,39.82314],[-111.83467,39.81019],[-111.83838,39.79395],[-111.83861,39.7756],[-111.83533,39.75918],[-111.83247,39.74541],[-111.81769,39.7176],[-111.81803,39.70731],[-111.82505,39.69468],[-111.83926,39.6811],[-111.85384,39.67141],[-111.88913,39.65579],[-111.90016,39.6436],[-111.91027,39.60239],[-111.92217,39.59038],[-111.93849,39.56746],[-111.95072,39.54913],[-111.96249,39.50928],[-111.97271,39.4892],[-111.98222,39.48574],[-111.99017,39.48455],[-111.99618,39.48664],[-112.00373,39.48459],[-112.01023,39.48111],[-112.01693,39.48233],[-112.0277,39.48402],[-112.04783,39.48906],[-112.05231,39.48913],[-112.04903,39.49044],[-112.0555,39.49337],[-112.05713,39.49485],[-112.05769,39.49901],[-112.05069,39.50247],[-112.05193,39.50639],[-112.0585,39.50241],[-112.06221,39.50701],[-112.06504,39.50423],[-112.06706,39.50821],[-112.07071,39.50824],[-112.0755,39.50852],[-112.08253,39.51187],[-112.08835,39.51772],[-112.09694,39.51813],[-112.10216,39.51836],[-112.10575,39.51994],[-112.10855,39.52443],[-112.10729,39.52833],[-112.10671,39.53409],[-112.11019,39.53676],[-112.11449,39.53716],[-112.11625,39.5412],[-112.11675,39.54476],[-112.12204,39.54622],[-112.12646,39.54929],[-112.12815,39.5508],[-112.12981,39.55403],[-112.13165,39.55585],[-112.13591,39.5568],[-112.14044,39.55723],[-112.13832,39.55886],[-112.14306,39.56281],[-112.14231,39.56547],[-112.14188,39.56864],[-112.14297,39.57442],[-112.14946,39.5762],[-112.15073,39.57951],[-112.15021,39.582],[-112.15592,39.58047],[-112.15984,39.58468],[-112.16505,39.58593],[-112.17125,39.58202],[-112.19218,39.5686],[-112.20946,39.55737],[-112.21904,39.55308],[-112.22819,39.54812],[-112.24034,39.54225],[-112.24694,39.53973],[-112.26519,39.53715],[-112.29077,39.53406],[-112.30776,39.53357],[-112.32979,39.53289],[-112.34681,39.52887],[-112.36045,39.52627],[-112.36745,39.52451],[-112.37173,39.52692],[-112.35851,39.54751],[-112.33418,39.58471],[-112.30441,39.64058],[-112.28401,39.65827],[-112.21563,39.70344],[-112.20249,39.71447],[-112.1801,39.75733],[-112.15892,39.77146],[-112.14906,39.78972],[-112.13822,39.83694],[-112.138,39.88426],[-112.14338,39.91672],[-112.15185,39.92279],[-112.18568,39.93987],[-112.21533,39.94448],[-112.23404,39.94835],[-112.24426,39.95816],[-112.24682,39.96062],[-112.24929,39.96302],[-112.25202,39.96566],[-112.2546,39.96838],[-112.25657,39.97097],[-112.25831,39.97396],[-112.25956,39.97678],[-112.26077,39.97992],[-112.26206,39.98303],[-112.26377,39.98564],[-112.26572,39.98836],[-112.26747,39.99078],[-112.26933,39.99335],[-112.27115,39.99586],[-112.27281,39.9982],[-112.27469,40.00096],[-112.27556,40.00385],[-112.27594,40.00655],[-112.27633,40.00931],[-112.27697,40.01204],[-112.27804,40.01499],[-112.27917,40.01807],[-112.28021,40.02088],[-112.28121,40.02364],[-112.28212,40.02616],[-112.28317,40.02898],[-112.28482,40.0322],[-112.28669,40.03526],[-112.28853,40.03823],[-112.29038,40.04129],[-112.29203,40.04397],[-112.29371,40.04672],[-112.29548,40.04955],[-112.2978,40.05218],[-112.30036,40.05419],[-112.30366,40.05601],[-112.30687,40.05769],[-112.31058,40.05961],[-112.3138,40.06129],[-112.31722,40.06308],[-112.32074,40.06491],[-112.32409,40.06665],[-112.32749,40.06843],[-112.33045,40.06997],[-112.33353,40.07156],[-112.33706,40.07339],[-112.34058,40.07515],[-112.34413,40.07614],[-112.34833,40.07631],[-112.3519,40.07566],[-112.36479,40.07237],[-112.37342,40.07227],[-112.39141,40.07696],[-112.40654,40.08105],[-112.42304,40.08553],[-112.42969,40.08794],[-112.43081,40.09512],[-112.43081,40.10402],[-112.43079,40.11249],[-112.43076,40.14283],[-112.43073,40.15797],[-112.43054,40.16563],[-112.4281,40.17214],[-112.4273,40.17389]]]]}},{"type":"Feature","properties":{"boundary_id":"624","BoundaryID":"624","Boundary_Name":"West Desert, Tintic","boundary_name":"West Desert, Tintic","source":"arcgis_lite_individual"},"geometry":{"type":"MultiPolygon","coordinates":[[[[-112.4273,40.17389],[-112.41134,40.1737],[-112.40861,40.17377],[-112.39789,40.17968],[-112.39282,40.18285],[-112.39133,40.18306],[-112.38924,40.18309],[-112.38442,40.18355],[-112.36967,40.18634],[-112.35602,40.18878],[-112.35198,40.18957],[-112.34754,40.1903],[-112.33773,40.19157],[-112.32851,40.19398],[-112.3229,40.19625],[-112.31727,40.19863],[-112.31459,40.19963],[-112.30425,40.20338],[-112.27864,40.20974],[-112.25762,40.21422],[-112.24365,40.21736],[-112.21954,40.22168],[-112.20413,40.22446],[-112.19425,40.22752],[-112.18215,40.23097],[-112.16262,40.23653],[-112.10024,40.2573],[-112.09515,40.26131],[-112.09316,40.26957],[-112.09926,40.29849],[-112.10237,40.32468],[-112.1015,40.33237],[-112.0787,40.34664],[-112.02808,40.36956],[-112.00586,40.37711],[-111.98117,40.38036],[-111.95786,40.38337],[-111.93082,40.38752],[-111.88056,40.38726],[-111.85728,40.38742],[-111.85663,40.38766],[-111.83971,40.38814],[-111.83157,40.38503],[-111.8167,40.37581],[-111.80065,40.37043],[-111.75994,40.34434],[-111.73222,40.32654],[-111.72611,40.31975],[-111.72561,40.30062],[-111.72409,40.28162],[-111.71152,40.26675],[-111.69518,40.25034],[-111.69371,40.24277],[-111.68235,40.23151],[-111.666,40.21672],[-111.65884,40.20797],[-111.64674,40.19118],[-111.64657,40.16129],[-111.647,40.13144],[-111.65014,40.1273],[-111.65739,40.12337],[-111.6758,40.10921],[-111.69819,40.08944],[-111.70323,40.08405],[-111.72528,40.06303],[-111.73224,40.05527],[-111.74463,40.04366],[-111.76021,40.02768],[-111.76241,40.02131],[-111.76304,39.99817],[-111.76571,39.9847],[-111.77184,39.97587],[-111.78932,39.96269],[-111.80082,39.9526],[-111.81163,39.93586],[-111.81332,39.91952],[-111.82817,39.89337],[-111.82898,39.87178],[-111.8355,39.85048],[-111.83331,39.82314],[-111.83467,39.81019],[-111.83838,39.79395],[-111.83861,39.7756],[-111.83533,39.75918],[-111.83247,39.74541],[-111.81769,39.7176],[-111.81803,39.70731],[-111.82505,39.69468],[-111.83926,39.6811],[-111.85384,39.67141],[-111.88913,39.65579],[-111.90016,39.6436],[-111.91027,39.60239],[-111.92217,39.59038],[-111.93849,39.56746],[-111.95072,39.54913],[-111.96249,39.50928],[-111.97271,39.4892],[-111.98222,39.48574],[-111.99017,39.48455],[-111.99618,39.48664],[-112.00373,39.48459],[-112.01023,39.48111],[-112.01693,39.48233],[-112.0277,39.48402],[-112.04783,39.48906],[-112.05231,39.48913],[-112.04903,39.49044],[-112.0555,39.49337],[-112.05713,39.49485],[-112.05769,39.49901],[-112.05069,39.50247],[-112.05193,39.50639],[-112.0585,39.50241],[-112.06221,39.50701],[-112.06504,39.50423],[-112.06706,39.50821],[-112.07071,39.50824],[-112.0755,39.50852],[-112.08253,39.51187],[-112.08835,39.51772],[-112.09694,39.51813],[-112.10216,39.51836],[-112.10575,39.51994],[-112.10855,39.52443],[-112.10729,39.52833],[-112.10671,39.53409],[-112.11019,39.53676],[-112.11449,39.53716],[-112.11625,39.5412],[-112.11675,39.54476],[-112.12204,39.54622],[-112.12646,39.54929],[-112.12815,39.5508],[-112.12981,39.55403],[-112.13165,39.55585],[-112.13591,39.5568],[-112.14044,39.55723],[-112.13832,39.55886],[-112.14306,39.56281],[-112.14231,39.56547],[-112.14188,39.56864],[-112.14297,39.57442],[-112.14946,39.5762],[-112.15073,39.57951],[-112.15021,39.582],[-112.15592,39.58047],[-112.15984,39.58468],[-112.16505,39.58593],[-112.17125,39.58202],[-112.19218,39.5686],[-112.20946,39.55737],[-112.21904,39.55308],[-112.22819,39.54812],[-112.24034,39.54225],[-112.24694,39.53973],[-112.26519,39.53715],[-112.29077,39.53406],[-112.30776,39.53357],[-112.32979,39.53289],[-112.34681,39.52887],[-112.36045,39.52627],[-112.36745,39.52451],[-112.37173,39.52692],[-112.35851,39.54751],[-112.33418,39.58471],[-112.30441,39.64058],[-112.28401,39.65827],[-112.21563,39.70344],[-112.20249,39.71447],[-112.1801,39.75733],[-112.15892,39.77146],[-112.14906,39.78972],[-112.13822,39.83694],[-112.138,39.88426],[-112.14338,39.91672],[-112.15185,39.92279],[-112.18568,39.93987],[-112.21533,39.94448],[-112.23404,39.94835],[-112.24426,39.95816],[-112.24682,39.96062],[-112.24929,39.96302],[-112.25202,39.96566],[-112.2546,39.96838],[-112.25657,39.97097],[-112.25831,39.97396],[-112.25956,39.97678],[-112.26077,39.97992],[-112.26206,39.98303],[-112.26377,39.98564],[-112.26572,39.98836],[-112.26747,39.99078],[-112.26933,39.99335],[-112.27115,39.99586],[-112.27281,39.9982],[-112.27469,40.00096],[-112.27556,40.00385],[-112.27594,40.00655],[-112.27633,40.00931],[-112.27697,40.01204],[-112.27804,40.01499],[-112.27917,40.01807],[-112.28021,40.02088],[-112.28121,40.02364],[-112.28212,40.02616],[-112.28317,40.02898],[-112.28482,40.0322],[-112.28669,40.03526],[-112.28853,40.03823],[-112.29038,40.04129],[-112.29203,40.04397],[-112.29371,40.04672],[-112.29548,40.04955],[-112.2978,40.05218],[-112.30036,40.05419],[-112.30366,40.05601],[-112.30687,40.05769],[-112.31058,40.05961],[-112.3138,40.06129],[-112.31722,40.06308],[-112.32074,40.06491],[-112.32409,40.06665],[-112.32749,40.06843],[-112.33045,40.06997],[-112.33353,40.07156],[-112.33706,40.07339],[-112.34058,40.07515],[-112.34413,40.07614],[-112.34833,40.07631],[-112.3519,40.07566],[-112.36479,40.07237],[-112.37342,40.07227],[-112.39141,40.07696],[-112.40654,40.08105],[-112.42304,40.08553],[-112.42969,40.08794],[-112.43081,40.09512],[-112.43081,40.10402],[-112.43079,40.11249],[-112.43076,40.14283],[-112.43073,40.15797],[-112.43054,40.16563],[-112.4281,40.17214],[-112.4273,40.17389]]]]}}]}