{"type":"FeatureCollection","metadata":{"hunt_code":"DB1276","boundary_id":"737","member_boundary_ids":[],"source_boundary_ids":["737"],"source_hunt_code":"DB1276","merged_boundary_id":null,"boundary_geometry_type":"single_boundary_id","generated_from":"display-boundary-index-2026-existing-fallback-reconcile","boundary_source_authority":"Utah DWR","boundary_source_file":"data/hunt-master-canonical-2026-source-of-truth.json","fallback_source_file":"data/hunt_boundaries.geojson"},"features":[{"type":"Feature","properties":{"boundary_id":"737","BoundaryID":"737","Boundary_Name":"Plymouth Peak","boundary_name":"Plymouth Peak","source":"arcgis_lite_individual"},"geometry":{"type":"MultiPolygon","coordinates":[[[[-112.20754,41.95816],[-112.17578,41.94432],[-112.17304,41.92253],[-112.19212,41.92771],[-112.19924,41.92814],[-112.19869,41.92839],[-112.19787,41.92863],[-112.19872,41.92868],[-112.19941,41.92899],[-112.19846,41.92901],[-112.19813,41.92953],[-112.1988,41.92985],[-112.19913,41.9301],[-112.19891,41.93082],[-112.1984,41.9311],[-112.19865,41.93071],[-112.19843,41.93018],[-112.19759,41.93008],[-112.19724,41.93042],[-112.19659,41.93043],[-112.19609,41.92998],[-112.19566,41.9304],[-112.19598,41.93084],[-112.19585,41.93087],[-112.19546,41.93042],[-112.19482,41.93074],[-112.19438,41.93141],[-112.19441,41.9322],[-112.19525,41.93238],[-112.19545,41.93286],[-112.19533,41.93384],[-112.19577,41.93389],[-112.19613,41.93386],[-112.19661,41.93407],[-112.19684,41.93356],[-112.19699,41.93394],[-112.19824,41.93434],[-112.19784,41.93457],[-112.19705,41.93487],[-112.19698,41.93599],[-112.19618,41.93596],[-112.19544,41.93591],[-112.19544,41.93628],[-112.19486,41.93652],[-112.19426,41.93639],[-112.19369,41.93719],[-112.19422,41.93736],[-112.19431,41.93717],[-112.1952,41.93761],[-112.19613,41.93712],[-112.19676,41.93709],[-112.19682,41.93765],[-112.19696,41.9383],[-112.1979,41.93804],[-112.19826,41.93758],[-112.19941,41.93826],[-112.20008,41.93868],[-112.19958,41.93854],[-112.19948,41.93909],[-112.20012,41.93996],[-112.19951,41.94045],[-112.19949,41.94016],[-112.19854,41.93983],[-112.19808,41.94059],[-112.19778,41.94034],[-112.19758,41.94055],[-112.19766,41.94081],[-112.19738,41.94064],[-112.19678,41.94067],[-112.19664,41.94111],[-112.19725,41.94115],[-112.19691,41.94126],[-112.19655,41.94162],[-112.19729,41.9418],[-112.19712,41.94231],[-112.19618,41.94226],[-112.19553,41.94274],[-112.19541,41.9432],[-112.19632,41.94392],[-112.19682,41.94376],[-112.19748,41.94181],[-112.19731,41.94074],[-112.19781,41.94084],[-112.19773,41.94048],[-112.19806,41.9407],[-112.1983,41.94046],[-112.19901,41.94002],[-112.19928,41.94046],[-112.20015,41.94014],[-112.19965,41.9391],[-112.19985,41.93871],[-112.20011,41.93854],[-112.19916,41.93797],[-112.19794,41.93754],[-112.19769,41.93812],[-112.19701,41.93815],[-112.19695,41.93756],[-112.19666,41.93695],[-112.19598,41.93715],[-112.1948,41.93739],[-112.19391,41.93707],[-112.19405,41.93744],[-112.19378,41.93705],[-112.1972,41.93499],[-112.19766,41.93462],[-112.19839,41.93465],[-112.19829,41.93426],[-112.19733,41.93402],[-112.19699,41.93367],[-112.19707,41.93306],[-112.19563,41.93223],[-112.19476,41.93243],[-112.19448,41.93153],[-112.19512,41.93049],[-112.19575,41.9308],[-112.1959,41.93111],[-112.19606,41.93053],[-112.19584,41.93017],[-112.19642,41.93027],[-112.19692,41.93057],[-112.19771,41.93045],[-112.19785,41.93018],[-112.19816,41.93017],[-112.19863,41.93058],[-112.19808,41.93116],[-112.19862,41.93114],[-112.19897,41.93092],[-112.1992,41.93035],[-112.19932,41.93004],[-112.19881,41.92974],[-112.19816,41.92934],[-112.19869,41.92916],[-112.19958,41.92905],[-112.19905,41.92856],[-112.19821,41.92867],[-112.19866,41.92851],[-112.19938,41.92827],[-112.19908,41.92762],[-112.20537,41.91842],[-112.20201,41.93657],[-112.21455,41.94394],[-112.21675,41.95029],[-112.21762,41.95471],[-112.21862,41.95989],[-112.20754,41.95816]]],[[[-112.15828,41.94464],[-112.15812,41.93397],[-112.16779,41.93268],[-112.1718,41.93713],[-112.1725,41.9406],[-112.17343,41.94435],[-112.17496,41.94861],[-112.17748,41.95533],[-112.17851,41.958],[-112.1786,41.96253],[-112.1787,41.96622],[-112.17348,41.96992],[-112.15863,41.96274],[-112.15837,41.95131],[-112.15815,41.94464],[-112.15828,41.94464]]],[[[-112.22151,41.94344],[-112.21561,41.94344],[-112.21374,41.9407],[-112.21151,41.9328],[-112.21006,41.93071],[-112.20763,41.92393],[-112.20634,41.92022],[-112.20639,41.91478],[-112.21603,41.91594],[-112.22097,41.92178],[-112.23073,41.92162],[-112.23079,41.92771],[-112.23096,41.93486],[-112.22133,41.93504],[-112.22151,41.94344]]],[[[-112.22626,41.94335],[-112.22638,41.94367],[-112.22682,41.95413],[-112.22196,41.95426],[-112.22212,41.95786],[-112.21913,41.96058],[-112.21888,41.95928],[-112.21872,41.95848],[-112.21862,41.95793],[-112.2184,41.95683],[-112.21813,41.95543],[-112.21793,41.95438],[-112.21754,41.95242],[-112.21731,41.95122],[-112.21708,41.95007],[-112.21688,41.94939],[-112.21651,41.94831],[-112.21623,41.94753],[-112.21491,41.94386],[-112.21483,41.94365],[-112.22151,41.94346],[-112.22626,41.94335]]],[[[-112.20754,41.95816],[-112.2068,41.96536],[-112.20706,41.96511],[-112.20741,41.96512],[-112.20752,41.96495],[-112.20728,41.96485],[-112.20645,41.96471],[-112.20591,41.96462],[-112.20544,41.96465],[-112.20543,41.96496],[-112.20522,41.96544],[-112.20468,41.96562],[-112.2042,41.96547],[-112.20452,41.96514],[-112.20475,41.96487],[-112.20469,41.96464],[-112.20434,41.96468],[-112.2037,41.96483],[-112.20354,41.96496],[-112.20362,41.96535],[-112.20328,41.96564],[-112.20311,41.96551],[-112.20297,41.96522],[-112.20306,41.96501],[-112.20288,41.96474],[-112.20245,41.96433],[-112.20196,41.96384],[-112.20167,41.96351],[-112.20158,41.96335],[-112.20132,41.96348],[-112.20124,41.96383],[-112.20119,41.96411],[-112.20138,41.96415],[-112.20173,41.96443],[-112.20155,41.96472],[-112.2013,41.96491],[-112.20119,41.96473],[-112.20103,41.96439],[-112.2007,41.96387],[-112.20035,41.96332],[-112.20029,41.96294],[-112.20014,41.96281],[-112.19999,41.96286],[-112.19989,41.96282],[-112.19999,41.96268],[-112.20007,41.9625],[-112.2002,41.96221],[-112.20045,41.96227],[-112.20061,41.96254],[-112.20071,41.96271],[-112.201,41.9627],[-112.20104,41.96249],[-112.20094,41.96221],[-112.20083,41.96199],[-112.20096,41.96196],[-112.20135,41.96204],[-112.20173,41.96208],[-112.20204,41.96185],[-112.2025,41.96154],[-112.2027,41.96129],[-112.20268,41.96085],[-112.2026,41.96052],[-112.20209,41.96032],[-112.20123,41.96007],[-112.20029,41.95985],[-112.20011,41.95974],[-112.20028,41.95959],[-112.20055,41.9596],[-112.20111,41.95958],[-112.2015,41.95946],[-112.20162,41.95932],[-112.20154,41.95916],[-112.20153,41.95907],[-112.20167,41.95905],[-112.20173,41.95917],[-112.20185,41.95937],[-112.20213,41.9595],[-112.20251,41.95949],[-112.20294,41.95946],[-112.20328,41.95957],[-112.20344,41.95939],[-112.20304,41.95916],[-112.20238,41.95861],[-112.20396,41.95853],[-112.2046,41.95911],[-112.20498,41.95883],[-112.20568,41.95831],[-112.20754,41.95816]]],[[[-112.17628,41.94796],[-112.17651,41.94796],[-112.17803,41.95155],[-112.17811,41.9526],[-112.17713,41.95016],[-112.17628,41.94796]]],[[[-112.17257,41.92258],[-112.17258,41.92309],[-112.17253,41.92258],[-112.17257,41.92258]]]]}},{"type":"Feature","properties":{"boundary_id":"737","BoundaryID":"737","Boundary_Name":"Plymouth Peak","boundary_name":"Plymouth Peak","source":"arcgis_lite_individual"},"geometry":{"type":"MultiPolygon","coordinates":[[[[-112.20754,41.95816],[-112.17578,41.94432],[-112.17304,41.92253],[-112.19212,41.92771],[-112.19924,41.92814],[-112.19869,41.92839],[-112.19787,41.92863],[-112.19872,41.92868],[-112.19941,41.92899],[-112.19846,41.92901],[-112.19813,41.92953],[-112.1988,41.92985],[-112.19913,41.9301],[-112.19891,41.93082],[-112.1984,41.9311],[-112.19865,41.93071],[-112.19843,41.93018],[-112.19759,41.93008],[-112.19724,41.93042],[-112.19659,41.93043],[-112.19609,41.92998],[-112.19566,41.9304],[-112.19598,41.93084],[-112.19585,41.93087],[-112.19546,41.93042],[-112.19482,41.93074],[-112.19438,41.93141],[-112.19441,41.9322],[-112.19525,41.93238],[-112.19545,41.93286],[-112.19533,41.93384],[-112.19577,41.93389],[-112.19613,41.93386],[-112.19661,41.93407],[-112.19684,41.93356],[-112.19699,41.93394],[-112.19824,41.93434],[-112.19784,41.93457],[-112.19705,41.93487],[-112.19698,41.93599],[-112.19618,41.93596],[-112.19544,41.93591],[-112.19544,41.93628],[-112.19486,41.93652],[-112.19426,41.93639],[-112.19369,41.93719],[-112.19422,41.93736],[-112.19431,41.93717],[-112.1952,41.93761],[-112.19613,41.93712],[-112.19676,41.93709],[-112.19682,41.93765],[-112.19696,41.9383],[-112.1979,41.93804],[-112.19826,41.93758],[-112.19941,41.93826],[-112.20008,41.93868],[-112.19958,41.93854],[-112.19948,41.93909],[-112.20012,41.93996],[-112.19951,41.94045],[-112.19949,41.94016],[-112.19854,41.93983],[-112.19808,41.94059],[-112.19778,41.94034],[-112.19758,41.94055],[-112.19766,41.94081],[-112.19738,41.94064],[-112.19678,41.94067],[-112.19664,41.94111],[-112.19725,41.94115],[-112.19691,41.94126],[-112.19655,41.94162],[-112.19729,41.9418],[-112.19712,41.94231],[-112.19618,41.94226],[-112.19553,41.94274],[-112.19541,41.9432],[-112.19632,41.94392],[-112.19682,41.94376],[-112.19748,41.94181],[-112.19731,41.94074],[-112.19781,41.94084],[-112.19773,41.94048],[-112.19806,41.9407],[-112.1983,41.94046],[-112.19901,41.94002],[-112.19928,41.94046],[-112.20015,41.94014],[-112.19965,41.9391],[-112.19985,41.93871],[-112.20011,41.93854],[-112.19916,41.93797],[-112.19794,41.93754],[-112.19769,41.93812],[-112.19701,41.93815],[-112.19695,41.93756],[-112.19666,41.93695],[-112.19598,41.93715],[-112.1948,41.93739],[-112.19391,41.93707],[-112.19405,41.93744],[-112.19378,41.93705],[-112.1972,41.93499],[-112.19766,41.93462],[-112.19839,41.93465],[-112.19829,41.93426],[-112.19733,41.93402],[-112.19699,41.93367],[-112.19707,41.93306],[-112.19563,41.93223],[-112.19476,41.93243],[-112.19448,41.93153],[-112.19512,41.93049],[-112.19575,41.9308],[-112.1959,41.93111],[-112.19606,41.93053],[-112.19584,41.93017],[-112.19642,41.93027],[-112.19692,41.93057],[-112.19771,41.93045],[-112.19785,41.93018],[-112.19816,41.93017],[-112.19863,41.93058],[-112.19808,41.93116],[-112.19862,41.93114],[-112.19897,41.93092],[-112.1992,41.93035],[-112.19932,41.93004],[-112.19881,41.92974],[-112.19816,41.92934],[-112.19869,41.92916],[-112.19958,41.92905],[-112.19905,41.92856],[-112.19821,41.92867],[-112.19866,41.92851],[-112.19938,41.92827],[-112.19908,41.92762],[-112.20537,41.91842],[-112.20201,41.93657],[-112.21455,41.94394],[-112.21675,41.95029],[-112.21762,41.95471],[-112.21862,41.95989],[-112.20754,41.95816]]],[[[-112.15828,41.94464],[-112.15812,41.93397],[-112.16779,41.93268],[-112.1718,41.93713],[-112.1725,41.9406],[-112.17343,41.94435],[-112.17496,41.94861],[-112.17748,41.95533],[-112.17851,41.958],[-112.1786,41.96253],[-112.1787,41.96622],[-112.17348,41.96992],[-112.15863,41.96274],[-112.15837,41.95131],[-112.15815,41.94464],[-112.15828,41.94464]]],[[[-112.22151,41.94344],[-112.21561,41.94344],[-112.21374,41.9407],[-112.21151,41.9328],[-112.21006,41.93071],[-112.20763,41.92393],[-112.20634,41.92022],[-112.20639,41.91478],[-112.21603,41.91594],[-112.22097,41.92178],[-112.23073,41.92162],[-112.23079,41.92771],[-112.23096,41.93486],[-112.22133,41.93504],[-112.22151,41.94344]]],[[[-112.22626,41.94335],[-112.22638,41.94367],[-112.22682,41.95413],[-112.22196,41.95426],[-112.22212,41.95786],[-112.21913,41.96058],[-112.21888,41.95928],[-112.21872,41.95848],[-112.21862,41.95793],[-112.2184,41.95683],[-112.21813,41.95543],[-112.21793,41.95438],[-112.21754,41.95242],[-112.21731,41.95122],[-112.21708,41.95007],[-112.21688,41.94939],[-112.21651,41.94831],[-112.21623,41.94753],[-112.21491,41.94386],[-112.21483,41.94365],[-112.22151,41.94346],[-112.22626,41.94335]]],[[[-112.20754,41.95816],[-112.2068,41.96536],[-112.20706,41.96511],[-112.20741,41.96512],[-112.20752,41.96495],[-112.20728,41.96485],[-112.20645,41.96471],[-112.20591,41.96462],[-112.20544,41.96465],[-112.20543,41.96496],[-112.20522,41.96544],[-112.20468,41.96562],[-112.2042,41.96547],[-112.20452,41.96514],[-112.20475,41.96487],[-112.20469,41.96464],[-112.20434,41.96468],[-112.2037,41.96483],[-112.20354,41.96496],[-112.20362,41.96535],[-112.20328,41.96564],[-112.20311,41.96551],[-112.20297,41.96522],[-112.20306,41.96501],[-112.20288,41.96474],[-112.20245,41.96433],[-112.20196,41.96384],[-112.20167,41.96351],[-112.20158,41.96335],[-112.20132,41.96348],[-112.20124,41.96383],[-112.20119,41.96411],[-112.20138,41.96415],[-112.20173,41.96443],[-112.20155,41.96472],[-112.2013,41.96491],[-112.20119,41.96473],[-112.20103,41.96439],[-112.2007,41.96387],[-112.20035,41.96332],[-112.20029,41.96294],[-112.20014,41.96281],[-112.19999,41.96286],[-112.19989,41.96282],[-112.19999,41.96268],[-112.20007,41.9625],[-112.2002,41.96221],[-112.20045,41.96227],[-112.20061,41.96254],[-112.20071,41.96271],[-112.201,41.9627],[-112.20104,41.96249],[-112.20094,41.96221],[-112.20083,41.96199],[-112.20096,41.96196],[-112.20135,41.96204],[-112.20173,41.96208],[-112.20204,41.96185],[-112.2025,41.96154],[-112.2027,41.96129],[-112.20268,41.96085],[-112.2026,41.96052],[-112.20209,41.96032],[-112.20123,41.96007],[-112.20029,41.95985],[-112.20011,41.95974],[-112.20028,41.95959],[-112.20055,41.9596],[-112.20111,41.95958],[-112.2015,41.95946],[-112.20162,41.95932],[-112.20154,41.95916],[-112.20153,41.95907],[-112.20167,41.95905],[-112.20173,41.95917],[-112.20185,41.95937],[-112.20213,41.9595],[-112.20251,41.95949],[-112.20294,41.95946],[-112.20328,41.95957],[-112.20344,41.95939],[-112.20304,41.95916],[-112.20238,41.95861],[-112.20396,41.95853],[-112.2046,41.95911],[-112.20498,41.95883],[-112.20568,41.95831],[-112.20754,41.95816]]],[[[-112.17628,41.94796],[-112.17651,41.94796],[-112.17803,41.95155],[-112.17811,41.9526],[-112.17713,41.95016],[-112.17628,41.94796]]],[[[-112.17257,41.92258],[-112.17258,41.92309],[-112.17253,41.92258],[-112.17257,41.92258]]]]}},{"type":"Feature","properties":{"boundary_id":"737","BoundaryID":"737","Boundary_Name":"Plymouth Peak","boundary_name":"Plymouth Peak","source":"arcgis_lite_individual"},"geometry":{"type":"MultiPolygon","coordinates":[[[[-112.20754,41.95816],[-112.17578,41.94432],[-112.17304,41.92253],[-112.19212,41.92771],[-112.19924,41.92814],[-112.19869,41.92839],[-112.19787,41.92863],[-112.19872,41.92868],[-112.19941,41.92899],[-112.19846,41.92901],[-112.19813,41.92953],[-112.1988,41.92985],[-112.19913,41.9301],[-112.19891,41.93082],[-112.1984,41.9311],[-112.19865,41.93071],[-112.19843,41.93018],[-112.19759,41.93008],[-112.19724,41.93042],[-112.19659,41.93043],[-112.19609,41.92998],[-112.19566,41.9304],[-112.19598,41.93084],[-112.19585,41.93087],[-112.19546,41.93042],[-112.19482,41.93074],[-112.19438,41.93141],[-112.19441,41.9322],[-112.19525,41.93238],[-112.19545,41.93286],[-112.19533,41.93384],[-112.19577,41.93389],[-112.19613,41.93386],[-112.19661,41.93407],[-112.19684,41.93356],[-112.19699,41.93394],[-112.19824,41.93434],[-112.19784,41.93457],[-112.19705,41.93487],[-112.19698,41.93599],[-112.19618,41.93596],[-112.19544,41.93591],[-112.19544,41.93628],[-112.19486,41.93652],[-112.19426,41.93639],[-112.19369,41.93719],[-112.19422,41.93736],[-112.19431,41.93717],[-112.1952,41.93761],[-112.19613,41.93712],[-112.19676,41.93709],[-112.19682,41.93765],[-112.19696,41.9383],[-112.1979,41.93804],[-112.19826,41.93758],[-112.19941,41.93826],[-112.20008,41.93868],[-112.19958,41.93854],[-112.19948,41.93909],[-112.20012,41.93996],[-112.19951,41.94045],[-112.19949,41.94016],[-112.19854,41.93983],[-112.19808,41.94059],[-112.19778,41.94034],[-112.19758,41.94055],[-112.19766,41.94081],[-112.19738,41.94064],[-112.19678,41.94067],[-112.19664,41.94111],[-112.19725,41.94115],[-112.19691,41.94126],[-112.19655,41.94162],[-112.19729,41.9418],[-112.19712,41.94231],[-112.19618,41.94226],[-112.19553,41.94274],[-112.19541,41.9432],[-112.19632,41.94392],[-112.19682,41.94376],[-112.19748,41.94181],[-112.19731,41.94074],[-112.19781,41.94084],[-112.19773,41.94048],[-112.19806,41.9407],[-112.1983,41.94046],[-112.19901,41.94002],[-112.19928,41.94046],[-112.20015,41.94014],[-112.19965,41.9391],[-112.19985,41.93871],[-112.20011,41.93854],[-112.19916,41.93797],[-112.19794,41.93754],[-112.19769,41.93812],[-112.19701,41.93815],[-112.19695,41.93756],[-112.19666,41.93695],[-112.19598,41.93715],[-112.1948,41.93739],[-112.19391,41.93707],[-112.19405,41.93744],[-112.19378,41.93705],[-112.1972,41.93499],[-112.19766,41.93462],[-112.19839,41.93465],[-112.19829,41.93426],[-112.19733,41.93402],[-112.19699,41.93367],[-112.19707,41.93306],[-112.19563,41.93223],[-112.19476,41.93243],[-112.19448,41.93153],[-112.19512,41.93049],[-112.19575,41.9308],[-112.1959,41.93111],[-112.19606,41.93053],[-112.19584,41.93017],[-112.19642,41.93027],[-112.19692,41.93057],[-112.19771,41.93045],[-112.19785,41.93018],[-112.19816,41.93017],[-112.19863,41.93058],[-112.19808,41.93116],[-112.19862,41.93114],[-112.19897,41.93092],[-112.1992,41.93035],[-112.19932,41.93004],[-112.19881,41.92974],[-112.19816,41.92934],[-112.19869,41.92916],[-112.19958,41.92905],[-112.19905,41.92856],[-112.19821,41.92867],[-112.19866,41.92851],[-112.19938,41.92827],[-112.19908,41.92762],[-112.20537,41.91842],[-112.20201,41.93657],[-112.21455,41.94394],[-112.21675,41.95029],[-112.21762,41.95471],[-112.21862,41.95989],[-112.20754,41.95816]]],[[[-112.15828,41.94464],[-112.15812,41.93397],[-112.16779,41.93268],[-112.1718,41.93713],[-112.1725,41.9406],[-112.17343,41.94435],[-112.17496,41.94861],[-112.17748,41.95533],[-112.17851,41.958],[-112.1786,41.96253],[-112.1787,41.96622],[-112.17348,41.96992],[-112.15863,41.96274],[-112.15837,41.95131],[-112.15815,41.94464],[-112.15828,41.94464]]],[[[-112.22151,41.94344],[-112.21561,41.94344],[-112.21374,41.9407],[-112.21151,41.9328],[-112.21006,41.93071],[-112.20763,41.92393],[-112.20634,41.92022],[-112.20639,41.91478],[-112.21603,41.91594],[-112.22097,41.92178],[-112.23073,41.92162],[-112.23079,41.92771],[-112.23096,41.93486],[-112.22133,41.93504],[-112.22151,41.94344]]],[[[-112.22626,41.94335],[-112.22638,41.94367],[-112.22682,41.95413],[-112.22196,41.95426],[-112.22212,41.95786],[-112.21913,41.96058],[-112.21888,41.95928],[-112.21872,41.95848],[-112.21862,41.95793],[-112.2184,41.95683],[-112.21813,41.95543],[-112.21793,41.95438],[-112.21754,41.95242],[-112.21731,41.95122],[-112.21708,41.95007],[-112.21688,41.94939],[-112.21651,41.94831],[-112.21623,41.94753],[-112.21491,41.94386],[-112.21483,41.94365],[-112.22151,41.94346],[-112.22626,41.94335]]],[[[-112.20754,41.95816],[-112.2068,41.96536],[-112.20706,41.96511],[-112.20741,41.96512],[-112.20752,41.96495],[-112.20728,41.96485],[-112.20645,41.96471],[-112.20591,41.96462],[-112.20544,41.96465],[-112.20543,41.96496],[-112.20522,41.96544],[-112.20468,41.96562],[-112.2042,41.96547],[-112.20452,41.96514],[-112.20475,41.96487],[-112.20469,41.96464],[-112.20434,41.96468],[-112.2037,41.96483],[-112.20354,41.96496],[-112.20362,41.96535],[-112.20328,41.96564],[-112.20311,41.96551],[-112.20297,41.96522],[-112.20306,41.96501],[-112.20288,41.96474],[-112.20245,41.96433],[-112.20196,41.96384],[-112.20167,41.96351],[-112.20158,41.96335],[-112.20132,41.96348],[-112.20124,41.96383],[-112.20119,41.96411],[-112.20138,41.96415],[-112.20173,41.96443],[-112.20155,41.96472],[-112.2013,41.96491],[-112.20119,41.96473],[-112.20103,41.96439],[-112.2007,41.96387],[-112.20035,41.96332],[-112.20029,41.96294],[-112.20014,41.96281],[-112.19999,41.96286],[-112.19989,41.96282],[-112.19999,41.96268],[-112.20007,41.9625],[-112.2002,41.96221],[-112.20045,41.96227],[-112.20061,41.96254],[-112.20071,41.96271],[-112.201,41.9627],[-112.20104,41.96249],[-112.20094,41.96221],[-112.20083,41.96199],[-112.20096,41.96196],[-112.20135,41.96204],[-112.20173,41.96208],[-112.20204,41.96185],[-112.2025,41.96154],[-112.2027,41.96129],[-112.20268,41.96085],[-112.2026,41.96052],[-112.20209,41.96032],[-112.20123,41.96007],[-112.20029,41.95985],[-112.20011,41.95974],[-112.20028,41.95959],[-112.20055,41.9596],[-112.20111,41.95958],[-112.2015,41.95946],[-112.20162,41.95932],[-112.20154,41.95916],[-112.20153,41.95907],[-112.20167,41.95905],[-112.20173,41.95917],[-112.20185,41.95937],[-112.20213,41.9595],[-112.20251,41.95949],[-112.20294,41.95946],[-112.20328,41.95957],[-112.20344,41.95939],[-112.20304,41.95916],[-112.20238,41.95861],[-112.20396,41.95853],[-112.2046,41.95911],[-112.20498,41.95883],[-112.20568,41.95831],[-112.20754,41.95816]]],[[[-112.17628,41.94796],[-112.17651,41.94796],[-112.17803,41.95155],[-112.17811,41.9526],[-112.17713,41.95016],[-112.17628,41.94796]]],[[[-112.17257,41.92258],[-112.17258,41.92309],[-112.17253,41.92258],[-112.17257,41.92258]]]]}},{"type":"Feature","properties":{"boundary_id":"737","BoundaryID":"737","Boundary_Name":"Plymouth Peak","boundary_name":"Plymouth Peak","source":"arcgis_lite_individual"},"geometry":{"type":"MultiPolygon","coordinates":[[[[-112.20754,41.95816],[-112.17578,41.94432],[-112.17304,41.92253],[-112.19212,41.92771],[-112.19924,41.92814],[-112.19869,41.92839],[-112.19787,41.92863],[-112.19872,41.92868],[-112.19941,41.92899],[-112.19846,41.92901],[-112.19813,41.92953],[-112.1988,41.92985],[-112.19913,41.9301],[-112.19891,41.93082],[-112.1984,41.9311],[-112.19865,41.93071],[-112.19843,41.93018],[-112.19759,41.93008],[-112.19724,41.93042],[-112.19659,41.93043],[-112.19609,41.92998],[-112.19566,41.9304],[-112.19598,41.93084],[-112.19585,41.93087],[-112.19546,41.93042],[-112.19482,41.93074],[-112.19438,41.93141],[-112.19441,41.9322],[-112.19525,41.93238],[-112.19545,41.93286],[-112.19533,41.93384],[-112.19577,41.93389],[-112.19613,41.93386],[-112.19661,41.93407],[-112.19684,41.93356],[-112.19699,41.93394],[-112.19824,41.93434],[-112.19784,41.93457],[-112.19705,41.93487],[-112.19698,41.93599],[-112.19618,41.93596],[-112.19544,41.93591],[-112.19544,41.93628],[-112.19486,41.93652],[-112.19426,41.93639],[-112.19369,41.93719],[-112.19422,41.93736],[-112.19431,41.93717],[-112.1952,41.93761],[-112.19613,41.93712],[-112.19676,41.93709],[-112.19682,41.93765],[-112.19696,41.9383],[-112.1979,41.93804],[-112.19826,41.93758],[-112.19941,41.93826],[-112.20008,41.93868],[-112.19958,41.93854],[-112.19948,41.93909],[-112.20012,41.93996],[-112.19951,41.94045],[-112.19949,41.94016],[-112.19854,41.93983],[-112.19808,41.94059],[-112.19778,41.94034],[-112.19758,41.94055],[-112.19766,41.94081],[-112.19738,41.94064],[-112.19678,41.94067],[-112.19664,41.94111],[-112.19725,41.94115],[-112.19691,41.94126],[-112.19655,41.94162],[-112.19729,41.9418],[-112.19712,41.94231],[-112.19618,41.94226],[-112.19553,41.94274],[-112.19541,41.9432],[-112.19632,41.94392],[-112.19682,41.94376],[-112.19748,41.94181],[-112.19731,41.94074],[-112.19781,41.94084],[-112.19773,41.94048],[-112.19806,41.9407],[-112.1983,41.94046],[-112.19901,41.94002],[-112.19928,41.94046],[-112.20015,41.94014],[-112.19965,41.9391],[-112.19985,41.93871],[-112.20011,41.93854],[-112.19916,41.93797],[-112.19794,41.93754],[-112.19769,41.93812],[-112.19701,41.93815],[-112.19695,41.93756],[-112.19666,41.93695],[-112.19598,41.93715],[-112.1948,41.93739],[-112.19391,41.93707],[-112.19405,41.93744],[-112.19378,41.93705],[-112.1972,41.93499],[-112.19766,41.93462],[-112.19839,41.93465],[-112.19829,41.93426],[-112.19733,41.93402],[-112.19699,41.93367],[-112.19707,41.93306],[-112.19563,41.93223],[-112.19476,41.93243],[-112.19448,41.93153],[-112.19512,41.93049],[-112.19575,41.9308],[-112.1959,41.93111],[-112.19606,41.93053],[-112.19584,41.93017],[-112.19642,41.93027],[-112.19692,41.93057],[-112.19771,41.93045],[-112.19785,41.93018],[-112.19816,41.93017],[-112.19863,41.93058],[-112.19808,41.93116],[-112.19862,41.93114],[-112.19897,41.93092],[-112.1992,41.93035],[-112.19932,41.93004],[-112.19881,41.92974],[-112.19816,41.92934],[-112.19869,41.92916],[-112.19958,41.92905],[-112.19905,41.92856],[-112.19821,41.92867],[-112.19866,41.92851],[-112.19938,41.92827],[-112.19908,41.92762],[-112.20537,41.91842],[-112.20201,41.93657],[-112.21455,41.94394],[-112.21675,41.95029],[-112.21762,41.95471],[-112.21862,41.95989],[-112.20754,41.95816]]],[[[-112.15828,41.94464],[-112.15812,41.93397],[-112.16779,41.93268],[-112.1718,41.93713],[-112.1725,41.9406],[-112.17343,41.94435],[-112.17496,41.94861],[-112.17748,41.95533],[-112.17851,41.958],[-112.1786,41.96253],[-112.1787,41.96622],[-112.17348,41.96992],[-112.15863,41.96274],[-112.15837,41.95131],[-112.15815,41.94464],[-112.15828,41.94464]]],[[[-112.22151,41.94344],[-112.21561,41.94344],[-112.21374,41.9407],[-112.21151,41.9328],[-112.21006,41.93071],[-112.20763,41.92393],[-112.20634,41.92022],[-112.20639,41.91478],[-112.21603,41.91594],[-112.22097,41.92178],[-112.23073,41.92162],[-112.23079,41.92771],[-112.23096,41.93486],[-112.22133,41.93504],[-112.22151,41.94344]]],[[[-112.22626,41.94335],[-112.22638,41.94367],[-112.22682,41.95413],[-112.22196,41.95426],[-112.22212,41.95786],[-112.21913,41.96058],[-112.21888,41.95928],[-112.21872,41.95848],[-112.21862,41.95793],[-112.2184,41.95683],[-112.21813,41.95543],[-112.21793,41.95438],[-112.21754,41.95242],[-112.21731,41.95122],[-112.21708,41.95007],[-112.21688,41.94939],[-112.21651,41.94831],[-112.21623,41.94753],[-112.21491,41.94386],[-112.21483,41.94365],[-112.22151,41.94346],[-112.22626,41.94335]]],[[[-112.20754,41.95816],[-112.2068,41.96536],[-112.20706,41.96511],[-112.20741,41.96512],[-112.20752,41.96495],[-112.20728,41.96485],[-112.20645,41.96471],[-112.20591,41.96462],[-112.20544,41.96465],[-112.20543,41.96496],[-112.20522,41.96544],[-112.20468,41.96562],[-112.2042,41.96547],[-112.20452,41.96514],[-112.20475,41.96487],[-112.20469,41.96464],[-112.20434,41.96468],[-112.2037,41.96483],[-112.20354,41.96496],[-112.20362,41.96535],[-112.20328,41.96564],[-112.20311,41.96551],[-112.20297,41.96522],[-112.20306,41.96501],[-112.20288,41.96474],[-112.20245,41.96433],[-112.20196,41.96384],[-112.20167,41.96351],[-112.20158,41.96335],[-112.20132,41.96348],[-112.20124,41.96383],[-112.20119,41.96411],[-112.20138,41.96415],[-112.20173,41.96443],[-112.20155,41.96472],[-112.2013,41.96491],[-112.20119,41.96473],[-112.20103,41.96439],[-112.2007,41.96387],[-112.20035,41.96332],[-112.20029,41.96294],[-112.20014,41.96281],[-112.19999,41.96286],[-112.19989,41.96282],[-112.19999,41.96268],[-112.20007,41.9625],[-112.2002,41.96221],[-112.20045,41.96227],[-112.20061,41.96254],[-112.20071,41.96271],[-112.201,41.9627],[-112.20104,41.96249],[-112.20094,41.96221],[-112.20083,41.96199],[-112.20096,41.96196],[-112.20135,41.96204],[-112.20173,41.96208],[-112.20204,41.96185],[-112.2025,41.96154],[-112.2027,41.96129],[-112.20268,41.96085],[-112.2026,41.96052],[-112.20209,41.96032],[-112.20123,41.96007],[-112.20029,41.95985],[-112.20011,41.95974],[-112.20028,41.95959],[-112.20055,41.9596],[-112.20111,41.95958],[-112.2015,41.95946],[-112.20162,41.95932],[-112.20154,41.95916],[-112.20153,41.95907],[-112.20167,41.95905],[-112.20173,41.95917],[-112.20185,41.95937],[-112.20213,41.9595],[-112.20251,41.95949],[-112.20294,41.95946],[-112.20328,41.95957],[-112.20344,41.95939],[-112.20304,41.95916],[-112.20238,41.95861],[-112.20396,41.95853],[-112.2046,41.95911],[-112.20498,41.95883],[-112.20568,41.95831],[-112.20754,41.95816]]],[[[-112.17628,41.94796],[-112.17651,41.94796],[-112.17803,41.95155],[-112.17811,41.9526],[-112.17713,41.95016],[-112.17628,41.94796]]],[[[-112.17257,41.92258],[-112.17258,41.92309],[-112.17253,41.92258],[-112.17257,41.92258]]]]}}]}