{"type":"FeatureCollection","metadata":{"hunt_code":"DB1343","boundary_id":"907","member_boundary_ids":[],"source_boundary_ids":["907"],"source_hunt_code":"DB1343","merged_boundary_id":null,"boundary_geometry_type":"single_boundary_id","generated_from":"display-boundary-index-2026-existing-fallback-reconcile","boundary_source_authority":"Utah DWR","boundary_source_file":"data/hunt-master-canonical-2026-source-of-truth.json","fallback_source_file":"data/hunt_boundaries.geojson"},"features":[{"type":"Feature","properties":{"boundary_id":"907","BoundaryID":"907","Boundary_Name":"Red Iron","boundary_name":"Red Iron","source":"arcgis_lite_individual"},"geometry":{"type":"MultiPolygon","coordinates":[[[[-111.79378,39.37157],[-111.76972,39.37267],[-111.77454,39.38169],[-111.76793,39.41865],[-111.78723,39.42692],[-111.80273,39.42217],[-111.81899,39.41127],[-111.83086,39.41816],[-111.84887,39.41072],[-111.85766,39.39255],[-111.85327,39.40693],[-111.86732,39.37798],[-111.87648,39.36703],[-111.88558,39.37054],[-111.8948,39.3705],[-111.89969,39.39568],[-111.86744,39.39947],[-111.87651,39.41386],[-111.89062,39.41726],[-111.89977,39.41823],[-111.90861,39.42204],[-111.91529,39.42929],[-111.90454,39.42862],[-111.89942,39.42502],[-111.87223,39.42803],[-111.86227,39.41735],[-111.84906,39.42507],[-111.8358,39.43971],[-111.85357,39.44282],[-111.85775,39.44981],[-111.83589,39.45352],[-111.82657,39.45362],[-111.81708,39.44349],[-111.8078,39.4295],[-111.80771,39.44034],[-111.80298,39.44827],[-111.7967,39.44592],[-111.7884,39.4423],[-111.78429,39.43708],[-111.78418,39.43341],[-111.77955,39.43995],[-111.74756,39.43333],[-111.75137,39.42598],[-111.75442,39.41634],[-111.75625,39.40797],[-111.75678,39.39733],[-111.74722,39.39372],[-111.74261,39.38642],[-111.7376,39.37183],[-111.73293,39.37189],[-111.72974,39.37903],[-111.71428,39.36835],[-111.72822,39.36471],[-111.72353,39.35021],[-111.73756,39.36096],[-111.74686,39.36766],[-111.76095,39.35359],[-111.76561,39.33903],[-111.74674,39.32817],[-111.75128,39.3187],[-111.75751,39.31978],[-111.76088,39.31977],[-111.76788,39.32087],[-111.77463,39.32446],[-111.77976,39.34021],[-111.81236,39.35327],[-111.80764,39.36052],[-111.79375,39.35693],[-111.79829,39.36776],[-111.79378,39.37157]]]]}},{"type":"Feature","properties":{"boundary_id":"907","BoundaryID":"907","Boundary_Name":"Red Iron","boundary_name":"Red Iron","source":"arcgis_lite_individual"},"geometry":{"type":"MultiPolygon","coordinates":[[[[-111.79378,39.37157],[-111.76972,39.37267],[-111.77454,39.38169],[-111.76793,39.41865],[-111.78723,39.42692],[-111.80273,39.42217],[-111.81899,39.41127],[-111.83086,39.41816],[-111.84887,39.41072],[-111.85766,39.39255],[-111.85327,39.40693],[-111.86732,39.37798],[-111.87648,39.36703],[-111.88558,39.37054],[-111.8948,39.3705],[-111.89969,39.39568],[-111.86744,39.39947],[-111.87651,39.41386],[-111.89062,39.41726],[-111.89977,39.41823],[-111.90861,39.42204],[-111.91529,39.42929],[-111.90454,39.42862],[-111.89942,39.42502],[-111.87223,39.42803],[-111.86227,39.41735],[-111.84906,39.42507],[-111.8358,39.43971],[-111.85357,39.44282],[-111.85775,39.44981],[-111.83589,39.45352],[-111.82657,39.45362],[-111.81708,39.44349],[-111.8078,39.4295],[-111.80771,39.44034],[-111.80298,39.44827],[-111.7967,39.44592],[-111.7884,39.4423],[-111.78429,39.43708],[-111.78418,39.43341],[-111.77955,39.43995],[-111.74756,39.43333],[-111.75137,39.42598],[-111.75442,39.41634],[-111.75625,39.40797],[-111.75678,39.39733],[-111.74722,39.39372],[-111.74261,39.38642],[-111.7376,39.37183],[-111.73293,39.37189],[-111.72974,39.37903],[-111.71428,39.36835],[-111.72822,39.36471],[-111.72353,39.35021],[-111.73756,39.36096],[-111.74686,39.36766],[-111.76095,39.35359],[-111.76561,39.33903],[-111.74674,39.32817],[-111.75128,39.3187],[-111.75751,39.31978],[-111.76088,39.31977],[-111.76788,39.32087],[-111.77463,39.32446],[-111.77976,39.34021],[-111.81236,39.35327],[-111.80764,39.36052],[-111.79375,39.35693],[-111.79829,39.36776],[-111.79378,39.37157]]]]}},{"type":"Feature","properties":{"boundary_id":"907","BoundaryID":"907","Boundary_Name":"Red Iron","boundary_name":"Red Iron","source":"arcgis_lite_individual"},"geometry":{"type":"MultiPolygon","coordinates":[[[[-111.79378,39.37157],[-111.76972,39.37267],[-111.77454,39.38169],[-111.76793,39.41865],[-111.78723,39.42692],[-111.80273,39.42217],[-111.81899,39.41127],[-111.83086,39.41816],[-111.84887,39.41072],[-111.85766,39.39255],[-111.85327,39.40693],[-111.86732,39.37798],[-111.87648,39.36703],[-111.88558,39.37054],[-111.8948,39.3705],[-111.89969,39.39568],[-111.86744,39.39947],[-111.87651,39.41386],[-111.89062,39.41726],[-111.89977,39.41823],[-111.90861,39.42204],[-111.91529,39.42929],[-111.90454,39.42862],[-111.89942,39.42502],[-111.87223,39.42803],[-111.86227,39.41735],[-111.84906,39.42507],[-111.8358,39.43971],[-111.85357,39.44282],[-111.85775,39.44981],[-111.83589,39.45352],[-111.82657,39.45362],[-111.81708,39.44349],[-111.8078,39.4295],[-111.80771,39.44034],[-111.80298,39.44827],[-111.7967,39.44592],[-111.7884,39.4423],[-111.78429,39.43708],[-111.78418,39.43341],[-111.77955,39.43995],[-111.74756,39.43333],[-111.75137,39.42598],[-111.75442,39.41634],[-111.75625,39.40797],[-111.75678,39.39733],[-111.74722,39.39372],[-111.74261,39.38642],[-111.7376,39.37183],[-111.73293,39.37189],[-111.72974,39.37903],[-111.71428,39.36835],[-111.72822,39.36471],[-111.72353,39.35021],[-111.73756,39.36096],[-111.74686,39.36766],[-111.76095,39.35359],[-111.76561,39.33903],[-111.74674,39.32817],[-111.75128,39.3187],[-111.75751,39.31978],[-111.76088,39.31977],[-111.76788,39.32087],[-111.77463,39.32446],[-111.77976,39.34021],[-111.81236,39.35327],[-111.80764,39.36052],[-111.79375,39.35693],[-111.79829,39.36776],[-111.79378,39.37157]]]]}},{"type":"Feature","properties":{"boundary_id":"907","BoundaryID":"907","Boundary_Name":"Red Iron","boundary_name":"Red Iron","source":"arcgis_lite_individual"},"geometry":{"type":"MultiPolygon","coordinates":[[[[-111.79378,39.37157],[-111.76972,39.37267],[-111.77454,39.38169],[-111.76793,39.41865],[-111.78723,39.42692],[-111.80273,39.42217],[-111.81899,39.41127],[-111.83086,39.41816],[-111.84887,39.41072],[-111.85766,39.39255],[-111.85327,39.40693],[-111.86732,39.37798],[-111.87648,39.36703],[-111.88558,39.37054],[-111.8948,39.3705],[-111.89969,39.39568],[-111.86744,39.39947],[-111.87651,39.41386],[-111.89062,39.41726],[-111.89977,39.41823],[-111.90861,39.42204],[-111.91529,39.42929],[-111.90454,39.42862],[-111.89942,39.42502],[-111.87223,39.42803],[-111.86227,39.41735],[-111.84906,39.42507],[-111.8358,39.43971],[-111.85357,39.44282],[-111.85775,39.44981],[-111.83589,39.45352],[-111.82657,39.45362],[-111.81708,39.44349],[-111.8078,39.4295],[-111.80771,39.44034],[-111.80298,39.44827],[-111.7967,39.44592],[-111.7884,39.4423],[-111.78429,39.43708],[-111.78418,39.43341],[-111.77955,39.43995],[-111.74756,39.43333],[-111.75137,39.42598],[-111.75442,39.41634],[-111.75625,39.40797],[-111.75678,39.39733],[-111.74722,39.39372],[-111.74261,39.38642],[-111.7376,39.37183],[-111.73293,39.37189],[-111.72974,39.37903],[-111.71428,39.36835],[-111.72822,39.36471],[-111.72353,39.35021],[-111.73756,39.36096],[-111.74686,39.36766],[-111.76095,39.35359],[-111.76561,39.33903],[-111.74674,39.32817],[-111.75128,39.3187],[-111.75751,39.31978],[-111.76088,39.31977],[-111.76788,39.32087],[-111.77463,39.32446],[-111.77976,39.34021],[-111.81236,39.35327],[-111.80764,39.36052],[-111.79375,39.35693],[-111.79829,39.36776],[-111.79378,39.37157]]]]}}]}