{"type":"FeatureCollection","metadata":{"hunt_code":"DB1320","boundary_id":"686","member_boundary_ids":[],"source_boundary_ids":["686"],"source_hunt_code":"DB1320","merged_boundary_id":null,"boundary_geometry_type":"single_boundary_id","generated_from":"display-boundary-index-2026-existing-fallback-reconcile","boundary_source_authority":"Utah DWR","boundary_source_file":"data/hunt-master-canonical-2026-source-of-truth.json","fallback_source_file":"data/hunt_boundaries.geojson"},"features":[{"type":"Feature","properties":{"boundary_id":"686","BoundaryID":"686","Boundary_Name":"Deer Creek","boundary_name":"Deer Creek","source":"arcgis_lite_individual"},"geometry":{"type":"MultiPolygon","coordinates":[[[[-111.50499,40.40872],[-111.48113,40.40519],[-111.46469,40.40021],[-111.45703,40.39811],[-111.45236,40.38304],[-111.45521,40.37482],[-111.46651,40.36885],[-111.47125,40.36522],[-111.48488,40.36169],[-111.50934,40.36517],[-111.51873,40.36162],[-111.52824,40.36519],[-111.53312,40.37928],[-111.54618,40.37608],[-111.51424,40.38296],[-111.50939,40.37946],[-111.51419,40.39006],[-111.52343,40.40128],[-111.51438,40.40874],[-111.50499,40.40872]]]]}},{"type":"Feature","properties":{"boundary_id":"686","BoundaryID":"686","Boundary_Name":"Deer Creek","boundary_name":"Deer Creek","source":"arcgis_lite_individual"},"geometry":{"type":"MultiPolygon","coordinates":[[[[-111.50499,40.40872],[-111.48113,40.40519],[-111.46469,40.40021],[-111.45703,40.39811],[-111.45236,40.38304],[-111.45521,40.37482],[-111.46651,40.36885],[-111.47125,40.36522],[-111.48488,40.36169],[-111.50934,40.36517],[-111.51873,40.36162],[-111.52824,40.36519],[-111.53312,40.37928],[-111.54618,40.37608],[-111.51424,40.38296],[-111.50939,40.37946],[-111.51419,40.39006],[-111.52343,40.40128],[-111.51438,40.40874],[-111.50499,40.40872]]]]}},{"type":"Feature","properties":{"boundary_id":"686","BoundaryID":"686","Boundary_Name":"Deer Creek","boundary_name":"Deer Creek","source":"arcgis_lite_individual"},"geometry":{"type":"MultiPolygon","coordinates":[[[[-111.50499,40.40872],[-111.48113,40.40519],[-111.46469,40.40021],[-111.45703,40.39811],[-111.45236,40.38304],[-111.45521,40.37482],[-111.46651,40.36885],[-111.47125,40.36522],[-111.48488,40.36169],[-111.50934,40.36517],[-111.51873,40.36162],[-111.52824,40.36519],[-111.53312,40.37928],[-111.54618,40.37608],[-111.51424,40.38296],[-111.50939,40.37946],[-111.51419,40.39006],[-111.52343,40.40128],[-111.51438,40.40874],[-111.50499,40.40872]]]]}},{"type":"Feature","properties":{"boundary_id":"686","BoundaryID":"686","Boundary_Name":"Deer Creek","boundary_name":"Deer Creek","source":"arcgis_lite_individual"},"geometry":{"type":"MultiPolygon","coordinates":[[[[-111.50499,40.40872],[-111.48113,40.40519],[-111.46469,40.40021],[-111.45703,40.39811],[-111.45236,40.38304],[-111.45521,40.37482],[-111.46651,40.36885],[-111.47125,40.36522],[-111.48488,40.36169],[-111.50934,40.36517],[-111.51873,40.36162],[-111.52824,40.36519],[-111.53312,40.37928],[-111.54618,40.37608],[-111.51424,40.38296],[-111.50939,40.37946],[-111.51419,40.39006],[-111.52343,40.40128],[-111.51438,40.40874],[-111.50499,40.40872]]]]}}]}