{"type":"FeatureCollection","metadata":{"hunt_code":"DB1348","boundary_id":"922","member_boundary_ids":[],"source_boundary_ids":["922"],"source_hunt_code":"DB1348","merged_boundary_id":null,"boundary_geometry_type":"single_boundary_id","generated_from":"display-boundary-index-2026-existing-fallback-reconcile","boundary_source_authority":"Utah DWR","boundary_source_file":"data/hunt-master-canonical-2026-source-of-truth.json","fallback_source_file":"data/hunt_boundaries.geojson"},"features":[{"type":"Feature","properties":{"boundary_id":"922","BoundaryID":"922","Boundary_Name":"Kimberly","boundary_name":"Kimberly","source":"arcgis_lite_individual"},"geometry":{"type":"MultiPolygon","coordinates":[[[[-112.36285,38.51426],[-112.36283,38.51417],[-112.36276,38.50993],[-112.37892,38.49986],[-112.37989,38.49981],[-112.37952,38.491],[-112.38154,38.49107],[-112.38315,38.47908],[-112.38393,38.47913],[-112.3933,38.47262],[-112.39535,38.4702],[-112.39754,38.47327],[-112.4025,38.47331],[-112.40291,38.47207],[-112.40483,38.4682],[-112.40713,38.4684],[-112.41127,38.47455],[-112.41474,38.47402],[-112.41407,38.46984],[-112.41812,38.46986],[-112.41956,38.47837],[-112.42001,38.47537],[-112.42208,38.47539],[-112.42244,38.47364],[-112.41953,38.47193],[-112.41885,38.46934],[-112.42119,38.46965],[-112.42271,38.46772],[-112.42095,38.46228],[-112.41742,38.45936],[-112.42069,38.45758],[-112.42385,38.4597],[-112.42553,38.46067],[-112.43005,38.45558],[-112.43762,38.45917],[-112.43765,38.46469],[-112.43172,38.47016],[-112.43166,38.47039],[-112.43107,38.47098],[-112.42989,38.47038],[-112.42991,38.47066],[-112.42794,38.47077],[-112.42716,38.47494],[-112.42437,38.47436],[-112.42145,38.47948],[-112.42057,38.47929],[-112.41924,38.48219],[-112.42142,38.48401],[-112.42345,38.48487],[-112.42603,38.48886],[-112.42699,38.4921],[-112.42631,38.4943],[-112.42435,38.49211],[-112.42413,38.49688],[-112.42238,38.49965],[-112.42143,38.49968],[-112.42007,38.50113],[-112.41999,38.50113],[-112.42089,38.50377],[-112.4194,38.5042],[-112.41839,38.50139],[-112.41776,38.51046],[-112.41314,38.51407],[-112.39929,38.51413],[-112.39928,38.51263],[-112.39926,38.51004],[-112.39919,38.50357],[-112.39767,38.50356],[-112.39766,38.50335],[-112.39351,38.50322],[-112.38133,38.49996],[-112.38119,38.50003],[-112.3812,38.50088],[-112.38126,38.50699],[-112.38131,38.51049],[-112.38135,38.51409],[-112.36285,38.51426]]],[[[-112.38819,38.46595],[-112.38455,38.46569],[-112.38506,38.46416],[-112.38026,38.46591],[-112.37991,38.45767],[-112.38448,38.45624],[-112.38531,38.45571],[-112.38769,38.45612],[-112.38959,38.45977],[-112.38851,38.46015],[-112.38863,38.46057],[-112.38936,38.46141],[-112.38881,38.46594],[-112.38819,38.46595]]],[[[-112.36817,38.47724],[-112.36665,38.47724],[-112.36424,38.47364],[-112.36537,38.47327],[-112.37055,38.47205],[-112.36977,38.46976],[-112.37191,38.46927],[-112.37916,38.4775],[-112.37258,38.47821],[-112.3723,38.47723],[-112.3712,38.47624],[-112.37037,38.47723],[-112.36998,38.48024],[-112.36817,38.47724]]]]}},{"type":"Feature","properties":{"boundary_id":"922","BoundaryID":"922","Boundary_Name":"Kimberly","boundary_name":"Kimberly","source":"arcgis_lite_individual"},"geometry":{"type":"MultiPolygon","coordinates":[[[[-112.36285,38.51426],[-112.36283,38.51417],[-112.36276,38.50993],[-112.37892,38.49986],[-112.37989,38.49981],[-112.37952,38.491],[-112.38154,38.49107],[-112.38315,38.47908],[-112.38393,38.47913],[-112.3933,38.47262],[-112.39535,38.4702],[-112.39754,38.47327],[-112.4025,38.47331],[-112.40291,38.47207],[-112.40483,38.4682],[-112.40713,38.4684],[-112.41127,38.47455],[-112.41474,38.47402],[-112.41407,38.46984],[-112.41812,38.46986],[-112.41956,38.47837],[-112.42001,38.47537],[-112.42208,38.47539],[-112.42244,38.47364],[-112.41953,38.47193],[-112.41885,38.46934],[-112.42119,38.46965],[-112.42271,38.46772],[-112.42095,38.46228],[-112.41742,38.45936],[-112.42069,38.45758],[-112.42385,38.4597],[-112.42553,38.46067],[-112.43005,38.45558],[-112.43762,38.45917],[-112.43765,38.46469],[-112.43172,38.47016],[-112.43166,38.47039],[-112.43107,38.47098],[-112.42989,38.47038],[-112.42991,38.47066],[-112.42794,38.47077],[-112.42716,38.47494],[-112.42437,38.47436],[-112.42145,38.47948],[-112.42057,38.47929],[-112.41924,38.48219],[-112.42142,38.48401],[-112.42345,38.48487],[-112.42603,38.48886],[-112.42699,38.4921],[-112.42631,38.4943],[-112.42435,38.49211],[-112.42413,38.49688],[-112.42238,38.49965],[-112.42143,38.49968],[-112.42007,38.50113],[-112.41999,38.50113],[-112.42089,38.50377],[-112.4194,38.5042],[-112.41839,38.50139],[-112.41776,38.51046],[-112.41314,38.51407],[-112.39929,38.51413],[-112.39928,38.51263],[-112.39926,38.51004],[-112.39919,38.50357],[-112.39767,38.50356],[-112.39766,38.50335],[-112.39351,38.50322],[-112.38133,38.49996],[-112.38119,38.50003],[-112.3812,38.50088],[-112.38126,38.50699],[-112.38131,38.51049],[-112.38135,38.51409],[-112.36285,38.51426]]],[[[-112.38819,38.46595],[-112.38455,38.46569],[-112.38506,38.46416],[-112.38026,38.46591],[-112.37991,38.45767],[-112.38448,38.45624],[-112.38531,38.45571],[-112.38769,38.45612],[-112.38959,38.45977],[-112.38851,38.46015],[-112.38863,38.46057],[-112.38936,38.46141],[-112.38881,38.46594],[-112.38819,38.46595]]],[[[-112.36817,38.47724],[-112.36665,38.47724],[-112.36424,38.47364],[-112.36537,38.47327],[-112.37055,38.47205],[-112.36977,38.46976],[-112.37191,38.46927],[-112.37916,38.4775],[-112.37258,38.47821],[-112.3723,38.47723],[-112.3712,38.47624],[-112.37037,38.47723],[-112.36998,38.48024],[-112.36817,38.47724]]]]}},{"type":"Feature","properties":{"boundary_id":"922","BoundaryID":"922","Boundary_Name":"Kimberly","boundary_name":"Kimberly","source":"arcgis_lite_individual"},"geometry":{"type":"MultiPolygon","coordinates":[[[[-112.36285,38.51426],[-112.36283,38.51417],[-112.36276,38.50993],[-112.37892,38.49986],[-112.37989,38.49981],[-112.37952,38.491],[-112.38154,38.49107],[-112.38315,38.47908],[-112.38393,38.47913],[-112.3933,38.47262],[-112.39535,38.4702],[-112.39754,38.47327],[-112.4025,38.47331],[-112.40291,38.47207],[-112.40483,38.4682],[-112.40713,38.4684],[-112.41127,38.47455],[-112.41474,38.47402],[-112.41407,38.46984],[-112.41812,38.46986],[-112.41956,38.47837],[-112.42001,38.47537],[-112.42208,38.47539],[-112.42244,38.47364],[-112.41953,38.47193],[-112.41885,38.46934],[-112.42119,38.46965],[-112.42271,38.46772],[-112.42095,38.46228],[-112.41742,38.45936],[-112.42069,38.45758],[-112.42385,38.4597],[-112.42553,38.46067],[-112.43005,38.45558],[-112.43762,38.45917],[-112.43765,38.46469],[-112.43172,38.47016],[-112.43166,38.47039],[-112.43107,38.47098],[-112.42989,38.47038],[-112.42991,38.47066],[-112.42794,38.47077],[-112.42716,38.47494],[-112.42437,38.47436],[-112.42145,38.47948],[-112.42057,38.47929],[-112.41924,38.48219],[-112.42142,38.48401],[-112.42345,38.48487],[-112.42603,38.48886],[-112.42699,38.4921],[-112.42631,38.4943],[-112.42435,38.49211],[-112.42413,38.49688],[-112.42238,38.49965],[-112.42143,38.49968],[-112.42007,38.50113],[-112.41999,38.50113],[-112.42089,38.50377],[-112.4194,38.5042],[-112.41839,38.50139],[-112.41776,38.51046],[-112.41314,38.51407],[-112.39929,38.51413],[-112.39928,38.51263],[-112.39926,38.51004],[-112.39919,38.50357],[-112.39767,38.50356],[-112.39766,38.50335],[-112.39351,38.50322],[-112.38133,38.49996],[-112.38119,38.50003],[-112.3812,38.50088],[-112.38126,38.50699],[-112.38131,38.51049],[-112.38135,38.51409],[-112.36285,38.51426]]],[[[-112.38819,38.46595],[-112.38455,38.46569],[-112.38506,38.46416],[-112.38026,38.46591],[-112.37991,38.45767],[-112.38448,38.45624],[-112.38531,38.45571],[-112.38769,38.45612],[-112.38959,38.45977],[-112.38851,38.46015],[-112.38863,38.46057],[-112.38936,38.46141],[-112.38881,38.46594],[-112.38819,38.46595]]],[[[-112.36817,38.47724],[-112.36665,38.47724],[-112.36424,38.47364],[-112.36537,38.47327],[-112.37055,38.47205],[-112.36977,38.46976],[-112.37191,38.46927],[-112.37916,38.4775],[-112.37258,38.47821],[-112.3723,38.47723],[-112.3712,38.47624],[-112.37037,38.47723],[-112.36998,38.48024],[-112.36817,38.47724]]]]}},{"type":"Feature","properties":{"boundary_id":"922","BoundaryID":"922","Boundary_Name":"Kimberly","boundary_name":"Kimberly","source":"arcgis_lite_individual"},"geometry":{"type":"MultiPolygon","coordinates":[[[[-112.36285,38.51426],[-112.36283,38.51417],[-112.36276,38.50993],[-112.37892,38.49986],[-112.37989,38.49981],[-112.37952,38.491],[-112.38154,38.49107],[-112.38315,38.47908],[-112.38393,38.47913],[-112.3933,38.47262],[-112.39535,38.4702],[-112.39754,38.47327],[-112.4025,38.47331],[-112.40291,38.47207],[-112.40483,38.4682],[-112.40713,38.4684],[-112.41127,38.47455],[-112.41474,38.47402],[-112.41407,38.46984],[-112.41812,38.46986],[-112.41956,38.47837],[-112.42001,38.47537],[-112.42208,38.47539],[-112.42244,38.47364],[-112.41953,38.47193],[-112.41885,38.46934],[-112.42119,38.46965],[-112.42271,38.46772],[-112.42095,38.46228],[-112.41742,38.45936],[-112.42069,38.45758],[-112.42385,38.4597],[-112.42553,38.46067],[-112.43005,38.45558],[-112.43762,38.45917],[-112.43765,38.46469],[-112.43172,38.47016],[-112.43166,38.47039],[-112.43107,38.47098],[-112.42989,38.47038],[-112.42991,38.47066],[-112.42794,38.47077],[-112.42716,38.47494],[-112.42437,38.47436],[-112.42145,38.47948],[-112.42057,38.47929],[-112.41924,38.48219],[-112.42142,38.48401],[-112.42345,38.48487],[-112.42603,38.48886],[-112.42699,38.4921],[-112.42631,38.4943],[-112.42435,38.49211],[-112.42413,38.49688],[-112.42238,38.49965],[-112.42143,38.49968],[-112.42007,38.50113],[-112.41999,38.50113],[-112.42089,38.50377],[-112.4194,38.5042],[-112.41839,38.50139],[-112.41776,38.51046],[-112.41314,38.51407],[-112.39929,38.51413],[-112.39928,38.51263],[-112.39926,38.51004],[-112.39919,38.50357],[-112.39767,38.50356],[-112.39766,38.50335],[-112.39351,38.50322],[-112.38133,38.49996],[-112.38119,38.50003],[-112.3812,38.50088],[-112.38126,38.50699],[-112.38131,38.51049],[-112.38135,38.51409],[-112.36285,38.51426]]],[[[-112.38819,38.46595],[-112.38455,38.46569],[-112.38506,38.46416],[-112.38026,38.46591],[-112.37991,38.45767],[-112.38448,38.45624],[-112.38531,38.45571],[-112.38769,38.45612],[-112.38959,38.45977],[-112.38851,38.46015],[-112.38863,38.46057],[-112.38936,38.46141],[-112.38881,38.46594],[-112.38819,38.46595]]],[[[-112.36817,38.47724],[-112.36665,38.47724],[-112.36424,38.47364],[-112.36537,38.47327],[-112.37055,38.47205],[-112.36977,38.46976],[-112.37191,38.46927],[-112.37916,38.4775],[-112.37258,38.47821],[-112.3723,38.47723],[-112.3712,38.47624],[-112.37037,38.47723],[-112.36998,38.48024],[-112.36817,38.47724]]]]}}]}