{"type":"FeatureCollection","metadata":{"hunt_code":"EA1040","boundary_id":"723","member_boundary_ids":[],"source_boundary_ids":["723"],"source_hunt_code":"EA1040","merged_boundary_id":null,"boundary_geometry_type":"single_boundary_id","generated_from":"display-boundary-index-2026-existing-fallback-reconcile","boundary_source_authority":"Utah DWR","boundary_source_file":"data/hunt-master-canonical-2026-source-of-truth.json","fallback_source_file":"data/hunt_boundaries.geojson"},"features":[{"type":"Feature","properties":{"boundary_id":"723","BoundaryID":"723","Boundary_Name":"Monroe, Koosharem Valley","boundary_name":"Monroe, Koosharem Valley","source":"arcgis_lite_individual"},"geometry":{"type":"MultiPolygon","coordinates":[[[[-111.96825,38.38515],[-111.96989,38.38707],[-111.97165,38.38922],[-111.97376,38.39047],[-111.97518,38.3921],[-111.9776,38.39299],[-111.98086,38.3932],[-111.98385,38.3927],[-111.98715,38.39255],[-111.9899,38.39224],[-111.99277,38.3916],[-111.99478,38.39258],[-112.00013,38.4052],[-111.99116,38.41403],[-111.99059,38.41877],[-111.99024,38.41998],[-111.9901,38.42051],[-111.99002,38.42136],[-111.98824,38.42071],[-111.98544,38.42859],[-111.98293,38.43532],[-111.97839,38.43879],[-111.97619,38.44395],[-111.96769,38.44531],[-111.97091,38.44697],[-111.96909,38.44725],[-111.96731,38.44774],[-111.96571,38.44813],[-111.96468,38.44844],[-111.96613,38.44966],[-111.96737,38.45054],[-111.96809,38.45192],[-111.96934,38.45291],[-111.97039,38.45427],[-111.97095,38.45591],[-111.97051,38.45693],[-111.96933,38.4581],[-111.96852,38.45963],[-111.96758,38.46027],[-111.96626,38.46165],[-111.96455,38.46336],[-111.96239,38.46502],[-111.9599,38.4646],[-111.95861,38.46472],[-111.95956,38.46637],[-111.96017,38.46821],[-111.9605,38.47004],[-111.95806,38.47278],[-111.95381,38.47282],[-111.95164,38.4752],[-111.95034,38.47635],[-111.95069,38.48018],[-111.95388,38.48816],[-111.95649,38.49013],[-111.9585,38.4917],[-111.9578,38.49173],[-111.95712,38.4914],[-111.95666,38.49197],[-111.95604,38.49323],[-111.95544,38.49374],[-111.95491,38.49444],[-111.95394,38.49392],[-111.95295,38.49384],[-111.95241,38.49493],[-111.95131,38.49644],[-111.95074,38.49713],[-111.94929,38.49836],[-111.94835,38.49919],[-111.94813,38.49956],[-111.94793,38.50036],[-111.94729,38.50269],[-111.94649,38.50363],[-111.94586,38.50415],[-111.94476,38.50343],[-111.94471,38.50437],[-111.94517,38.50527],[-111.94572,38.50612],[-111.94575,38.50705],[-111.94576,38.50789],[-111.94538,38.50906],[-111.94544,38.51003],[-111.94516,38.51046],[-111.94482,38.51125],[-111.9444,38.51187],[-111.94412,38.51323],[-111.9437,38.51406],[-111.94363,38.51525],[-111.94367,38.51607],[-111.94284,38.51681],[-111.94358,38.51806],[-111.94403,38.51934],[-111.94504,38.51979],[-111.94676,38.52026],[-111.94837,38.52139],[-111.9503,38.52307],[-111.95059,38.52454],[-111.95091,38.52649],[-111.9511,38.52754],[-111.95068,38.52888],[-111.95173,38.52972],[-111.95298,38.53124],[-111.95304,38.5325],[-111.95249,38.53119],[-111.9502,38.53044],[-111.94854,38.53202],[-111.94739,38.53003],[-111.94509,38.52851],[-111.94257,38.52779],[-111.94025,38.52923],[-111.93932,38.52888],[-111.93788,38.52709],[-111.93695,38.52495],[-111.93423,38.52578],[-111.9321,38.52576],[-111.93057,38.52694],[-111.9295,38.52768],[-111.92706,38.52806],[-111.92468,38.52794],[-111.9236,38.52759],[-111.92165,38.52759],[-111.91895,38.52704],[-111.91807,38.52497],[-111.91673,38.52489],[-111.91598,38.52679],[-111.91379,38.52835],[-111.90896,38.52614],[-111.90664,38.53251],[-111.90722,38.53412],[-111.90814,38.53603],[-111.90793,38.53827],[-111.9073,38.53991],[-111.90597,38.54146],[-111.90564,38.54304],[-111.9044,38.54419],[-111.9033,38.5457],[-111.90263,38.54735],[-111.90217,38.54906],[-111.90045,38.55029],[-111.90112,38.55166],[-111.90242,38.553],[-111.90226,38.55508],[-111.90142,38.55726],[-111.89954,38.55894],[-111.89788,38.56118],[-111.89778,38.56347],[-111.89755,38.56602],[-111.89603,38.56735],[-111.89441,38.56883],[-111.89288,38.57092],[-111.89135,38.57311],[-111.88974,38.57483],[-111.88817,38.57653],[-111.88718,38.57731],[-111.88608,38.57796],[-111.88289,38.57672],[-111.87959,38.57641],[-111.87534,38.575],[-111.87213,38.57213],[-111.86832,38.57128],[-111.86516,38.56825],[-111.86799,38.56357],[-111.86732,38.55576],[-111.86648,38.55181],[-111.86955,38.54807],[-111.87079,38.54389],[-111.87245,38.5395],[-111.8778,38.53227],[-111.88117,38.52205],[-111.88135,38.51435],[-111.88132,38.50216],[-111.88158,38.49433],[-111.88893,38.48549],[-111.90383,38.47333],[-111.90871,38.46266],[-111.91224,38.45459],[-111.91527,38.44793],[-111.91769,38.44278],[-111.92218,38.43393],[-111.92263,38.43003],[-111.92266,38.42261],[-111.92515,38.4145],[-111.93008,38.39889],[-111.93369,38.3875],[-111.93895,38.37651],[-111.9412,38.37662],[-111.94415,38.37717],[-111.94649,38.3779],[-111.94848,38.37801],[-111.95105,38.378],[-111.95333,38.37867],[-111.95548,38.37872],[-111.95751,38.37898],[-111.95908,38.37983],[-111.96168,38.38121],[-111.96389,38.3831],[-111.9666,38.38363],[-111.96825,38.38515]]]]}},{"type":"Feature","properties":{"boundary_id":"723","BoundaryID":"723","Boundary_Name":"Monroe, Koosharem Valley","boundary_name":"Monroe, Koosharem Valley","source":"arcgis_lite_individual"},"geometry":{"type":"MultiPolygon","coordinates":[[[[-111.96825,38.38515],[-111.96989,38.38707],[-111.97165,38.38922],[-111.97376,38.39047],[-111.97518,38.3921],[-111.9776,38.39299],[-111.98086,38.3932],[-111.98385,38.3927],[-111.98715,38.39255],[-111.9899,38.39224],[-111.99277,38.3916],[-111.99478,38.39258],[-112.00013,38.4052],[-111.99116,38.41403],[-111.99059,38.41877],[-111.99024,38.41998],[-111.9901,38.42051],[-111.99002,38.42136],[-111.98824,38.42071],[-111.98544,38.42859],[-111.98293,38.43532],[-111.97839,38.43879],[-111.97619,38.44395],[-111.96769,38.44531],[-111.97091,38.44697],[-111.96909,38.44725],[-111.96731,38.44774],[-111.96571,38.44813],[-111.96468,38.44844],[-111.96613,38.44966],[-111.96737,38.45054],[-111.96809,38.45192],[-111.96934,38.45291],[-111.97039,38.45427],[-111.97095,38.45591],[-111.97051,38.45693],[-111.96933,38.4581],[-111.96852,38.45963],[-111.96758,38.46027],[-111.96626,38.46165],[-111.96455,38.46336],[-111.96239,38.46502],[-111.9599,38.4646],[-111.95861,38.46472],[-111.95956,38.46637],[-111.96017,38.46821],[-111.9605,38.47004],[-111.95806,38.47278],[-111.95381,38.47282],[-111.95164,38.4752],[-111.95034,38.47635],[-111.95069,38.48018],[-111.95388,38.48816],[-111.95649,38.49013],[-111.9585,38.4917],[-111.9578,38.49173],[-111.95712,38.4914],[-111.95666,38.49197],[-111.95604,38.49323],[-111.95544,38.49374],[-111.95491,38.49444],[-111.95394,38.49392],[-111.95295,38.49384],[-111.95241,38.49493],[-111.95131,38.49644],[-111.95074,38.49713],[-111.94929,38.49836],[-111.94835,38.49919],[-111.94813,38.49956],[-111.94793,38.50036],[-111.94729,38.50269],[-111.94649,38.50363],[-111.94586,38.50415],[-111.94476,38.50343],[-111.94471,38.50437],[-111.94517,38.50527],[-111.94572,38.50612],[-111.94575,38.50705],[-111.94576,38.50789],[-111.94538,38.50906],[-111.94544,38.51003],[-111.94516,38.51046],[-111.94482,38.51125],[-111.9444,38.51187],[-111.94412,38.51323],[-111.9437,38.51406],[-111.94363,38.51525],[-111.94367,38.51607],[-111.94284,38.51681],[-111.94358,38.51806],[-111.94403,38.51934],[-111.94504,38.51979],[-111.94676,38.52026],[-111.94837,38.52139],[-111.9503,38.52307],[-111.95059,38.52454],[-111.95091,38.52649],[-111.9511,38.52754],[-111.95068,38.52888],[-111.95173,38.52972],[-111.95298,38.53124],[-111.95304,38.5325],[-111.95249,38.53119],[-111.9502,38.53044],[-111.94854,38.53202],[-111.94739,38.53003],[-111.94509,38.52851],[-111.94257,38.52779],[-111.94025,38.52923],[-111.93932,38.52888],[-111.93788,38.52709],[-111.93695,38.52495],[-111.93423,38.52578],[-111.9321,38.52576],[-111.93057,38.52694],[-111.9295,38.52768],[-111.92706,38.52806],[-111.92468,38.52794],[-111.9236,38.52759],[-111.92165,38.52759],[-111.91895,38.52704],[-111.91807,38.52497],[-111.91673,38.52489],[-111.91598,38.52679],[-111.91379,38.52835],[-111.90896,38.52614],[-111.90664,38.53251],[-111.90722,38.53412],[-111.90814,38.53603],[-111.90793,38.53827],[-111.9073,38.53991],[-111.90597,38.54146],[-111.90564,38.54304],[-111.9044,38.54419],[-111.9033,38.5457],[-111.90263,38.54735],[-111.90217,38.54906],[-111.90045,38.55029],[-111.90112,38.55166],[-111.90242,38.553],[-111.90226,38.55508],[-111.90142,38.55726],[-111.89954,38.55894],[-111.89788,38.56118],[-111.89778,38.56347],[-111.89755,38.56602],[-111.89603,38.56735],[-111.89441,38.56883],[-111.89288,38.57092],[-111.89135,38.57311],[-111.88974,38.57483],[-111.88817,38.57653],[-111.88718,38.57731],[-111.88608,38.57796],[-111.88289,38.57672],[-111.87959,38.57641],[-111.87534,38.575],[-111.87213,38.57213],[-111.86832,38.57128],[-111.86516,38.56825],[-111.86799,38.56357],[-111.86732,38.55576],[-111.86648,38.55181],[-111.86955,38.54807],[-111.87079,38.54389],[-111.87245,38.5395],[-111.8778,38.53227],[-111.88117,38.52205],[-111.88135,38.51435],[-111.88132,38.50216],[-111.88158,38.49433],[-111.88893,38.48549],[-111.90383,38.47333],[-111.90871,38.46266],[-111.91224,38.45459],[-111.91527,38.44793],[-111.91769,38.44278],[-111.92218,38.43393],[-111.92263,38.43003],[-111.92266,38.42261],[-111.92515,38.4145],[-111.93008,38.39889],[-111.93369,38.3875],[-111.93895,38.37651],[-111.9412,38.37662],[-111.94415,38.37717],[-111.94649,38.3779],[-111.94848,38.37801],[-111.95105,38.378],[-111.95333,38.37867],[-111.95548,38.37872],[-111.95751,38.37898],[-111.95908,38.37983],[-111.96168,38.38121],[-111.96389,38.3831],[-111.9666,38.38363],[-111.96825,38.38515]]]]}},{"type":"Feature","properties":{"boundary_id":"723","BoundaryID":"723","Boundary_Name":"Monroe, Koosharem Valley","boundary_name":"Monroe, Koosharem Valley","source":"arcgis_lite_individual"},"geometry":{"type":"MultiPolygon","coordinates":[[[[-111.96825,38.38515],[-111.96989,38.38707],[-111.97165,38.38922],[-111.97376,38.39047],[-111.97518,38.3921],[-111.9776,38.39299],[-111.98086,38.3932],[-111.98385,38.3927],[-111.98715,38.39255],[-111.9899,38.39224],[-111.99277,38.3916],[-111.99478,38.39258],[-112.00013,38.4052],[-111.99116,38.41403],[-111.99059,38.41877],[-111.99024,38.41998],[-111.9901,38.42051],[-111.99002,38.42136],[-111.98824,38.42071],[-111.98544,38.42859],[-111.98293,38.43532],[-111.97839,38.43879],[-111.97619,38.44395],[-111.96769,38.44531],[-111.97091,38.44697],[-111.96909,38.44725],[-111.96731,38.44774],[-111.96571,38.44813],[-111.96468,38.44844],[-111.96613,38.44966],[-111.96737,38.45054],[-111.96809,38.45192],[-111.96934,38.45291],[-111.97039,38.45427],[-111.97095,38.45591],[-111.97051,38.45693],[-111.96933,38.4581],[-111.96852,38.45963],[-111.96758,38.46027],[-111.96626,38.46165],[-111.96455,38.46336],[-111.96239,38.46502],[-111.9599,38.4646],[-111.95861,38.46472],[-111.95956,38.46637],[-111.96017,38.46821],[-111.9605,38.47004],[-111.95806,38.47278],[-111.95381,38.47282],[-111.95164,38.4752],[-111.95034,38.47635],[-111.95069,38.48018],[-111.95388,38.48816],[-111.95649,38.49013],[-111.9585,38.4917],[-111.9578,38.49173],[-111.95712,38.4914],[-111.95666,38.49197],[-111.95604,38.49323],[-111.95544,38.49374],[-111.95491,38.49444],[-111.95394,38.49392],[-111.95295,38.49384],[-111.95241,38.49493],[-111.95131,38.49644],[-111.95074,38.49713],[-111.94929,38.49836],[-111.94835,38.49919],[-111.94813,38.49956],[-111.94793,38.50036],[-111.94729,38.50269],[-111.94649,38.50363],[-111.94586,38.50415],[-111.94476,38.50343],[-111.94471,38.50437],[-111.94517,38.50527],[-111.94572,38.50612],[-111.94575,38.50705],[-111.94576,38.50789],[-111.94538,38.50906],[-111.94544,38.51003],[-111.94516,38.51046],[-111.94482,38.51125],[-111.9444,38.51187],[-111.94412,38.51323],[-111.9437,38.51406],[-111.94363,38.51525],[-111.94367,38.51607],[-111.94284,38.51681],[-111.94358,38.51806],[-111.94403,38.51934],[-111.94504,38.51979],[-111.94676,38.52026],[-111.94837,38.52139],[-111.9503,38.52307],[-111.95059,38.52454],[-111.95091,38.52649],[-111.9511,38.52754],[-111.95068,38.52888],[-111.95173,38.52972],[-111.95298,38.53124],[-111.95304,38.5325],[-111.95249,38.53119],[-111.9502,38.53044],[-111.94854,38.53202],[-111.94739,38.53003],[-111.94509,38.52851],[-111.94257,38.52779],[-111.94025,38.52923],[-111.93932,38.52888],[-111.93788,38.52709],[-111.93695,38.52495],[-111.93423,38.52578],[-111.9321,38.52576],[-111.93057,38.52694],[-111.9295,38.52768],[-111.92706,38.52806],[-111.92468,38.52794],[-111.9236,38.52759],[-111.92165,38.52759],[-111.91895,38.52704],[-111.91807,38.52497],[-111.91673,38.52489],[-111.91598,38.52679],[-111.91379,38.52835],[-111.90896,38.52614],[-111.90664,38.53251],[-111.90722,38.53412],[-111.90814,38.53603],[-111.90793,38.53827],[-111.9073,38.53991],[-111.90597,38.54146],[-111.90564,38.54304],[-111.9044,38.54419],[-111.9033,38.5457],[-111.90263,38.54735],[-111.90217,38.54906],[-111.90045,38.55029],[-111.90112,38.55166],[-111.90242,38.553],[-111.90226,38.55508],[-111.90142,38.55726],[-111.89954,38.55894],[-111.89788,38.56118],[-111.89778,38.56347],[-111.89755,38.56602],[-111.89603,38.56735],[-111.89441,38.56883],[-111.89288,38.57092],[-111.89135,38.57311],[-111.88974,38.57483],[-111.88817,38.57653],[-111.88718,38.57731],[-111.88608,38.57796],[-111.88289,38.57672],[-111.87959,38.57641],[-111.87534,38.575],[-111.87213,38.57213],[-111.86832,38.57128],[-111.86516,38.56825],[-111.86799,38.56357],[-111.86732,38.55576],[-111.86648,38.55181],[-111.86955,38.54807],[-111.87079,38.54389],[-111.87245,38.5395],[-111.8778,38.53227],[-111.88117,38.52205],[-111.88135,38.51435],[-111.88132,38.50216],[-111.88158,38.49433],[-111.88893,38.48549],[-111.90383,38.47333],[-111.90871,38.46266],[-111.91224,38.45459],[-111.91527,38.44793],[-111.91769,38.44278],[-111.92218,38.43393],[-111.92263,38.43003],[-111.92266,38.42261],[-111.92515,38.4145],[-111.93008,38.39889],[-111.93369,38.3875],[-111.93895,38.37651],[-111.9412,38.37662],[-111.94415,38.37717],[-111.94649,38.3779],[-111.94848,38.37801],[-111.95105,38.378],[-111.95333,38.37867],[-111.95548,38.37872],[-111.95751,38.37898],[-111.95908,38.37983],[-111.96168,38.38121],[-111.96389,38.3831],[-111.9666,38.38363],[-111.96825,38.38515]]]]}},{"type":"Feature","properties":{"boundary_id":"723","BoundaryID":"723","Boundary_Name":"Monroe, Koosharem Valley","boundary_name":"Monroe, Koosharem Valley","source":"arcgis_lite_individual"},"geometry":{"type":"MultiPolygon","coordinates":[[[[-111.96825,38.38515],[-111.96989,38.38707],[-111.97165,38.38922],[-111.97376,38.39047],[-111.97518,38.3921],[-111.9776,38.39299],[-111.98086,38.3932],[-111.98385,38.3927],[-111.98715,38.39255],[-111.9899,38.39224],[-111.99277,38.3916],[-111.99478,38.39258],[-112.00013,38.4052],[-111.99116,38.41403],[-111.99059,38.41877],[-111.99024,38.41998],[-111.9901,38.42051],[-111.99002,38.42136],[-111.98824,38.42071],[-111.98544,38.42859],[-111.98293,38.43532],[-111.97839,38.43879],[-111.97619,38.44395],[-111.96769,38.44531],[-111.97091,38.44697],[-111.96909,38.44725],[-111.96731,38.44774],[-111.96571,38.44813],[-111.96468,38.44844],[-111.96613,38.44966],[-111.96737,38.45054],[-111.96809,38.45192],[-111.96934,38.45291],[-111.97039,38.45427],[-111.97095,38.45591],[-111.97051,38.45693],[-111.96933,38.4581],[-111.96852,38.45963],[-111.96758,38.46027],[-111.96626,38.46165],[-111.96455,38.46336],[-111.96239,38.46502],[-111.9599,38.4646],[-111.95861,38.46472],[-111.95956,38.46637],[-111.96017,38.46821],[-111.9605,38.47004],[-111.95806,38.47278],[-111.95381,38.47282],[-111.95164,38.4752],[-111.95034,38.47635],[-111.95069,38.48018],[-111.95388,38.48816],[-111.95649,38.49013],[-111.9585,38.4917],[-111.9578,38.49173],[-111.95712,38.4914],[-111.95666,38.49197],[-111.95604,38.49323],[-111.95544,38.49374],[-111.95491,38.49444],[-111.95394,38.49392],[-111.95295,38.49384],[-111.95241,38.49493],[-111.95131,38.49644],[-111.95074,38.49713],[-111.94929,38.49836],[-111.94835,38.49919],[-111.94813,38.49956],[-111.94793,38.50036],[-111.94729,38.50269],[-111.94649,38.50363],[-111.94586,38.50415],[-111.94476,38.50343],[-111.94471,38.50437],[-111.94517,38.50527],[-111.94572,38.50612],[-111.94575,38.50705],[-111.94576,38.50789],[-111.94538,38.50906],[-111.94544,38.51003],[-111.94516,38.51046],[-111.94482,38.51125],[-111.9444,38.51187],[-111.94412,38.51323],[-111.9437,38.51406],[-111.94363,38.51525],[-111.94367,38.51607],[-111.94284,38.51681],[-111.94358,38.51806],[-111.94403,38.51934],[-111.94504,38.51979],[-111.94676,38.52026],[-111.94837,38.52139],[-111.9503,38.52307],[-111.95059,38.52454],[-111.95091,38.52649],[-111.9511,38.52754],[-111.95068,38.52888],[-111.95173,38.52972],[-111.95298,38.53124],[-111.95304,38.5325],[-111.95249,38.53119],[-111.9502,38.53044],[-111.94854,38.53202],[-111.94739,38.53003],[-111.94509,38.52851],[-111.94257,38.52779],[-111.94025,38.52923],[-111.93932,38.52888],[-111.93788,38.52709],[-111.93695,38.52495],[-111.93423,38.52578],[-111.9321,38.52576],[-111.93057,38.52694],[-111.9295,38.52768],[-111.92706,38.52806],[-111.92468,38.52794],[-111.9236,38.52759],[-111.92165,38.52759],[-111.91895,38.52704],[-111.91807,38.52497],[-111.91673,38.52489],[-111.91598,38.52679],[-111.91379,38.52835],[-111.90896,38.52614],[-111.90664,38.53251],[-111.90722,38.53412],[-111.90814,38.53603],[-111.90793,38.53827],[-111.9073,38.53991],[-111.90597,38.54146],[-111.90564,38.54304],[-111.9044,38.54419],[-111.9033,38.5457],[-111.90263,38.54735],[-111.90217,38.54906],[-111.90045,38.55029],[-111.90112,38.55166],[-111.90242,38.553],[-111.90226,38.55508],[-111.90142,38.55726],[-111.89954,38.55894],[-111.89788,38.56118],[-111.89778,38.56347],[-111.89755,38.56602],[-111.89603,38.56735],[-111.89441,38.56883],[-111.89288,38.57092],[-111.89135,38.57311],[-111.88974,38.57483],[-111.88817,38.57653],[-111.88718,38.57731],[-111.88608,38.57796],[-111.88289,38.57672],[-111.87959,38.57641],[-111.87534,38.575],[-111.87213,38.57213],[-111.86832,38.57128],[-111.86516,38.56825],[-111.86799,38.56357],[-111.86732,38.55576],[-111.86648,38.55181],[-111.86955,38.54807],[-111.87079,38.54389],[-111.87245,38.5395],[-111.8778,38.53227],[-111.88117,38.52205],[-111.88135,38.51435],[-111.88132,38.50216],[-111.88158,38.49433],[-111.88893,38.48549],[-111.90383,38.47333],[-111.90871,38.46266],[-111.91224,38.45459],[-111.91527,38.44793],[-111.91769,38.44278],[-111.92218,38.43393],[-111.92263,38.43003],[-111.92266,38.42261],[-111.92515,38.4145],[-111.93008,38.39889],[-111.93369,38.3875],[-111.93895,38.37651],[-111.9412,38.37662],[-111.94415,38.37717],[-111.94649,38.3779],[-111.94848,38.37801],[-111.95105,38.378],[-111.95333,38.37867],[-111.95548,38.37872],[-111.95751,38.37898],[-111.95908,38.37983],[-111.96168,38.38121],[-111.96389,38.3831],[-111.9666,38.38363],[-111.96825,38.38515]]]]}}]}