{"type":"FeatureCollection","metadata":{"hunt_code":"EA1294","boundary_id":"951","member_boundary_ids":[],"source_boundary_ids":["951"],"source_hunt_code":"EA1294","merged_boundary_id":null,"boundary_geometry_type":"single_boundary_id_exact_name_match","generated_from":"display-boundary-index-2026-existing-fallback-reconcile","boundary_source_authority":"Utah DWR","boundary_source_file":"data/hunt_boundaries.geojson","fallback_source_file":"data/hunt_boundaries.geojson"},"features":[{"type":"Feature","properties":{"boundary_id":"951","BoundaryID":"951","Boundary_Name":"Paunsaugunt, East Creek","boundary_name":"Paunsaugunt, East Creek","source":"arcgis_lite_individual"},"geometry":{"type":"MultiPolygon","coordinates":[[[[-112.20094,37.7043],[-112.19612,37.70105],[-112.19407,37.7001],[-112.19129,37.69919],[-112.18899,37.6987],[-112.18494,37.69805],[-112.17438,37.69633],[-112.16657,37.69509],[-112.15576,37.69335],[-112.15311,37.69278],[-112.15243,37.69274],[-112.15219,37.69261],[-112.1522,37.69238],[-112.15245,37.69217],[-112.15225,37.69129],[-112.15216,37.69074],[-112.15236,37.68955],[-112.16568,37.6518],[-112.18374,37.64456],[-112.18328,37.61659],[-112.21048,37.6128],[-112.21945,37.59483],[-112.23321,37.58759],[-112.23775,37.57559],[-112.23868,37.57567],[-112.23903,37.57606],[-112.24276,37.57754],[-112.2461,37.5795],[-112.24863,37.58001],[-112.25178,37.57968],[-112.2534,37.58002],[-112.25524,37.58298],[-112.25585,37.58536],[-112.25598,37.58803],[-112.25571,37.5893],[-112.25211,37.5948],[-112.25118,37.60045],[-112.25089,37.60703],[-112.24913,37.60953],[-112.24849,37.61073],[-112.24712,37.61239],[-112.24548,37.61664],[-112.24488,37.61907],[-112.24441,37.61987],[-112.23695,37.62983],[-112.2297,37.64101],[-112.22564,37.64444],[-112.22429,37.64999],[-112.22229,37.65572],[-112.21972,37.66223],[-112.21855,37.66527],[-112.21506,37.66998],[-112.20852,37.67668],[-112.20677,37.67855],[-112.20515,37.68379],[-112.20255,37.69141],[-112.20241,37.69593],[-112.20242,37.70212],[-112.20202,37.70459],[-112.20094,37.7043]]]]}},{"type":"Feature","properties":{"boundary_id":"951","BoundaryID":"951","Boundary_Name":"Paunsaugunt, East Creek","boundary_name":"Paunsaugunt, East Creek","source":"arcgis_lite_individual"},"geometry":{"type":"MultiPolygon","coordinates":[[[[-112.20094,37.7043],[-112.19612,37.70105],[-112.19407,37.7001],[-112.19129,37.69919],[-112.18899,37.6987],[-112.18494,37.69805],[-112.17438,37.69633],[-112.16657,37.69509],[-112.15576,37.69335],[-112.15311,37.69278],[-112.15243,37.69274],[-112.15219,37.69261],[-112.1522,37.69238],[-112.15245,37.69217],[-112.15225,37.69129],[-112.15216,37.69074],[-112.15236,37.68955],[-112.16568,37.6518],[-112.18374,37.64456],[-112.18328,37.61659],[-112.21048,37.6128],[-112.21945,37.59483],[-112.23321,37.58759],[-112.23775,37.57559],[-112.23868,37.57567],[-112.23903,37.57606],[-112.24276,37.57754],[-112.2461,37.5795],[-112.24863,37.58001],[-112.25178,37.57968],[-112.2534,37.58002],[-112.25524,37.58298],[-112.25585,37.58536],[-112.25598,37.58803],[-112.25571,37.5893],[-112.25211,37.5948],[-112.25118,37.60045],[-112.25089,37.60703],[-112.24913,37.60953],[-112.24849,37.61073],[-112.24712,37.61239],[-112.24548,37.61664],[-112.24488,37.61907],[-112.24441,37.61987],[-112.23695,37.62983],[-112.2297,37.64101],[-112.22564,37.64444],[-112.22429,37.64999],[-112.22229,37.65572],[-112.21972,37.66223],[-112.21855,37.66527],[-112.21506,37.66998],[-112.20852,37.67668],[-112.20677,37.67855],[-112.20515,37.68379],[-112.20255,37.69141],[-112.20241,37.69593],[-112.20242,37.70212],[-112.20202,37.70459],[-112.20094,37.7043]]]]}},{"type":"Feature","properties":{"boundary_id":"951","BoundaryID":"951","Boundary_Name":"Paunsaugunt, East Creek","boundary_name":"Paunsaugunt, East Creek","source":"arcgis_lite_individual"},"geometry":{"type":"MultiPolygon","coordinates":[[[[-112.20094,37.7043],[-112.19612,37.70105],[-112.19407,37.7001],[-112.19129,37.69919],[-112.18899,37.6987],[-112.18494,37.69805],[-112.17438,37.69633],[-112.16657,37.69509],[-112.15576,37.69335],[-112.15311,37.69278],[-112.15243,37.69274],[-112.15219,37.69261],[-112.1522,37.69238],[-112.15245,37.69217],[-112.15225,37.69129],[-112.15216,37.69074],[-112.15236,37.68955],[-112.16568,37.6518],[-112.18374,37.64456],[-112.18328,37.61659],[-112.21048,37.6128],[-112.21945,37.59483],[-112.23321,37.58759],[-112.23775,37.57559],[-112.23868,37.57567],[-112.23903,37.57606],[-112.24276,37.57754],[-112.2461,37.5795],[-112.24863,37.58001],[-112.25178,37.57968],[-112.2534,37.58002],[-112.25524,37.58298],[-112.25585,37.58536],[-112.25598,37.58803],[-112.25571,37.5893],[-112.25211,37.5948],[-112.25118,37.60045],[-112.25089,37.60703],[-112.24913,37.60953],[-112.24849,37.61073],[-112.24712,37.61239],[-112.24548,37.61664],[-112.24488,37.61907],[-112.24441,37.61987],[-112.23695,37.62983],[-112.2297,37.64101],[-112.22564,37.64444],[-112.22429,37.64999],[-112.22229,37.65572],[-112.21972,37.66223],[-112.21855,37.66527],[-112.21506,37.66998],[-112.20852,37.67668],[-112.20677,37.67855],[-112.20515,37.68379],[-112.20255,37.69141],[-112.20241,37.69593],[-112.20242,37.70212],[-112.20202,37.70459],[-112.20094,37.7043]]]]}},{"type":"Feature","properties":{"boundary_id":"951","BoundaryID":"951","Boundary_Name":"Paunsaugunt, East Creek","boundary_name":"Paunsaugunt, East Creek","source":"arcgis_lite_individual"},"geometry":{"type":"MultiPolygon","coordinates":[[[[-112.20094,37.7043],[-112.19612,37.70105],[-112.19407,37.7001],[-112.19129,37.69919],[-112.18899,37.6987],[-112.18494,37.69805],[-112.17438,37.69633],[-112.16657,37.69509],[-112.15576,37.69335],[-112.15311,37.69278],[-112.15243,37.69274],[-112.15219,37.69261],[-112.1522,37.69238],[-112.15245,37.69217],[-112.15225,37.69129],[-112.15216,37.69074],[-112.15236,37.68955],[-112.16568,37.6518],[-112.18374,37.64456],[-112.18328,37.61659],[-112.21048,37.6128],[-112.21945,37.59483],[-112.23321,37.58759],[-112.23775,37.57559],[-112.23868,37.57567],[-112.23903,37.57606],[-112.24276,37.57754],[-112.2461,37.5795],[-112.24863,37.58001],[-112.25178,37.57968],[-112.2534,37.58002],[-112.25524,37.58298],[-112.25585,37.58536],[-112.25598,37.58803],[-112.25571,37.5893],[-112.25211,37.5948],[-112.25118,37.60045],[-112.25089,37.60703],[-112.24913,37.60953],[-112.24849,37.61073],[-112.24712,37.61239],[-112.24548,37.61664],[-112.24488,37.61907],[-112.24441,37.61987],[-112.23695,37.62983],[-112.2297,37.64101],[-112.22564,37.64444],[-112.22429,37.64999],[-112.22229,37.65572],[-112.21972,37.66223],[-112.21855,37.66527],[-112.21506,37.66998],[-112.20852,37.67668],[-112.20677,37.67855],[-112.20515,37.68379],[-112.20255,37.69141],[-112.20241,37.69593],[-112.20242,37.70212],[-112.20202,37.70459],[-112.20094,37.7043]]]]}}]}