{"type":"FeatureCollection","metadata":{"hunt_code":"EA1290","boundary_id":"952","member_boundary_ids":[],"source_boundary_ids":["952"],"source_hunt_code":"EA1290","merged_boundary_id":null,"boundary_geometry_type":"single_boundary_id_exact_name_match","generated_from":"display-boundary-index-2026-existing-fallback-reconcile","boundary_source_authority":"Utah DWR","boundary_source_file":"data/hunt_boundaries.geojson","fallback_source_file":"data/hunt_boundaries.geojson"},"features":[{"type":"Feature","properties":{"boundary_id":"952","BoundaryID":"952","Boundary_Name":"Manti, Ferron Lower Escarpment","boundary_name":"Manti, Ferron Lower Escarpment","source":"arcgis_lite_individual"},"geometry":{"type":"MultiPolygon","coordinates":[[[[-111.15824,39.00297],[-111.16095,39.00391],[-111.16367,39.00368],[-111.16618,39.00409],[-111.16893,39.00508],[-111.17036,39.00526],[-111.17323,39.00496],[-111.17508,39.00522],[-111.17729,39.00569],[-111.17832,39.00622],[-111.18032,39.00705],[-111.1816,39.00704],[-111.18315,39.00714],[-111.18407,39.00729],[-111.18542,39.00728],[-111.1861,39.00735],[-111.18642,39.00742],[-111.18666,39.0075],[-111.18691,39.00749],[-111.18723,39.00765],[-111.18751,39.00772],[-111.18778,39.0077],[-111.18802,39.00773],[-111.19319,39.00862],[-111.19343,39.00864],[-111.19366,39.00866],[-111.19391,39.00865],[-111.19409,39.00876],[-111.19432,39.00891],[-111.19449,39.00903],[-111.19472,39.00919],[-111.19507,39.00926],[-111.19533,39.00925],[-111.1956,39.00933],[-111.19586,39.00936],[-111.19619,39.0095],[-111.19643,39.00958],[-111.19668,39.00988],[-111.19679,39.01001],[-111.19695,39.01011],[-111.19711,39.01027],[-111.19721,39.01045],[-111.19736,39.0106],[-111.19762,39.01075],[-111.19794,39.01085],[-111.19819,39.01093],[-111.19848,39.01097],[-111.19874,39.01093],[-111.19893,39.01083],[-111.19914,39.01072],[-111.19935,39.0106],[-111.19947,39.01046],[-111.19969,39.01039],[-111.19991,39.01035],[-111.20014,39.01033],[-111.20035,39.01031],[-111.2005,39.01022],[-111.20095,39.01021],[-111.20121,39.01034],[-111.2014,39.01037],[-111.20154,39.01049],[-111.20168,39.01065],[-111.20181,39.01078],[-111.20193,39.01092],[-111.20205,39.01108],[-111.20221,39.01135],[-111.20224,39.01157],[-111.20235,39.01173],[-111.20246,39.01192],[-111.20259,39.0121],[-111.20277,39.01227],[-111.20294,39.01248],[-111.20315,39.0127],[-111.20333,39.01285],[-111.20353,39.01301],[-111.20368,39.01323],[-111.20379,39.01344],[-111.20396,39.01365],[-111.20421,39.01389],[-111.20618,39.01474],[-111.20989,39.01663],[-111.21004,39.02045],[-111.20966,39.02606],[-111.21139,39.03121],[-111.21218,39.03726],[-111.2146,39.03996],[-111.21729,39.0448],[-111.21856,39.0482],[-111.22038,39.05088],[-111.22176,39.05313],[-111.22325,39.05732],[-111.22605,39.05984],[-111.22885,39.06443],[-111.23017,39.06821],[-111.23353,39.07096],[-111.23499,39.07237],[-111.23551,39.07357],[-111.23517,39.07573],[-111.23453,39.07743],[-111.23351,39.0785],[-111.23247,39.0798],[-111.23142,39.08093],[-111.23016,39.08194],[-111.22832,39.0848],[-111.22877,39.08602],[-111.22958,39.08804],[-111.22964,39.09068],[-111.23152,39.09458],[-111.23421,39.09791],[-111.2358,39.10084],[-111.23788,39.10664],[-111.23708,39.10893],[-111.23306,39.10764],[-111.23216,39.10553],[-111.22993,39.10419],[-111.22683,39.1044],[-111.22432,39.10234],[-111.22226,39.10178],[-111.21818,39.10348],[-111.21604,39.10267],[-111.21123,39.09992],[-111.20718,39.09994],[-111.20514,39.09721],[-111.20054,39.0948],[-111.19983,39.09214],[-111.19422,39.09056],[-111.19119,39.08839],[-111.18759,39.08991],[-111.18394,39.0907],[-111.18257,39.09314],[-111.18264,39.09529],[-111.18134,39.09628],[-111.17671,39.09404],[-111.17107,39.09291],[-111.13204,39.08832],[-111.13005,39.06125],[-111.12274,39.05049],[-111.12699,39.03841],[-111.13578,39.02378],[-111.15824,39.00297]]]]}},{"type":"Feature","properties":{"boundary_id":"952","BoundaryID":"952","Boundary_Name":"Manti, Ferron Lower Escarpment","boundary_name":"Manti, Ferron Lower Escarpment","source":"arcgis_lite_individual"},"geometry":{"type":"MultiPolygon","coordinates":[[[[-111.15824,39.00297],[-111.16095,39.00391],[-111.16367,39.00368],[-111.16618,39.00409],[-111.16893,39.00508],[-111.17036,39.00526],[-111.17323,39.00496],[-111.17508,39.00522],[-111.17729,39.00569],[-111.17832,39.00622],[-111.18032,39.00705],[-111.1816,39.00704],[-111.18315,39.00714],[-111.18407,39.00729],[-111.18542,39.00728],[-111.1861,39.00735],[-111.18642,39.00742],[-111.18666,39.0075],[-111.18691,39.00749],[-111.18723,39.00765],[-111.18751,39.00772],[-111.18778,39.0077],[-111.18802,39.00773],[-111.19319,39.00862],[-111.19343,39.00864],[-111.19366,39.00866],[-111.19391,39.00865],[-111.19409,39.00876],[-111.19432,39.00891],[-111.19449,39.00903],[-111.19472,39.00919],[-111.19507,39.00926],[-111.19533,39.00925],[-111.1956,39.00933],[-111.19586,39.00936],[-111.19619,39.0095],[-111.19643,39.00958],[-111.19668,39.00988],[-111.19679,39.01001],[-111.19695,39.01011],[-111.19711,39.01027],[-111.19721,39.01045],[-111.19736,39.0106],[-111.19762,39.01075],[-111.19794,39.01085],[-111.19819,39.01093],[-111.19848,39.01097],[-111.19874,39.01093],[-111.19893,39.01083],[-111.19914,39.01072],[-111.19935,39.0106],[-111.19947,39.01046],[-111.19969,39.01039],[-111.19991,39.01035],[-111.20014,39.01033],[-111.20035,39.01031],[-111.2005,39.01022],[-111.20095,39.01021],[-111.20121,39.01034],[-111.2014,39.01037],[-111.20154,39.01049],[-111.20168,39.01065],[-111.20181,39.01078],[-111.20193,39.01092],[-111.20205,39.01108],[-111.20221,39.01135],[-111.20224,39.01157],[-111.20235,39.01173],[-111.20246,39.01192],[-111.20259,39.0121],[-111.20277,39.01227],[-111.20294,39.01248],[-111.20315,39.0127],[-111.20333,39.01285],[-111.20353,39.01301],[-111.20368,39.01323],[-111.20379,39.01344],[-111.20396,39.01365],[-111.20421,39.01389],[-111.20618,39.01474],[-111.20989,39.01663],[-111.21004,39.02045],[-111.20966,39.02606],[-111.21139,39.03121],[-111.21218,39.03726],[-111.2146,39.03996],[-111.21729,39.0448],[-111.21856,39.0482],[-111.22038,39.05088],[-111.22176,39.05313],[-111.22325,39.05732],[-111.22605,39.05984],[-111.22885,39.06443],[-111.23017,39.06821],[-111.23353,39.07096],[-111.23499,39.07237],[-111.23551,39.07357],[-111.23517,39.07573],[-111.23453,39.07743],[-111.23351,39.0785],[-111.23247,39.0798],[-111.23142,39.08093],[-111.23016,39.08194],[-111.22832,39.0848],[-111.22877,39.08602],[-111.22958,39.08804],[-111.22964,39.09068],[-111.23152,39.09458],[-111.23421,39.09791],[-111.2358,39.10084],[-111.23788,39.10664],[-111.23708,39.10893],[-111.23306,39.10764],[-111.23216,39.10553],[-111.22993,39.10419],[-111.22683,39.1044],[-111.22432,39.10234],[-111.22226,39.10178],[-111.21818,39.10348],[-111.21604,39.10267],[-111.21123,39.09992],[-111.20718,39.09994],[-111.20514,39.09721],[-111.20054,39.0948],[-111.19983,39.09214],[-111.19422,39.09056],[-111.19119,39.08839],[-111.18759,39.08991],[-111.18394,39.0907],[-111.18257,39.09314],[-111.18264,39.09529],[-111.18134,39.09628],[-111.17671,39.09404],[-111.17107,39.09291],[-111.13204,39.08832],[-111.13005,39.06125],[-111.12274,39.05049],[-111.12699,39.03841],[-111.13578,39.02378],[-111.15824,39.00297]]]]}},{"type":"Feature","properties":{"boundary_id":"952","BoundaryID":"952","Boundary_Name":"Manti, Ferron Lower Escarpment","boundary_name":"Manti, Ferron Lower Escarpment","source":"arcgis_lite_individual"},"geometry":{"type":"MultiPolygon","coordinates":[[[[-111.15824,39.00297],[-111.16095,39.00391],[-111.16367,39.00368],[-111.16618,39.00409],[-111.16893,39.00508],[-111.17036,39.00526],[-111.17323,39.00496],[-111.17508,39.00522],[-111.17729,39.00569],[-111.17832,39.00622],[-111.18032,39.00705],[-111.1816,39.00704],[-111.18315,39.00714],[-111.18407,39.00729],[-111.18542,39.00728],[-111.1861,39.00735],[-111.18642,39.00742],[-111.18666,39.0075],[-111.18691,39.00749],[-111.18723,39.00765],[-111.18751,39.00772],[-111.18778,39.0077],[-111.18802,39.00773],[-111.19319,39.00862],[-111.19343,39.00864],[-111.19366,39.00866],[-111.19391,39.00865],[-111.19409,39.00876],[-111.19432,39.00891],[-111.19449,39.00903],[-111.19472,39.00919],[-111.19507,39.00926],[-111.19533,39.00925],[-111.1956,39.00933],[-111.19586,39.00936],[-111.19619,39.0095],[-111.19643,39.00958],[-111.19668,39.00988],[-111.19679,39.01001],[-111.19695,39.01011],[-111.19711,39.01027],[-111.19721,39.01045],[-111.19736,39.0106],[-111.19762,39.01075],[-111.19794,39.01085],[-111.19819,39.01093],[-111.19848,39.01097],[-111.19874,39.01093],[-111.19893,39.01083],[-111.19914,39.01072],[-111.19935,39.0106],[-111.19947,39.01046],[-111.19969,39.01039],[-111.19991,39.01035],[-111.20014,39.01033],[-111.20035,39.01031],[-111.2005,39.01022],[-111.20095,39.01021],[-111.20121,39.01034],[-111.2014,39.01037],[-111.20154,39.01049],[-111.20168,39.01065],[-111.20181,39.01078],[-111.20193,39.01092],[-111.20205,39.01108],[-111.20221,39.01135],[-111.20224,39.01157],[-111.20235,39.01173],[-111.20246,39.01192],[-111.20259,39.0121],[-111.20277,39.01227],[-111.20294,39.01248],[-111.20315,39.0127],[-111.20333,39.01285],[-111.20353,39.01301],[-111.20368,39.01323],[-111.20379,39.01344],[-111.20396,39.01365],[-111.20421,39.01389],[-111.20618,39.01474],[-111.20989,39.01663],[-111.21004,39.02045],[-111.20966,39.02606],[-111.21139,39.03121],[-111.21218,39.03726],[-111.2146,39.03996],[-111.21729,39.0448],[-111.21856,39.0482],[-111.22038,39.05088],[-111.22176,39.05313],[-111.22325,39.05732],[-111.22605,39.05984],[-111.22885,39.06443],[-111.23017,39.06821],[-111.23353,39.07096],[-111.23499,39.07237],[-111.23551,39.07357],[-111.23517,39.07573],[-111.23453,39.07743],[-111.23351,39.0785],[-111.23247,39.0798],[-111.23142,39.08093],[-111.23016,39.08194],[-111.22832,39.0848],[-111.22877,39.08602],[-111.22958,39.08804],[-111.22964,39.09068],[-111.23152,39.09458],[-111.23421,39.09791],[-111.2358,39.10084],[-111.23788,39.10664],[-111.23708,39.10893],[-111.23306,39.10764],[-111.23216,39.10553],[-111.22993,39.10419],[-111.22683,39.1044],[-111.22432,39.10234],[-111.22226,39.10178],[-111.21818,39.10348],[-111.21604,39.10267],[-111.21123,39.09992],[-111.20718,39.09994],[-111.20514,39.09721],[-111.20054,39.0948],[-111.19983,39.09214],[-111.19422,39.09056],[-111.19119,39.08839],[-111.18759,39.08991],[-111.18394,39.0907],[-111.18257,39.09314],[-111.18264,39.09529],[-111.18134,39.09628],[-111.17671,39.09404],[-111.17107,39.09291],[-111.13204,39.08832],[-111.13005,39.06125],[-111.12274,39.05049],[-111.12699,39.03841],[-111.13578,39.02378],[-111.15824,39.00297]]]]}},{"type":"Feature","properties":{"boundary_id":"952","BoundaryID":"952","Boundary_Name":"Manti, Ferron Lower Escarpment","boundary_name":"Manti, Ferron Lower Escarpment","source":"arcgis_lite_individual"},"geometry":{"type":"MultiPolygon","coordinates":[[[[-111.15824,39.00297],[-111.16095,39.00391],[-111.16367,39.00368],[-111.16618,39.00409],[-111.16893,39.00508],[-111.17036,39.00526],[-111.17323,39.00496],[-111.17508,39.00522],[-111.17729,39.00569],[-111.17832,39.00622],[-111.18032,39.00705],[-111.1816,39.00704],[-111.18315,39.00714],[-111.18407,39.00729],[-111.18542,39.00728],[-111.1861,39.00735],[-111.18642,39.00742],[-111.18666,39.0075],[-111.18691,39.00749],[-111.18723,39.00765],[-111.18751,39.00772],[-111.18778,39.0077],[-111.18802,39.00773],[-111.19319,39.00862],[-111.19343,39.00864],[-111.19366,39.00866],[-111.19391,39.00865],[-111.19409,39.00876],[-111.19432,39.00891],[-111.19449,39.00903],[-111.19472,39.00919],[-111.19507,39.00926],[-111.19533,39.00925],[-111.1956,39.00933],[-111.19586,39.00936],[-111.19619,39.0095],[-111.19643,39.00958],[-111.19668,39.00988],[-111.19679,39.01001],[-111.19695,39.01011],[-111.19711,39.01027],[-111.19721,39.01045],[-111.19736,39.0106],[-111.19762,39.01075],[-111.19794,39.01085],[-111.19819,39.01093],[-111.19848,39.01097],[-111.19874,39.01093],[-111.19893,39.01083],[-111.19914,39.01072],[-111.19935,39.0106],[-111.19947,39.01046],[-111.19969,39.01039],[-111.19991,39.01035],[-111.20014,39.01033],[-111.20035,39.01031],[-111.2005,39.01022],[-111.20095,39.01021],[-111.20121,39.01034],[-111.2014,39.01037],[-111.20154,39.01049],[-111.20168,39.01065],[-111.20181,39.01078],[-111.20193,39.01092],[-111.20205,39.01108],[-111.20221,39.01135],[-111.20224,39.01157],[-111.20235,39.01173],[-111.20246,39.01192],[-111.20259,39.0121],[-111.20277,39.01227],[-111.20294,39.01248],[-111.20315,39.0127],[-111.20333,39.01285],[-111.20353,39.01301],[-111.20368,39.01323],[-111.20379,39.01344],[-111.20396,39.01365],[-111.20421,39.01389],[-111.20618,39.01474],[-111.20989,39.01663],[-111.21004,39.02045],[-111.20966,39.02606],[-111.21139,39.03121],[-111.21218,39.03726],[-111.2146,39.03996],[-111.21729,39.0448],[-111.21856,39.0482],[-111.22038,39.05088],[-111.22176,39.05313],[-111.22325,39.05732],[-111.22605,39.05984],[-111.22885,39.06443],[-111.23017,39.06821],[-111.23353,39.07096],[-111.23499,39.07237],[-111.23551,39.07357],[-111.23517,39.07573],[-111.23453,39.07743],[-111.23351,39.0785],[-111.23247,39.0798],[-111.23142,39.08093],[-111.23016,39.08194],[-111.22832,39.0848],[-111.22877,39.08602],[-111.22958,39.08804],[-111.22964,39.09068],[-111.23152,39.09458],[-111.23421,39.09791],[-111.2358,39.10084],[-111.23788,39.10664],[-111.23708,39.10893],[-111.23306,39.10764],[-111.23216,39.10553],[-111.22993,39.10419],[-111.22683,39.1044],[-111.22432,39.10234],[-111.22226,39.10178],[-111.21818,39.10348],[-111.21604,39.10267],[-111.21123,39.09992],[-111.20718,39.09994],[-111.20514,39.09721],[-111.20054,39.0948],[-111.19983,39.09214],[-111.19422,39.09056],[-111.19119,39.08839],[-111.18759,39.08991],[-111.18394,39.0907],[-111.18257,39.09314],[-111.18264,39.09529],[-111.18134,39.09628],[-111.17671,39.09404],[-111.17107,39.09291],[-111.13204,39.08832],[-111.13005,39.06125],[-111.12274,39.05049],[-111.12699,39.03841],[-111.13578,39.02378],[-111.15824,39.00297]]]]}}]}