{"type":"FeatureCollection","metadata":{"hunt_code":"EA1297","boundary_id":"953","member_boundary_ids":[],"source_boundary_ids":["953"],"source_hunt_code":"EA1297","merged_boundary_id":null,"boundary_geometry_type":"single_boundary_id_exact_name_match","generated_from":"display-boundary-index-2026-existing-fallback-reconcile","boundary_source_authority":"Utah DWR","boundary_source_file":"data/hunt_boundaries.geojson","fallback_source_file":"data/hunt_boundaries.geojson"},"features":[{"type":"Feature","properties":{"boundary_id":"953","BoundaryID":"953","Boundary_Name":"Wasatch Mtns, Red Creek West","boundary_name":"Wasatch Mtns, Red Creek West","source":"arcgis_lite_individual"},"geometry":{"type":"MultiPolygon","coordinates":[[[[-110.78028,40.41447],[-110.78109,40.41462],[-110.78514,40.41501],[-110.78817,40.41472],[-110.79247,40.41466],[-110.79129,40.41427],[-110.79231,40.41222],[-110.79519,40.40899],[-110.79756,40.40797],[-110.8,40.40918],[-110.80099,40.41089],[-110.80004,40.41242],[-110.80057,40.41395],[-110.80558,40.4108],[-110.80905,40.4066],[-110.81249,40.40211],[-110.81618,40.39964],[-110.81983,40.3979],[-110.82186,40.39543],[-110.8271,40.39239],[-110.83005,40.39104],[-110.83157,40.39075],[-110.83437,40.39277],[-110.836,40.39168],[-110.83804,40.3916],[-110.84062,40.39282],[-110.84602,40.39244],[-110.85201,40.39151],[-110.85716,40.3892],[-110.86217,40.38731],[-110.86873,40.38675],[-110.87453,40.38575],[-110.87769,40.38329],[-110.8792,40.37993],[-110.87755,40.3775],[-110.87602,40.37529],[-110.87457,40.37144],[-110.87313,40.36817],[-110.8724,40.36462],[-110.87038,40.36015],[-110.86981,40.35785],[-110.86727,40.35409],[-110.86515,40.34964],[-110.864,40.34164],[-110.86384,40.33378],[-110.86059,40.32798],[-110.86097,40.32401],[-110.85945,40.31907],[-110.85729,40.31591],[-110.85519,40.31443],[-110.85377,40.31204],[-110.85267,40.31159],[-110.85118,40.31115],[-110.85017,40.30974],[-110.8487,40.30783],[-110.84664,40.30604],[-110.84788,40.3034],[-110.8454,40.29912],[-110.84591,40.29628],[-110.84386,40.29487],[-110.84501,40.28965],[-110.84256,40.28671],[-110.84062,40.28357],[-110.83951,40.28054],[-110.83715,40.27346],[-110.83653,40.27095],[-110.83904,40.26431],[-110.83738,40.25838],[-110.83524,40.25224],[-110.83597,40.24719],[-110.83604,40.24331],[-110.8363,40.23848],[-110.83927,40.23503],[-110.8408,40.2312],[-110.8397,40.22315],[-110.83972,40.21591],[-110.85142,40.21243],[-110.86206,40.21226],[-110.86772,40.21036],[-110.87782,40.20252],[-110.88374,40.19997],[-110.89282,40.19862],[-110.90411,40.19991],[-110.91685,40.19897],[-110.92395,40.19655],[-110.93508,40.19409],[-110.94737,40.19412],[-110.96503,40.19533],[-110.97117,40.2038],[-110.97827,40.20461],[-110.99957,40.19901],[-111.01382,40.19156],[-111.02771,40.18312],[-111.0425,40.18237],[-111.05889,40.18471],[-111.09266,40.19553],[-111.10155,40.19752],[-111.10503,40.20178],[-111.10353,40.20845],[-111.1031,40.21475],[-111.10435,40.22028],[-111.10697,40.22379],[-111.12085,40.23007],[-111.12518,40.23091],[-111.13094,40.23201],[-111.13469,40.23605],[-111.14352,40.23907],[-111.157,40.24661],[-111.16193,40.25319],[-111.16516,40.26995],[-111.16596,40.28494],[-111.16704,40.28959],[-111.16985,40.29347],[-111.16924,40.29785],[-111.16328,40.29909],[-111.1617,40.30168],[-111.1561,40.30614],[-111.15932,40.30931],[-111.15433,40.31179],[-111.1537,40.31611],[-111.15177,40.31857],[-111.14815,40.32293],[-111.14595,40.32504],[-111.14612,40.33116],[-111.1415,40.33488],[-111.13718,40.3389],[-111.13174,40.34259],[-111.13186,40.34725],[-111.13404,40.35113],[-111.13508,40.35368],[-111.13859,40.35736],[-111.13554,40.36293],[-111.1341,40.36513],[-111.13412,40.3691],[-111.12624,40.37026],[-111.13573,40.37325],[-111.14694,40.37766],[-111.15249,40.37931],[-111.15725,40.38288],[-111.16165,40.38161],[-111.16594,40.38453],[-111.16621,40.3886],[-111.16997,40.39407],[-111.17765,40.39397],[-111.18296,40.39911],[-111.17922,40.4066],[-111.1782,40.41244],[-111.17734,40.4182],[-111.17483,40.42195],[-111.16972,40.42316],[-111.1671,40.42516],[-111.16675,40.4276],[-111.16521,40.42967],[-111.16089,40.43283],[-111.1564,40.43622],[-111.15552,40.43922],[-111.15524,40.44164],[-111.15659,40.44271],[-111.15627,40.44329],[-111.16244,40.44328],[-111.16166,40.44534],[-111.15927,40.44729],[-111.15701,40.44913],[-111.15382,40.45048],[-111.15236,40.45227],[-111.1504,40.45493],[-111.14871,40.45748],[-111.14483,40.45868],[-111.14051,40.46148],[-111.13871,40.46145],[-111.13443,40.46195],[-111.13142,40.46259],[-111.12619,40.46389],[-111.12342,40.46516],[-111.12074,40.46473],[-111.11788,40.46581],[-111.1159,40.46855],[-111.11381,40.47039],[-111.11225,40.46793],[-111.10849,40.46812],[-111.10626,40.467],[-111.1021,40.46576],[-111.09996,40.46442],[-111.09668,40.46224],[-111.09179,40.45875],[-111.08954,40.45878],[-111.09037,40.4605],[-111.09108,40.46198],[-111.09133,40.46401],[-111.08972,40.46439],[-111.08716,40.46529],[-111.08522,40.466],[-111.08285,40.46572],[-111.08028,40.46444],[-111.07576,40.46494],[-111.06956,40.46571],[-111.06675,40.46708],[-111.06373,40.47007],[-111.0588,40.4715],[-111.05512,40.47232],[-111.05251,40.47662],[-111.04937,40.47877],[-111.0451,40.48019],[-111.04094,40.48163],[-111.03843,40.48353],[-111.03537,40.48229],[-111.03378,40.48299],[-111.03165,40.48233],[-111.02849,40.48327],[-111.02521,40.48512],[-111.02055,40.48536],[-111.01504,40.48556],[-111.00716,40.48662],[-111.00013,40.48773],[-110.99478,40.48995],[-110.98575,40.4923],[-110.97908,40.49572],[-110.97343,40.49496],[-110.96791,40.49125],[-110.96082,40.48839],[-110.95622,40.48636],[-110.94923,40.48331],[-110.94331,40.48092],[-110.9352,40.47681],[-110.92986,40.47544],[-110.92179,40.47199],[-110.91825,40.47139],[-110.91049,40.4737],[-110.90333,40.46966],[-110.9004,40.46668],[-110.89629,40.46327],[-110.89235,40.45937],[-110.88256,40.45333],[-110.86811,40.45179],[-110.86116,40.45406],[-110.85451,40.45614],[-110.84781,40.45902],[-110.83627,40.46266],[-110.8284,40.46162],[-110.82386,40.45823],[-110.81834,40.45143],[-110.81765,40.44193],[-110.81332,40.43898],[-110.80603,40.43336],[-110.80195,40.4278],[-110.79654,40.42313],[-110.78559,40.41733],[-110.78028,40.41447]]]]}},{"type":"Feature","properties":{"boundary_id":"953","BoundaryID":"953","Boundary_Name":"Wasatch Mtns, Red Creek West","boundary_name":"Wasatch Mtns, Red Creek West","source":"arcgis_lite_individual"},"geometry":{"type":"MultiPolygon","coordinates":[[[[-110.78028,40.41447],[-110.78109,40.41462],[-110.78514,40.41501],[-110.78817,40.41472],[-110.79247,40.41466],[-110.79129,40.41427],[-110.79231,40.41222],[-110.79519,40.40899],[-110.79756,40.40797],[-110.8,40.40918],[-110.80099,40.41089],[-110.80004,40.41242],[-110.80057,40.41395],[-110.80558,40.4108],[-110.80905,40.4066],[-110.81249,40.40211],[-110.81618,40.39964],[-110.81983,40.3979],[-110.82186,40.39543],[-110.8271,40.39239],[-110.83005,40.39104],[-110.83157,40.39075],[-110.83437,40.39277],[-110.836,40.39168],[-110.83804,40.3916],[-110.84062,40.39282],[-110.84602,40.39244],[-110.85201,40.39151],[-110.85716,40.3892],[-110.86217,40.38731],[-110.86873,40.38675],[-110.87453,40.38575],[-110.87769,40.38329],[-110.8792,40.37993],[-110.87755,40.3775],[-110.87602,40.37529],[-110.87457,40.37144],[-110.87313,40.36817],[-110.8724,40.36462],[-110.87038,40.36015],[-110.86981,40.35785],[-110.86727,40.35409],[-110.86515,40.34964],[-110.864,40.34164],[-110.86384,40.33378],[-110.86059,40.32798],[-110.86097,40.32401],[-110.85945,40.31907],[-110.85729,40.31591],[-110.85519,40.31443],[-110.85377,40.31204],[-110.85267,40.31159],[-110.85118,40.31115],[-110.85017,40.30974],[-110.8487,40.30783],[-110.84664,40.30604],[-110.84788,40.3034],[-110.8454,40.29912],[-110.84591,40.29628],[-110.84386,40.29487],[-110.84501,40.28965],[-110.84256,40.28671],[-110.84062,40.28357],[-110.83951,40.28054],[-110.83715,40.27346],[-110.83653,40.27095],[-110.83904,40.26431],[-110.83738,40.25838],[-110.83524,40.25224],[-110.83597,40.24719],[-110.83604,40.24331],[-110.8363,40.23848],[-110.83927,40.23503],[-110.8408,40.2312],[-110.8397,40.22315],[-110.83972,40.21591],[-110.85142,40.21243],[-110.86206,40.21226],[-110.86772,40.21036],[-110.87782,40.20252],[-110.88374,40.19997],[-110.89282,40.19862],[-110.90411,40.19991],[-110.91685,40.19897],[-110.92395,40.19655],[-110.93508,40.19409],[-110.94737,40.19412],[-110.96503,40.19533],[-110.97117,40.2038],[-110.97827,40.20461],[-110.99957,40.19901],[-111.01382,40.19156],[-111.02771,40.18312],[-111.0425,40.18237],[-111.05889,40.18471],[-111.09266,40.19553],[-111.10155,40.19752],[-111.10503,40.20178],[-111.10353,40.20845],[-111.1031,40.21475],[-111.10435,40.22028],[-111.10697,40.22379],[-111.12085,40.23007],[-111.12518,40.23091],[-111.13094,40.23201],[-111.13469,40.23605],[-111.14352,40.23907],[-111.157,40.24661],[-111.16193,40.25319],[-111.16516,40.26995],[-111.16596,40.28494],[-111.16704,40.28959],[-111.16985,40.29347],[-111.16924,40.29785],[-111.16328,40.29909],[-111.1617,40.30168],[-111.1561,40.30614],[-111.15932,40.30931],[-111.15433,40.31179],[-111.1537,40.31611],[-111.15177,40.31857],[-111.14815,40.32293],[-111.14595,40.32504],[-111.14612,40.33116],[-111.1415,40.33488],[-111.13718,40.3389],[-111.13174,40.34259],[-111.13186,40.34725],[-111.13404,40.35113],[-111.13508,40.35368],[-111.13859,40.35736],[-111.13554,40.36293],[-111.1341,40.36513],[-111.13412,40.3691],[-111.12624,40.37026],[-111.13573,40.37325],[-111.14694,40.37766],[-111.15249,40.37931],[-111.15725,40.38288],[-111.16165,40.38161],[-111.16594,40.38453],[-111.16621,40.3886],[-111.16997,40.39407],[-111.17765,40.39397],[-111.18296,40.39911],[-111.17922,40.4066],[-111.1782,40.41244],[-111.17734,40.4182],[-111.17483,40.42195],[-111.16972,40.42316],[-111.1671,40.42516],[-111.16675,40.4276],[-111.16521,40.42967],[-111.16089,40.43283],[-111.1564,40.43622],[-111.15552,40.43922],[-111.15524,40.44164],[-111.15659,40.44271],[-111.15627,40.44329],[-111.16244,40.44328],[-111.16166,40.44534],[-111.15927,40.44729],[-111.15701,40.44913],[-111.15382,40.45048],[-111.15236,40.45227],[-111.1504,40.45493],[-111.14871,40.45748],[-111.14483,40.45868],[-111.14051,40.46148],[-111.13871,40.46145],[-111.13443,40.46195],[-111.13142,40.46259],[-111.12619,40.46389],[-111.12342,40.46516],[-111.12074,40.46473],[-111.11788,40.46581],[-111.1159,40.46855],[-111.11381,40.47039],[-111.11225,40.46793],[-111.10849,40.46812],[-111.10626,40.467],[-111.1021,40.46576],[-111.09996,40.46442],[-111.09668,40.46224],[-111.09179,40.45875],[-111.08954,40.45878],[-111.09037,40.4605],[-111.09108,40.46198],[-111.09133,40.46401],[-111.08972,40.46439],[-111.08716,40.46529],[-111.08522,40.466],[-111.08285,40.46572],[-111.08028,40.46444],[-111.07576,40.46494],[-111.06956,40.46571],[-111.06675,40.46708],[-111.06373,40.47007],[-111.0588,40.4715],[-111.05512,40.47232],[-111.05251,40.47662],[-111.04937,40.47877],[-111.0451,40.48019],[-111.04094,40.48163],[-111.03843,40.48353],[-111.03537,40.48229],[-111.03378,40.48299],[-111.03165,40.48233],[-111.02849,40.48327],[-111.02521,40.48512],[-111.02055,40.48536],[-111.01504,40.48556],[-111.00716,40.48662],[-111.00013,40.48773],[-110.99478,40.48995],[-110.98575,40.4923],[-110.97908,40.49572],[-110.97343,40.49496],[-110.96791,40.49125],[-110.96082,40.48839],[-110.95622,40.48636],[-110.94923,40.48331],[-110.94331,40.48092],[-110.9352,40.47681],[-110.92986,40.47544],[-110.92179,40.47199],[-110.91825,40.47139],[-110.91049,40.4737],[-110.90333,40.46966],[-110.9004,40.46668],[-110.89629,40.46327],[-110.89235,40.45937],[-110.88256,40.45333],[-110.86811,40.45179],[-110.86116,40.45406],[-110.85451,40.45614],[-110.84781,40.45902],[-110.83627,40.46266],[-110.8284,40.46162],[-110.82386,40.45823],[-110.81834,40.45143],[-110.81765,40.44193],[-110.81332,40.43898],[-110.80603,40.43336],[-110.80195,40.4278],[-110.79654,40.42313],[-110.78559,40.41733],[-110.78028,40.41447]]]]}},{"type":"Feature","properties":{"boundary_id":"953","BoundaryID":"953","Boundary_Name":"Wasatch Mtns, Red Creek West","boundary_name":"Wasatch Mtns, Red Creek West","source":"arcgis_lite_individual"},"geometry":{"type":"MultiPolygon","coordinates":[[[[-110.78028,40.41447],[-110.78109,40.41462],[-110.78514,40.41501],[-110.78817,40.41472],[-110.79247,40.41466],[-110.79129,40.41427],[-110.79231,40.41222],[-110.79519,40.40899],[-110.79756,40.40797],[-110.8,40.40918],[-110.80099,40.41089],[-110.80004,40.41242],[-110.80057,40.41395],[-110.80558,40.4108],[-110.80905,40.4066],[-110.81249,40.40211],[-110.81618,40.39964],[-110.81983,40.3979],[-110.82186,40.39543],[-110.8271,40.39239],[-110.83005,40.39104],[-110.83157,40.39075],[-110.83437,40.39277],[-110.836,40.39168],[-110.83804,40.3916],[-110.84062,40.39282],[-110.84602,40.39244],[-110.85201,40.39151],[-110.85716,40.3892],[-110.86217,40.38731],[-110.86873,40.38675],[-110.87453,40.38575],[-110.87769,40.38329],[-110.8792,40.37993],[-110.87755,40.3775],[-110.87602,40.37529],[-110.87457,40.37144],[-110.87313,40.36817],[-110.8724,40.36462],[-110.87038,40.36015],[-110.86981,40.35785],[-110.86727,40.35409],[-110.86515,40.34964],[-110.864,40.34164],[-110.86384,40.33378],[-110.86059,40.32798],[-110.86097,40.32401],[-110.85945,40.31907],[-110.85729,40.31591],[-110.85519,40.31443],[-110.85377,40.31204],[-110.85267,40.31159],[-110.85118,40.31115],[-110.85017,40.30974],[-110.8487,40.30783],[-110.84664,40.30604],[-110.84788,40.3034],[-110.8454,40.29912],[-110.84591,40.29628],[-110.84386,40.29487],[-110.84501,40.28965],[-110.84256,40.28671],[-110.84062,40.28357],[-110.83951,40.28054],[-110.83715,40.27346],[-110.83653,40.27095],[-110.83904,40.26431],[-110.83738,40.25838],[-110.83524,40.25224],[-110.83597,40.24719],[-110.83604,40.24331],[-110.8363,40.23848],[-110.83927,40.23503],[-110.8408,40.2312],[-110.8397,40.22315],[-110.83972,40.21591],[-110.85142,40.21243],[-110.86206,40.21226],[-110.86772,40.21036],[-110.87782,40.20252],[-110.88374,40.19997],[-110.89282,40.19862],[-110.90411,40.19991],[-110.91685,40.19897],[-110.92395,40.19655],[-110.93508,40.19409],[-110.94737,40.19412],[-110.96503,40.19533],[-110.97117,40.2038],[-110.97827,40.20461],[-110.99957,40.19901],[-111.01382,40.19156],[-111.02771,40.18312],[-111.0425,40.18237],[-111.05889,40.18471],[-111.09266,40.19553],[-111.10155,40.19752],[-111.10503,40.20178],[-111.10353,40.20845],[-111.1031,40.21475],[-111.10435,40.22028],[-111.10697,40.22379],[-111.12085,40.23007],[-111.12518,40.23091],[-111.13094,40.23201],[-111.13469,40.23605],[-111.14352,40.23907],[-111.157,40.24661],[-111.16193,40.25319],[-111.16516,40.26995],[-111.16596,40.28494],[-111.16704,40.28959],[-111.16985,40.29347],[-111.16924,40.29785],[-111.16328,40.29909],[-111.1617,40.30168],[-111.1561,40.30614],[-111.15932,40.30931],[-111.15433,40.31179],[-111.1537,40.31611],[-111.15177,40.31857],[-111.14815,40.32293],[-111.14595,40.32504],[-111.14612,40.33116],[-111.1415,40.33488],[-111.13718,40.3389],[-111.13174,40.34259],[-111.13186,40.34725],[-111.13404,40.35113],[-111.13508,40.35368],[-111.13859,40.35736],[-111.13554,40.36293],[-111.1341,40.36513],[-111.13412,40.3691],[-111.12624,40.37026],[-111.13573,40.37325],[-111.14694,40.37766],[-111.15249,40.37931],[-111.15725,40.38288],[-111.16165,40.38161],[-111.16594,40.38453],[-111.16621,40.3886],[-111.16997,40.39407],[-111.17765,40.39397],[-111.18296,40.39911],[-111.17922,40.4066],[-111.1782,40.41244],[-111.17734,40.4182],[-111.17483,40.42195],[-111.16972,40.42316],[-111.1671,40.42516],[-111.16675,40.4276],[-111.16521,40.42967],[-111.16089,40.43283],[-111.1564,40.43622],[-111.15552,40.43922],[-111.15524,40.44164],[-111.15659,40.44271],[-111.15627,40.44329],[-111.16244,40.44328],[-111.16166,40.44534],[-111.15927,40.44729],[-111.15701,40.44913],[-111.15382,40.45048],[-111.15236,40.45227],[-111.1504,40.45493],[-111.14871,40.45748],[-111.14483,40.45868],[-111.14051,40.46148],[-111.13871,40.46145],[-111.13443,40.46195],[-111.13142,40.46259],[-111.12619,40.46389],[-111.12342,40.46516],[-111.12074,40.46473],[-111.11788,40.46581],[-111.1159,40.46855],[-111.11381,40.47039],[-111.11225,40.46793],[-111.10849,40.46812],[-111.10626,40.467],[-111.1021,40.46576],[-111.09996,40.46442],[-111.09668,40.46224],[-111.09179,40.45875],[-111.08954,40.45878],[-111.09037,40.4605],[-111.09108,40.46198],[-111.09133,40.46401],[-111.08972,40.46439],[-111.08716,40.46529],[-111.08522,40.466],[-111.08285,40.46572],[-111.08028,40.46444],[-111.07576,40.46494],[-111.06956,40.46571],[-111.06675,40.46708],[-111.06373,40.47007],[-111.0588,40.4715],[-111.05512,40.47232],[-111.05251,40.47662],[-111.04937,40.47877],[-111.0451,40.48019],[-111.04094,40.48163],[-111.03843,40.48353],[-111.03537,40.48229],[-111.03378,40.48299],[-111.03165,40.48233],[-111.02849,40.48327],[-111.02521,40.48512],[-111.02055,40.48536],[-111.01504,40.48556],[-111.00716,40.48662],[-111.00013,40.48773],[-110.99478,40.48995],[-110.98575,40.4923],[-110.97908,40.49572],[-110.97343,40.49496],[-110.96791,40.49125],[-110.96082,40.48839],[-110.95622,40.48636],[-110.94923,40.48331],[-110.94331,40.48092],[-110.9352,40.47681],[-110.92986,40.47544],[-110.92179,40.47199],[-110.91825,40.47139],[-110.91049,40.4737],[-110.90333,40.46966],[-110.9004,40.46668],[-110.89629,40.46327],[-110.89235,40.45937],[-110.88256,40.45333],[-110.86811,40.45179],[-110.86116,40.45406],[-110.85451,40.45614],[-110.84781,40.45902],[-110.83627,40.46266],[-110.8284,40.46162],[-110.82386,40.45823],[-110.81834,40.45143],[-110.81765,40.44193],[-110.81332,40.43898],[-110.80603,40.43336],[-110.80195,40.4278],[-110.79654,40.42313],[-110.78559,40.41733],[-110.78028,40.41447]]]]}},{"type":"Feature","properties":{"boundary_id":"953","BoundaryID":"953","Boundary_Name":"Wasatch Mtns, Red Creek West","boundary_name":"Wasatch Mtns, Red Creek West","source":"arcgis_lite_individual"},"geometry":{"type":"MultiPolygon","coordinates":[[[[-110.78028,40.41447],[-110.78109,40.41462],[-110.78514,40.41501],[-110.78817,40.41472],[-110.79247,40.41466],[-110.79129,40.41427],[-110.79231,40.41222],[-110.79519,40.40899],[-110.79756,40.40797],[-110.8,40.40918],[-110.80099,40.41089],[-110.80004,40.41242],[-110.80057,40.41395],[-110.80558,40.4108],[-110.80905,40.4066],[-110.81249,40.40211],[-110.81618,40.39964],[-110.81983,40.3979],[-110.82186,40.39543],[-110.8271,40.39239],[-110.83005,40.39104],[-110.83157,40.39075],[-110.83437,40.39277],[-110.836,40.39168],[-110.83804,40.3916],[-110.84062,40.39282],[-110.84602,40.39244],[-110.85201,40.39151],[-110.85716,40.3892],[-110.86217,40.38731],[-110.86873,40.38675],[-110.87453,40.38575],[-110.87769,40.38329],[-110.8792,40.37993],[-110.87755,40.3775],[-110.87602,40.37529],[-110.87457,40.37144],[-110.87313,40.36817],[-110.8724,40.36462],[-110.87038,40.36015],[-110.86981,40.35785],[-110.86727,40.35409],[-110.86515,40.34964],[-110.864,40.34164],[-110.86384,40.33378],[-110.86059,40.32798],[-110.86097,40.32401],[-110.85945,40.31907],[-110.85729,40.31591],[-110.85519,40.31443],[-110.85377,40.31204],[-110.85267,40.31159],[-110.85118,40.31115],[-110.85017,40.30974],[-110.8487,40.30783],[-110.84664,40.30604],[-110.84788,40.3034],[-110.8454,40.29912],[-110.84591,40.29628],[-110.84386,40.29487],[-110.84501,40.28965],[-110.84256,40.28671],[-110.84062,40.28357],[-110.83951,40.28054],[-110.83715,40.27346],[-110.83653,40.27095],[-110.83904,40.26431],[-110.83738,40.25838],[-110.83524,40.25224],[-110.83597,40.24719],[-110.83604,40.24331],[-110.8363,40.23848],[-110.83927,40.23503],[-110.8408,40.2312],[-110.8397,40.22315],[-110.83972,40.21591],[-110.85142,40.21243],[-110.86206,40.21226],[-110.86772,40.21036],[-110.87782,40.20252],[-110.88374,40.19997],[-110.89282,40.19862],[-110.90411,40.19991],[-110.91685,40.19897],[-110.92395,40.19655],[-110.93508,40.19409],[-110.94737,40.19412],[-110.96503,40.19533],[-110.97117,40.2038],[-110.97827,40.20461],[-110.99957,40.19901],[-111.01382,40.19156],[-111.02771,40.18312],[-111.0425,40.18237],[-111.05889,40.18471],[-111.09266,40.19553],[-111.10155,40.19752],[-111.10503,40.20178],[-111.10353,40.20845],[-111.1031,40.21475],[-111.10435,40.22028],[-111.10697,40.22379],[-111.12085,40.23007],[-111.12518,40.23091],[-111.13094,40.23201],[-111.13469,40.23605],[-111.14352,40.23907],[-111.157,40.24661],[-111.16193,40.25319],[-111.16516,40.26995],[-111.16596,40.28494],[-111.16704,40.28959],[-111.16985,40.29347],[-111.16924,40.29785],[-111.16328,40.29909],[-111.1617,40.30168],[-111.1561,40.30614],[-111.15932,40.30931],[-111.15433,40.31179],[-111.1537,40.31611],[-111.15177,40.31857],[-111.14815,40.32293],[-111.14595,40.32504],[-111.14612,40.33116],[-111.1415,40.33488],[-111.13718,40.3389],[-111.13174,40.34259],[-111.13186,40.34725],[-111.13404,40.35113],[-111.13508,40.35368],[-111.13859,40.35736],[-111.13554,40.36293],[-111.1341,40.36513],[-111.13412,40.3691],[-111.12624,40.37026],[-111.13573,40.37325],[-111.14694,40.37766],[-111.15249,40.37931],[-111.15725,40.38288],[-111.16165,40.38161],[-111.16594,40.38453],[-111.16621,40.3886],[-111.16997,40.39407],[-111.17765,40.39397],[-111.18296,40.39911],[-111.17922,40.4066],[-111.1782,40.41244],[-111.17734,40.4182],[-111.17483,40.42195],[-111.16972,40.42316],[-111.1671,40.42516],[-111.16675,40.4276],[-111.16521,40.42967],[-111.16089,40.43283],[-111.1564,40.43622],[-111.15552,40.43922],[-111.15524,40.44164],[-111.15659,40.44271],[-111.15627,40.44329],[-111.16244,40.44328],[-111.16166,40.44534],[-111.15927,40.44729],[-111.15701,40.44913],[-111.15382,40.45048],[-111.15236,40.45227],[-111.1504,40.45493],[-111.14871,40.45748],[-111.14483,40.45868],[-111.14051,40.46148],[-111.13871,40.46145],[-111.13443,40.46195],[-111.13142,40.46259],[-111.12619,40.46389],[-111.12342,40.46516],[-111.12074,40.46473],[-111.11788,40.46581],[-111.1159,40.46855],[-111.11381,40.47039],[-111.11225,40.46793],[-111.10849,40.46812],[-111.10626,40.467],[-111.1021,40.46576],[-111.09996,40.46442],[-111.09668,40.46224],[-111.09179,40.45875],[-111.08954,40.45878],[-111.09037,40.4605],[-111.09108,40.46198],[-111.09133,40.46401],[-111.08972,40.46439],[-111.08716,40.46529],[-111.08522,40.466],[-111.08285,40.46572],[-111.08028,40.46444],[-111.07576,40.46494],[-111.06956,40.46571],[-111.06675,40.46708],[-111.06373,40.47007],[-111.0588,40.4715],[-111.05512,40.47232],[-111.05251,40.47662],[-111.04937,40.47877],[-111.0451,40.48019],[-111.04094,40.48163],[-111.03843,40.48353],[-111.03537,40.48229],[-111.03378,40.48299],[-111.03165,40.48233],[-111.02849,40.48327],[-111.02521,40.48512],[-111.02055,40.48536],[-111.01504,40.48556],[-111.00716,40.48662],[-111.00013,40.48773],[-110.99478,40.48995],[-110.98575,40.4923],[-110.97908,40.49572],[-110.97343,40.49496],[-110.96791,40.49125],[-110.96082,40.48839],[-110.95622,40.48636],[-110.94923,40.48331],[-110.94331,40.48092],[-110.9352,40.47681],[-110.92986,40.47544],[-110.92179,40.47199],[-110.91825,40.47139],[-110.91049,40.4737],[-110.90333,40.46966],[-110.9004,40.46668],[-110.89629,40.46327],[-110.89235,40.45937],[-110.88256,40.45333],[-110.86811,40.45179],[-110.86116,40.45406],[-110.85451,40.45614],[-110.84781,40.45902],[-110.83627,40.46266],[-110.8284,40.46162],[-110.82386,40.45823],[-110.81834,40.45143],[-110.81765,40.44193],[-110.81332,40.43898],[-110.80603,40.43336],[-110.80195,40.4278],[-110.79654,40.42313],[-110.78559,40.41733],[-110.78028,40.41447]]]]}}]}