{"type":"FeatureCollection","metadata":{"hunt_code":"EA1298","boundary_id":"954","member_boundary_ids":[],"source_boundary_ids":["954"],"source_hunt_code":"EA1298","merged_boundary_id":null,"boundary_geometry_type":"single_boundary_id_exact_name_match","generated_from":"display-boundary-index-2026-existing-fallback-reconcile","boundary_source_authority":"Utah DWR","boundary_source_file":"data/hunt_boundaries.geojson","fallback_source_file":"data/hunt_boundaries.geojson"},"features":[{"type":"Feature","properties":{"boundary_id":"954","BoundaryID":"954","Boundary_Name":"Wasatch Mtns, Wildcat/Timber Canyon","boundary_name":"Wasatch Mtns, Wildcat/Timber Canyon","source":"arcgis_lite_individual"},"geometry":{"type":"MultiPolygon","coordinates":[[[[-110.81952,40.20803],[-110.79525,40.20381],[-110.78311,40.20022],[-110.77865,40.19773],[-110.77331,40.19436],[-110.77245,40.19071],[-110.76965,40.18782],[-110.7703,40.18505],[-110.76976,40.18221],[-110.76481,40.17704],[-110.75923,40.17167],[-110.7591,40.16883],[-110.75839,40.16381],[-110.75684,40.15817],[-110.75495,40.15479],[-110.75345,40.14861],[-110.75397,40.14476],[-110.75258,40.14369],[-110.75253,40.14142],[-110.75095,40.139],[-110.75218,40.13721],[-110.7498,40.13616],[-110.74694,40.13315],[-110.74417,40.1324],[-110.74176,40.13102],[-110.74114,40.12896],[-110.74118,40.12807],[-110.74567,40.12725],[-110.75058,40.12657],[-110.75265,40.12849],[-110.7567,40.12697],[-110.7643,40.12631],[-110.77081,40.12432],[-110.7758,40.12403],[-110.7802,40.12523],[-110.78534,40.1225],[-110.791,40.12183],[-110.79592,40.1203],[-110.80111,40.11645],[-110.80587,40.11719],[-110.80952,40.11918],[-110.81296,40.11558],[-110.81195,40.11218],[-110.81328,40.11012],[-110.81613,40.10684],[-110.81679,40.10373],[-110.81916,40.09996],[-110.82308,40.09508],[-110.82757,40.09113],[-110.83495,40.08872],[-110.83932,40.08507],[-110.84167,40.08292],[-110.84748,40.0785],[-110.85083,40.0761],[-110.85483,40.07323],[-110.85941,40.0703],[-110.86294,40.06721],[-110.86632,40.0651],[-110.87107,40.06201],[-110.87453,40.06025],[-110.88713,40.05489],[-110.89734,40.05148],[-110.90696,40.04589],[-110.91144,40.04129],[-110.91507,40.03851],[-110.9174,40.0361],[-110.92243,40.03501],[-110.92705,40.03147],[-110.93033,40.02984],[-110.93217,40.02614],[-110.9366,40.0236],[-110.93915,40.02153],[-110.94313,40.01833],[-110.94779,40.01595],[-110.95204,40.01622],[-110.95452,40.01403],[-110.95758,40.01552],[-110.96244,40.01407],[-110.96988,40.01306],[-110.97403,40.01346],[-110.97987,40.01343],[-110.98442,40.01165],[-110.98684,40.01259],[-110.99014,40.01172],[-110.99143,40.01747],[-110.99121,40.02171],[-110.99348,40.02492],[-110.99546,40.02796],[-110.993,40.0291],[-110.99084,40.03026],[-110.98954,40.03432],[-110.99049,40.03589],[-110.99251,40.03531],[-110.99629,40.03776],[-110.99651,40.04285],[-110.99441,40.04862],[-110.99258,40.05332],[-110.99232,40.05711],[-110.99228,40.05945],[-110.9924,40.06214],[-110.99181,40.06462],[-110.98972,40.06733],[-110.98724,40.06867],[-110.98614,40.07154],[-110.98744,40.0741],[-110.98765,40.07648],[-110.98604,40.07932],[-110.98369,40.08161],[-110.98152,40.08324],[-110.97942,40.08427],[-110.97743,40.08676],[-110.97646,40.08895],[-110.97651,40.0913],[-110.97499,40.09302],[-110.97347,40.09483],[-110.97026,40.09445],[-110.96771,40.09437],[-110.96534,40.0948],[-110.96269,40.0951],[-110.96012,40.09584],[-110.95777,40.09749],[-110.95493,40.09965],[-110.95441,40.10178],[-110.95237,40.10395],[-110.95142,40.10561],[-110.9506,40.10761],[-110.94843,40.10955],[-110.9471,40.11059],[-110.94462,40.11228],[-110.94234,40.11385],[-110.94139,40.11412],[-110.9397,40.11493],[-110.93723,40.11667],[-110.93526,40.11937],[-110.93217,40.12088],[-110.92973,40.12265],[-110.92847,40.12502],[-110.92817,40.12671],[-110.92641,40.12815],[-110.92875,40.12754],[-110.9309,40.12749],[-110.9325,40.12715],[-110.93432,40.12569],[-110.93708,40.12496],[-110.94156,40.12431],[-110.94654,40.1233],[-110.95029,40.12284],[-110.95306,40.12332],[-110.95579,40.12266],[-110.95828,40.1224],[-110.96182,40.12379],[-110.9637,40.12277],[-110.96675,40.12417],[-110.9708,40.12308],[-110.97131,40.12515],[-110.97417,40.12707],[-110.97691,40.12545],[-110.97922,40.12311],[-110.98221,40.12484],[-110.98428,40.12546],[-110.98591,40.12397],[-110.98867,40.12223],[-110.9911,40.11966],[-110.99439,40.12043],[-110.99235,40.12316],[-110.99498,40.12294],[-110.998,40.12372],[-111.00091,40.1244],[-111.00312,40.12423],[-111.00525,40.12496],[-111.00643,40.12551],[-111.00764,40.12435],[-111.00957,40.12276],[-111.01141,40.12348],[-111.01402,40.12332],[-111.01635,40.12201],[-111.01808,40.12211],[-111.01805,40.12537],[-111.01935,40.12714],[-111.02148,40.12753],[-111.02559,40.12836],[-111.02183,40.12862],[-111.02188,40.13052],[-111.02233,40.13256],[-111.02272,40.13503],[-111.02383,40.13584],[-111.0243,40.13798],[-111.02386,40.13949],[-111.02325,40.14094],[-111.02348,40.1429],[-111.02066,40.14519],[-111.02196,40.1464],[-111.02071,40.14989],[-111.02155,40.1507],[-111.02376,40.14933],[-111.02691,40.14958],[-111.02756,40.15333],[-111.02738,40.15516],[-111.02733,40.1571],[-111.02704,40.1607],[-111.02541,40.16439],[-111.02397,40.16729],[-111.02329,40.17287],[-111.02198,40.17734],[-111.0228,40.17846],[-111.02872,40.18058],[-111.02756,40.18262],[-111.01525,40.19066],[-110.99993,40.19888],[-110.97901,40.20437],[-110.97195,40.20421],[-110.96543,40.19556],[-110.94807,40.19382],[-110.93573,40.19403],[-110.92472,40.19658],[-110.91765,40.19878],[-110.90462,40.20003],[-110.89578,40.19867],[-110.88331,40.20009],[-110.87762,40.20266],[-110.86768,40.21038],[-110.86169,40.21231],[-110.84963,40.21244],[-110.83296,40.21135],[-110.81952,40.20803]]]]}},{"type":"Feature","properties":{"boundary_id":"954","BoundaryID":"954","Boundary_Name":"Wasatch Mtns, Wildcat/Timber Canyon","boundary_name":"Wasatch Mtns, Wildcat/Timber Canyon","source":"arcgis_lite_individual"},"geometry":{"type":"MultiPolygon","coordinates":[[[[-110.81952,40.20803],[-110.79525,40.20381],[-110.78311,40.20022],[-110.77865,40.19773],[-110.77331,40.19436],[-110.77245,40.19071],[-110.76965,40.18782],[-110.7703,40.18505],[-110.76976,40.18221],[-110.76481,40.17704],[-110.75923,40.17167],[-110.7591,40.16883],[-110.75839,40.16381],[-110.75684,40.15817],[-110.75495,40.15479],[-110.75345,40.14861],[-110.75397,40.14476],[-110.75258,40.14369],[-110.75253,40.14142],[-110.75095,40.139],[-110.75218,40.13721],[-110.7498,40.13616],[-110.74694,40.13315],[-110.74417,40.1324],[-110.74176,40.13102],[-110.74114,40.12896],[-110.74118,40.12807],[-110.74567,40.12725],[-110.75058,40.12657],[-110.75265,40.12849],[-110.7567,40.12697],[-110.7643,40.12631],[-110.77081,40.12432],[-110.7758,40.12403],[-110.7802,40.12523],[-110.78534,40.1225],[-110.791,40.12183],[-110.79592,40.1203],[-110.80111,40.11645],[-110.80587,40.11719],[-110.80952,40.11918],[-110.81296,40.11558],[-110.81195,40.11218],[-110.81328,40.11012],[-110.81613,40.10684],[-110.81679,40.10373],[-110.81916,40.09996],[-110.82308,40.09508],[-110.82757,40.09113],[-110.83495,40.08872],[-110.83932,40.08507],[-110.84167,40.08292],[-110.84748,40.0785],[-110.85083,40.0761],[-110.85483,40.07323],[-110.85941,40.0703],[-110.86294,40.06721],[-110.86632,40.0651],[-110.87107,40.06201],[-110.87453,40.06025],[-110.88713,40.05489],[-110.89734,40.05148],[-110.90696,40.04589],[-110.91144,40.04129],[-110.91507,40.03851],[-110.9174,40.0361],[-110.92243,40.03501],[-110.92705,40.03147],[-110.93033,40.02984],[-110.93217,40.02614],[-110.9366,40.0236],[-110.93915,40.02153],[-110.94313,40.01833],[-110.94779,40.01595],[-110.95204,40.01622],[-110.95452,40.01403],[-110.95758,40.01552],[-110.96244,40.01407],[-110.96988,40.01306],[-110.97403,40.01346],[-110.97987,40.01343],[-110.98442,40.01165],[-110.98684,40.01259],[-110.99014,40.01172],[-110.99143,40.01747],[-110.99121,40.02171],[-110.99348,40.02492],[-110.99546,40.02796],[-110.993,40.0291],[-110.99084,40.03026],[-110.98954,40.03432],[-110.99049,40.03589],[-110.99251,40.03531],[-110.99629,40.03776],[-110.99651,40.04285],[-110.99441,40.04862],[-110.99258,40.05332],[-110.99232,40.05711],[-110.99228,40.05945],[-110.9924,40.06214],[-110.99181,40.06462],[-110.98972,40.06733],[-110.98724,40.06867],[-110.98614,40.07154],[-110.98744,40.0741],[-110.98765,40.07648],[-110.98604,40.07932],[-110.98369,40.08161],[-110.98152,40.08324],[-110.97942,40.08427],[-110.97743,40.08676],[-110.97646,40.08895],[-110.97651,40.0913],[-110.97499,40.09302],[-110.97347,40.09483],[-110.97026,40.09445],[-110.96771,40.09437],[-110.96534,40.0948],[-110.96269,40.0951],[-110.96012,40.09584],[-110.95777,40.09749],[-110.95493,40.09965],[-110.95441,40.10178],[-110.95237,40.10395],[-110.95142,40.10561],[-110.9506,40.10761],[-110.94843,40.10955],[-110.9471,40.11059],[-110.94462,40.11228],[-110.94234,40.11385],[-110.94139,40.11412],[-110.9397,40.11493],[-110.93723,40.11667],[-110.93526,40.11937],[-110.93217,40.12088],[-110.92973,40.12265],[-110.92847,40.12502],[-110.92817,40.12671],[-110.92641,40.12815],[-110.92875,40.12754],[-110.9309,40.12749],[-110.9325,40.12715],[-110.93432,40.12569],[-110.93708,40.12496],[-110.94156,40.12431],[-110.94654,40.1233],[-110.95029,40.12284],[-110.95306,40.12332],[-110.95579,40.12266],[-110.95828,40.1224],[-110.96182,40.12379],[-110.9637,40.12277],[-110.96675,40.12417],[-110.9708,40.12308],[-110.97131,40.12515],[-110.97417,40.12707],[-110.97691,40.12545],[-110.97922,40.12311],[-110.98221,40.12484],[-110.98428,40.12546],[-110.98591,40.12397],[-110.98867,40.12223],[-110.9911,40.11966],[-110.99439,40.12043],[-110.99235,40.12316],[-110.99498,40.12294],[-110.998,40.12372],[-111.00091,40.1244],[-111.00312,40.12423],[-111.00525,40.12496],[-111.00643,40.12551],[-111.00764,40.12435],[-111.00957,40.12276],[-111.01141,40.12348],[-111.01402,40.12332],[-111.01635,40.12201],[-111.01808,40.12211],[-111.01805,40.12537],[-111.01935,40.12714],[-111.02148,40.12753],[-111.02559,40.12836],[-111.02183,40.12862],[-111.02188,40.13052],[-111.02233,40.13256],[-111.02272,40.13503],[-111.02383,40.13584],[-111.0243,40.13798],[-111.02386,40.13949],[-111.02325,40.14094],[-111.02348,40.1429],[-111.02066,40.14519],[-111.02196,40.1464],[-111.02071,40.14989],[-111.02155,40.1507],[-111.02376,40.14933],[-111.02691,40.14958],[-111.02756,40.15333],[-111.02738,40.15516],[-111.02733,40.1571],[-111.02704,40.1607],[-111.02541,40.16439],[-111.02397,40.16729],[-111.02329,40.17287],[-111.02198,40.17734],[-111.0228,40.17846],[-111.02872,40.18058],[-111.02756,40.18262],[-111.01525,40.19066],[-110.99993,40.19888],[-110.97901,40.20437],[-110.97195,40.20421],[-110.96543,40.19556],[-110.94807,40.19382],[-110.93573,40.19403],[-110.92472,40.19658],[-110.91765,40.19878],[-110.90462,40.20003],[-110.89578,40.19867],[-110.88331,40.20009],[-110.87762,40.20266],[-110.86768,40.21038],[-110.86169,40.21231],[-110.84963,40.21244],[-110.83296,40.21135],[-110.81952,40.20803]]]]}},{"type":"Feature","properties":{"boundary_id":"954","BoundaryID":"954","Boundary_Name":"Wasatch Mtns, Wildcat/Timber Canyon","boundary_name":"Wasatch Mtns, Wildcat/Timber Canyon","source":"arcgis_lite_individual"},"geometry":{"type":"MultiPolygon","coordinates":[[[[-110.81952,40.20803],[-110.79525,40.20381],[-110.78311,40.20022],[-110.77865,40.19773],[-110.77331,40.19436],[-110.77245,40.19071],[-110.76965,40.18782],[-110.7703,40.18505],[-110.76976,40.18221],[-110.76481,40.17704],[-110.75923,40.17167],[-110.7591,40.16883],[-110.75839,40.16381],[-110.75684,40.15817],[-110.75495,40.15479],[-110.75345,40.14861],[-110.75397,40.14476],[-110.75258,40.14369],[-110.75253,40.14142],[-110.75095,40.139],[-110.75218,40.13721],[-110.7498,40.13616],[-110.74694,40.13315],[-110.74417,40.1324],[-110.74176,40.13102],[-110.74114,40.12896],[-110.74118,40.12807],[-110.74567,40.12725],[-110.75058,40.12657],[-110.75265,40.12849],[-110.7567,40.12697],[-110.7643,40.12631],[-110.77081,40.12432],[-110.7758,40.12403],[-110.7802,40.12523],[-110.78534,40.1225],[-110.791,40.12183],[-110.79592,40.1203],[-110.80111,40.11645],[-110.80587,40.11719],[-110.80952,40.11918],[-110.81296,40.11558],[-110.81195,40.11218],[-110.81328,40.11012],[-110.81613,40.10684],[-110.81679,40.10373],[-110.81916,40.09996],[-110.82308,40.09508],[-110.82757,40.09113],[-110.83495,40.08872],[-110.83932,40.08507],[-110.84167,40.08292],[-110.84748,40.0785],[-110.85083,40.0761],[-110.85483,40.07323],[-110.85941,40.0703],[-110.86294,40.06721],[-110.86632,40.0651],[-110.87107,40.06201],[-110.87453,40.06025],[-110.88713,40.05489],[-110.89734,40.05148],[-110.90696,40.04589],[-110.91144,40.04129],[-110.91507,40.03851],[-110.9174,40.0361],[-110.92243,40.03501],[-110.92705,40.03147],[-110.93033,40.02984],[-110.93217,40.02614],[-110.9366,40.0236],[-110.93915,40.02153],[-110.94313,40.01833],[-110.94779,40.01595],[-110.95204,40.01622],[-110.95452,40.01403],[-110.95758,40.01552],[-110.96244,40.01407],[-110.96988,40.01306],[-110.97403,40.01346],[-110.97987,40.01343],[-110.98442,40.01165],[-110.98684,40.01259],[-110.99014,40.01172],[-110.99143,40.01747],[-110.99121,40.02171],[-110.99348,40.02492],[-110.99546,40.02796],[-110.993,40.0291],[-110.99084,40.03026],[-110.98954,40.03432],[-110.99049,40.03589],[-110.99251,40.03531],[-110.99629,40.03776],[-110.99651,40.04285],[-110.99441,40.04862],[-110.99258,40.05332],[-110.99232,40.05711],[-110.99228,40.05945],[-110.9924,40.06214],[-110.99181,40.06462],[-110.98972,40.06733],[-110.98724,40.06867],[-110.98614,40.07154],[-110.98744,40.0741],[-110.98765,40.07648],[-110.98604,40.07932],[-110.98369,40.08161],[-110.98152,40.08324],[-110.97942,40.08427],[-110.97743,40.08676],[-110.97646,40.08895],[-110.97651,40.0913],[-110.97499,40.09302],[-110.97347,40.09483],[-110.97026,40.09445],[-110.96771,40.09437],[-110.96534,40.0948],[-110.96269,40.0951],[-110.96012,40.09584],[-110.95777,40.09749],[-110.95493,40.09965],[-110.95441,40.10178],[-110.95237,40.10395],[-110.95142,40.10561],[-110.9506,40.10761],[-110.94843,40.10955],[-110.9471,40.11059],[-110.94462,40.11228],[-110.94234,40.11385],[-110.94139,40.11412],[-110.9397,40.11493],[-110.93723,40.11667],[-110.93526,40.11937],[-110.93217,40.12088],[-110.92973,40.12265],[-110.92847,40.12502],[-110.92817,40.12671],[-110.92641,40.12815],[-110.92875,40.12754],[-110.9309,40.12749],[-110.9325,40.12715],[-110.93432,40.12569],[-110.93708,40.12496],[-110.94156,40.12431],[-110.94654,40.1233],[-110.95029,40.12284],[-110.95306,40.12332],[-110.95579,40.12266],[-110.95828,40.1224],[-110.96182,40.12379],[-110.9637,40.12277],[-110.96675,40.12417],[-110.9708,40.12308],[-110.97131,40.12515],[-110.97417,40.12707],[-110.97691,40.12545],[-110.97922,40.12311],[-110.98221,40.12484],[-110.98428,40.12546],[-110.98591,40.12397],[-110.98867,40.12223],[-110.9911,40.11966],[-110.99439,40.12043],[-110.99235,40.12316],[-110.99498,40.12294],[-110.998,40.12372],[-111.00091,40.1244],[-111.00312,40.12423],[-111.00525,40.12496],[-111.00643,40.12551],[-111.00764,40.12435],[-111.00957,40.12276],[-111.01141,40.12348],[-111.01402,40.12332],[-111.01635,40.12201],[-111.01808,40.12211],[-111.01805,40.12537],[-111.01935,40.12714],[-111.02148,40.12753],[-111.02559,40.12836],[-111.02183,40.12862],[-111.02188,40.13052],[-111.02233,40.13256],[-111.02272,40.13503],[-111.02383,40.13584],[-111.0243,40.13798],[-111.02386,40.13949],[-111.02325,40.14094],[-111.02348,40.1429],[-111.02066,40.14519],[-111.02196,40.1464],[-111.02071,40.14989],[-111.02155,40.1507],[-111.02376,40.14933],[-111.02691,40.14958],[-111.02756,40.15333],[-111.02738,40.15516],[-111.02733,40.1571],[-111.02704,40.1607],[-111.02541,40.16439],[-111.02397,40.16729],[-111.02329,40.17287],[-111.02198,40.17734],[-111.0228,40.17846],[-111.02872,40.18058],[-111.02756,40.18262],[-111.01525,40.19066],[-110.99993,40.19888],[-110.97901,40.20437],[-110.97195,40.20421],[-110.96543,40.19556],[-110.94807,40.19382],[-110.93573,40.19403],[-110.92472,40.19658],[-110.91765,40.19878],[-110.90462,40.20003],[-110.89578,40.19867],[-110.88331,40.20009],[-110.87762,40.20266],[-110.86768,40.21038],[-110.86169,40.21231],[-110.84963,40.21244],[-110.83296,40.21135],[-110.81952,40.20803]]]]}},{"type":"Feature","properties":{"boundary_id":"954","BoundaryID":"954","Boundary_Name":"Wasatch Mtns, Wildcat/Timber Canyon","boundary_name":"Wasatch Mtns, Wildcat/Timber Canyon","source":"arcgis_lite_individual"},"geometry":{"type":"MultiPolygon","coordinates":[[[[-110.81952,40.20803],[-110.79525,40.20381],[-110.78311,40.20022],[-110.77865,40.19773],[-110.77331,40.19436],[-110.77245,40.19071],[-110.76965,40.18782],[-110.7703,40.18505],[-110.76976,40.18221],[-110.76481,40.17704],[-110.75923,40.17167],[-110.7591,40.16883],[-110.75839,40.16381],[-110.75684,40.15817],[-110.75495,40.15479],[-110.75345,40.14861],[-110.75397,40.14476],[-110.75258,40.14369],[-110.75253,40.14142],[-110.75095,40.139],[-110.75218,40.13721],[-110.7498,40.13616],[-110.74694,40.13315],[-110.74417,40.1324],[-110.74176,40.13102],[-110.74114,40.12896],[-110.74118,40.12807],[-110.74567,40.12725],[-110.75058,40.12657],[-110.75265,40.12849],[-110.7567,40.12697],[-110.7643,40.12631],[-110.77081,40.12432],[-110.7758,40.12403],[-110.7802,40.12523],[-110.78534,40.1225],[-110.791,40.12183],[-110.79592,40.1203],[-110.80111,40.11645],[-110.80587,40.11719],[-110.80952,40.11918],[-110.81296,40.11558],[-110.81195,40.11218],[-110.81328,40.11012],[-110.81613,40.10684],[-110.81679,40.10373],[-110.81916,40.09996],[-110.82308,40.09508],[-110.82757,40.09113],[-110.83495,40.08872],[-110.83932,40.08507],[-110.84167,40.08292],[-110.84748,40.0785],[-110.85083,40.0761],[-110.85483,40.07323],[-110.85941,40.0703],[-110.86294,40.06721],[-110.86632,40.0651],[-110.87107,40.06201],[-110.87453,40.06025],[-110.88713,40.05489],[-110.89734,40.05148],[-110.90696,40.04589],[-110.91144,40.04129],[-110.91507,40.03851],[-110.9174,40.0361],[-110.92243,40.03501],[-110.92705,40.03147],[-110.93033,40.02984],[-110.93217,40.02614],[-110.9366,40.0236],[-110.93915,40.02153],[-110.94313,40.01833],[-110.94779,40.01595],[-110.95204,40.01622],[-110.95452,40.01403],[-110.95758,40.01552],[-110.96244,40.01407],[-110.96988,40.01306],[-110.97403,40.01346],[-110.97987,40.01343],[-110.98442,40.01165],[-110.98684,40.01259],[-110.99014,40.01172],[-110.99143,40.01747],[-110.99121,40.02171],[-110.99348,40.02492],[-110.99546,40.02796],[-110.993,40.0291],[-110.99084,40.03026],[-110.98954,40.03432],[-110.99049,40.03589],[-110.99251,40.03531],[-110.99629,40.03776],[-110.99651,40.04285],[-110.99441,40.04862],[-110.99258,40.05332],[-110.99232,40.05711],[-110.99228,40.05945],[-110.9924,40.06214],[-110.99181,40.06462],[-110.98972,40.06733],[-110.98724,40.06867],[-110.98614,40.07154],[-110.98744,40.0741],[-110.98765,40.07648],[-110.98604,40.07932],[-110.98369,40.08161],[-110.98152,40.08324],[-110.97942,40.08427],[-110.97743,40.08676],[-110.97646,40.08895],[-110.97651,40.0913],[-110.97499,40.09302],[-110.97347,40.09483],[-110.97026,40.09445],[-110.96771,40.09437],[-110.96534,40.0948],[-110.96269,40.0951],[-110.96012,40.09584],[-110.95777,40.09749],[-110.95493,40.09965],[-110.95441,40.10178],[-110.95237,40.10395],[-110.95142,40.10561],[-110.9506,40.10761],[-110.94843,40.10955],[-110.9471,40.11059],[-110.94462,40.11228],[-110.94234,40.11385],[-110.94139,40.11412],[-110.9397,40.11493],[-110.93723,40.11667],[-110.93526,40.11937],[-110.93217,40.12088],[-110.92973,40.12265],[-110.92847,40.12502],[-110.92817,40.12671],[-110.92641,40.12815],[-110.92875,40.12754],[-110.9309,40.12749],[-110.9325,40.12715],[-110.93432,40.12569],[-110.93708,40.12496],[-110.94156,40.12431],[-110.94654,40.1233],[-110.95029,40.12284],[-110.95306,40.12332],[-110.95579,40.12266],[-110.95828,40.1224],[-110.96182,40.12379],[-110.9637,40.12277],[-110.96675,40.12417],[-110.9708,40.12308],[-110.97131,40.12515],[-110.97417,40.12707],[-110.97691,40.12545],[-110.97922,40.12311],[-110.98221,40.12484],[-110.98428,40.12546],[-110.98591,40.12397],[-110.98867,40.12223],[-110.9911,40.11966],[-110.99439,40.12043],[-110.99235,40.12316],[-110.99498,40.12294],[-110.998,40.12372],[-111.00091,40.1244],[-111.00312,40.12423],[-111.00525,40.12496],[-111.00643,40.12551],[-111.00764,40.12435],[-111.00957,40.12276],[-111.01141,40.12348],[-111.01402,40.12332],[-111.01635,40.12201],[-111.01808,40.12211],[-111.01805,40.12537],[-111.01935,40.12714],[-111.02148,40.12753],[-111.02559,40.12836],[-111.02183,40.12862],[-111.02188,40.13052],[-111.02233,40.13256],[-111.02272,40.13503],[-111.02383,40.13584],[-111.0243,40.13798],[-111.02386,40.13949],[-111.02325,40.14094],[-111.02348,40.1429],[-111.02066,40.14519],[-111.02196,40.1464],[-111.02071,40.14989],[-111.02155,40.1507],[-111.02376,40.14933],[-111.02691,40.14958],[-111.02756,40.15333],[-111.02738,40.15516],[-111.02733,40.1571],[-111.02704,40.1607],[-111.02541,40.16439],[-111.02397,40.16729],[-111.02329,40.17287],[-111.02198,40.17734],[-111.0228,40.17846],[-111.02872,40.18058],[-111.02756,40.18262],[-111.01525,40.19066],[-110.99993,40.19888],[-110.97901,40.20437],[-110.97195,40.20421],[-110.96543,40.19556],[-110.94807,40.19382],[-110.93573,40.19403],[-110.92472,40.19658],[-110.91765,40.19878],[-110.90462,40.20003],[-110.89578,40.19867],[-110.88331,40.20009],[-110.87762,40.20266],[-110.86768,40.21038],[-110.86169,40.21231],[-110.84963,40.21244],[-110.83296,40.21135],[-110.81952,40.20803]]]]}}]}