{"type":"FeatureCollection","metadata":{"hunt_code":"EA1291","boundary_id":"950","member_boundary_ids":[],"source_boundary_ids":["950"],"source_hunt_code":"EA1291","merged_boundary_id":null,"boundary_geometry_type":"single_boundary_id_exact_name_match","generated_from":"display-boundary-index-2026-existing-fallback-reconcile","boundary_source_authority":"Utah DWR","boundary_source_file":"data/hunt_boundaries.geojson","fallback_source_file":"data/hunt_boundaries.geojson"},"features":[{"type":"Feature","properties":{"boundary_id":"950","BoundaryID":"950","Boundary_Name":"Mt Dutton North","boundary_name":"Mt Dutton North","source":"arcgis_lite_individual"},"geometry":{"type":"MultiPolygon","coordinates":[[[[-112.15343,38.20046],[-112.1447,38.19516],[-112.13677,38.19546],[-112.13332,38.19244],[-112.12702,38.19405],[-112.12379,38.19745],[-112.10589,38.1929],[-112.09165,38.18833],[-112.07899,38.1798],[-112.07151,38.17769],[-112.0537,38.16838],[-112.03223,38.16495],[-112.01933,38.16691],[-112.00545,38.15819],[-112.00205,38.15262],[-111.99849,38.14549],[-111.99885,38.1331],[-111.99997,38.11545],[-111.98972,38.11144],[-111.98399,38.10141],[-111.98153,38.09068],[-111.97993,38.07947],[-111.97906,38.07646],[-111.97743,38.07308],[-111.97639,38.06667],[-111.98839,38.05865],[-111.98602,38.05376],[-111.9788,38.05171],[-111.97192,38.05335],[-111.96591,38.04817],[-111.97376,38.04419],[-111.97737,38.03941],[-111.97654,38.03315],[-111.96913,38.02807],[-111.96169,38.02164],[-111.96279,38.01439],[-111.96966,38.01211],[-111.97747,38.01139],[-111.97928,38.00246],[-111.98628,37.99391],[-111.98847,37.98026],[-112.00265,37.94546],[-112.01833,37.9453],[-112.04231,37.94618],[-112.0467,37.94985],[-112.05355,37.95322],[-112.06209,37.95337],[-112.07217,37.95214],[-112.07959,37.95211],[-112.08394,37.95063],[-112.08852,37.94921],[-112.09513,37.94857],[-112.10088,37.94812],[-112.10356,37.94868],[-112.10697,37.94779],[-112.11036,37.94603],[-112.11448,37.94574],[-112.12025,37.94581],[-112.12732,37.94362],[-112.1331,37.94215],[-112.14137,37.94057],[-112.14508,37.93931],[-112.15065,37.93806],[-112.15921,37.93721],[-112.16398,37.9365],[-112.16965,37.93628],[-112.17541,37.93637],[-112.18439,37.93697],[-112.19054,37.93951],[-112.19538,37.94185],[-112.19859,37.94326],[-112.20086,37.94499],[-112.20451,37.94618],[-112.20706,37.94798],[-112.20691,37.94906],[-112.20811,37.95178],[-112.20892,37.95305],[-112.21014,37.95296],[-112.2129,37.95268],[-112.21332,37.95465],[-112.21092,37.95588],[-112.20801,37.95723],[-112.21037,37.96058],[-112.21251,37.9636],[-112.21425,37.96231],[-112.21662,37.96314],[-112.21483,37.96534],[-112.21451,37.96908],[-112.2154,37.9727],[-112.21624,37.97489],[-112.22036,37.97549],[-112.2225,37.97629],[-112.22351,37.97504],[-112.22527,37.97563],[-112.22613,37.9771],[-112.22516,37.97878],[-112.22433,37.98126],[-112.2241,37.98267],[-112.22391,37.98455],[-112.22511,37.98644],[-112.22521,37.98758],[-112.22697,37.98906],[-112.2294,37.99009],[-112.23174,37.99185],[-112.23226,37.99339],[-112.23097,37.99421],[-112.23048,37.99357],[-112.2304,37.99545],[-112.23227,37.99699],[-112.23008,37.99827],[-112.22973,38.00083],[-112.22759,38.00214],[-112.2271,38.00494],[-112.22805,38.00653],[-112.22731,38.00849],[-112.22516,38.00968],[-112.22215,38.01081],[-112.22328,38.01185],[-112.22123,38.01152],[-112.21952,38.01356],[-112.21799,38.0156],[-112.21516,38.01655],[-112.2141,38.01793],[-112.21122,38.0174],[-112.20938,38.01557],[-112.20716,38.01591],[-112.20572,38.01692],[-112.20366,38.01913],[-112.202,38.02049],[-112.19978,38.02277],[-112.20215,38.02232],[-112.2069,38.02218],[-112.20514,38.02495],[-112.20682,38.0265],[-112.20198,38.02736],[-112.19654,38.02909],[-112.19618,38.03202],[-112.19994,38.03096],[-112.20005,38.03285],[-112.19774,38.03653],[-112.19649,38.03929],[-112.19437,38.04172],[-112.1943,38.04241],[-112.19372,38.04411],[-112.19267,38.04524],[-112.19165,38.04731],[-112.19187,38.04876],[-112.19065,38.05098],[-112.18809,38.05153],[-112.18478,38.05356],[-112.18286,38.05517],[-112.1795,38.05702],[-112.17757,38.05988],[-112.17693,38.06178],[-112.17643,38.06558],[-112.17384,38.06813],[-112.16915,38.07219],[-112.17058,38.07529],[-112.16565,38.07776],[-112.16396,38.08481],[-112.16645,38.0855],[-112.16752,38.08796],[-112.16704,38.09078],[-112.16651,38.09325],[-112.16532,38.09698],[-112.16454,38.10175],[-112.15823,38.10851],[-112.15375,38.12356],[-112.15664,38.13332],[-112.16485,38.13864],[-112.17556,38.1394],[-112.18709,38.13939],[-112.19666,38.13938],[-112.19647,38.14425],[-112.19642,38.14855],[-112.19162,38.15068],[-112.18838,38.1567],[-112.18616,38.16095],[-112.18551,38.1636],[-112.18328,38.16698],[-112.18019,38.16836],[-112.17675,38.17175],[-112.17036,38.17499],[-112.16617,38.17849],[-112.16338,38.18069],[-112.16155,38.18579],[-112.15848,38.19174],[-112.15529,38.19695],[-112.15387,38.20033],[-112.15343,38.20046]]]]}},{"type":"Feature","properties":{"boundary_id":"950","BoundaryID":"950","Boundary_Name":"Mt Dutton North","boundary_name":"Mt Dutton North","source":"arcgis_lite_individual"},"geometry":{"type":"MultiPolygon","coordinates":[[[[-112.15343,38.20046],[-112.1447,38.19516],[-112.13677,38.19546],[-112.13332,38.19244],[-112.12702,38.19405],[-112.12379,38.19745],[-112.10589,38.1929],[-112.09165,38.18833],[-112.07899,38.1798],[-112.07151,38.17769],[-112.0537,38.16838],[-112.03223,38.16495],[-112.01933,38.16691],[-112.00545,38.15819],[-112.00205,38.15262],[-111.99849,38.14549],[-111.99885,38.1331],[-111.99997,38.11545],[-111.98972,38.11144],[-111.98399,38.10141],[-111.98153,38.09068],[-111.97993,38.07947],[-111.97906,38.07646],[-111.97743,38.07308],[-111.97639,38.06667],[-111.98839,38.05865],[-111.98602,38.05376],[-111.9788,38.05171],[-111.97192,38.05335],[-111.96591,38.04817],[-111.97376,38.04419],[-111.97737,38.03941],[-111.97654,38.03315],[-111.96913,38.02807],[-111.96169,38.02164],[-111.96279,38.01439],[-111.96966,38.01211],[-111.97747,38.01139],[-111.97928,38.00246],[-111.98628,37.99391],[-111.98847,37.98026],[-112.00265,37.94546],[-112.01833,37.9453],[-112.04231,37.94618],[-112.0467,37.94985],[-112.05355,37.95322],[-112.06209,37.95337],[-112.07217,37.95214],[-112.07959,37.95211],[-112.08394,37.95063],[-112.08852,37.94921],[-112.09513,37.94857],[-112.10088,37.94812],[-112.10356,37.94868],[-112.10697,37.94779],[-112.11036,37.94603],[-112.11448,37.94574],[-112.12025,37.94581],[-112.12732,37.94362],[-112.1331,37.94215],[-112.14137,37.94057],[-112.14508,37.93931],[-112.15065,37.93806],[-112.15921,37.93721],[-112.16398,37.9365],[-112.16965,37.93628],[-112.17541,37.93637],[-112.18439,37.93697],[-112.19054,37.93951],[-112.19538,37.94185],[-112.19859,37.94326],[-112.20086,37.94499],[-112.20451,37.94618],[-112.20706,37.94798],[-112.20691,37.94906],[-112.20811,37.95178],[-112.20892,37.95305],[-112.21014,37.95296],[-112.2129,37.95268],[-112.21332,37.95465],[-112.21092,37.95588],[-112.20801,37.95723],[-112.21037,37.96058],[-112.21251,37.9636],[-112.21425,37.96231],[-112.21662,37.96314],[-112.21483,37.96534],[-112.21451,37.96908],[-112.2154,37.9727],[-112.21624,37.97489],[-112.22036,37.97549],[-112.2225,37.97629],[-112.22351,37.97504],[-112.22527,37.97563],[-112.22613,37.9771],[-112.22516,37.97878],[-112.22433,37.98126],[-112.2241,37.98267],[-112.22391,37.98455],[-112.22511,37.98644],[-112.22521,37.98758],[-112.22697,37.98906],[-112.2294,37.99009],[-112.23174,37.99185],[-112.23226,37.99339],[-112.23097,37.99421],[-112.23048,37.99357],[-112.2304,37.99545],[-112.23227,37.99699],[-112.23008,37.99827],[-112.22973,38.00083],[-112.22759,38.00214],[-112.2271,38.00494],[-112.22805,38.00653],[-112.22731,38.00849],[-112.22516,38.00968],[-112.22215,38.01081],[-112.22328,38.01185],[-112.22123,38.01152],[-112.21952,38.01356],[-112.21799,38.0156],[-112.21516,38.01655],[-112.2141,38.01793],[-112.21122,38.0174],[-112.20938,38.01557],[-112.20716,38.01591],[-112.20572,38.01692],[-112.20366,38.01913],[-112.202,38.02049],[-112.19978,38.02277],[-112.20215,38.02232],[-112.2069,38.02218],[-112.20514,38.02495],[-112.20682,38.0265],[-112.20198,38.02736],[-112.19654,38.02909],[-112.19618,38.03202],[-112.19994,38.03096],[-112.20005,38.03285],[-112.19774,38.03653],[-112.19649,38.03929],[-112.19437,38.04172],[-112.1943,38.04241],[-112.19372,38.04411],[-112.19267,38.04524],[-112.19165,38.04731],[-112.19187,38.04876],[-112.19065,38.05098],[-112.18809,38.05153],[-112.18478,38.05356],[-112.18286,38.05517],[-112.1795,38.05702],[-112.17757,38.05988],[-112.17693,38.06178],[-112.17643,38.06558],[-112.17384,38.06813],[-112.16915,38.07219],[-112.17058,38.07529],[-112.16565,38.07776],[-112.16396,38.08481],[-112.16645,38.0855],[-112.16752,38.08796],[-112.16704,38.09078],[-112.16651,38.09325],[-112.16532,38.09698],[-112.16454,38.10175],[-112.15823,38.10851],[-112.15375,38.12356],[-112.15664,38.13332],[-112.16485,38.13864],[-112.17556,38.1394],[-112.18709,38.13939],[-112.19666,38.13938],[-112.19647,38.14425],[-112.19642,38.14855],[-112.19162,38.15068],[-112.18838,38.1567],[-112.18616,38.16095],[-112.18551,38.1636],[-112.18328,38.16698],[-112.18019,38.16836],[-112.17675,38.17175],[-112.17036,38.17499],[-112.16617,38.17849],[-112.16338,38.18069],[-112.16155,38.18579],[-112.15848,38.19174],[-112.15529,38.19695],[-112.15387,38.20033],[-112.15343,38.20046]]]]}},{"type":"Feature","properties":{"boundary_id":"950","BoundaryID":"950","Boundary_Name":"Mt Dutton North","boundary_name":"Mt Dutton North","source":"arcgis_lite_individual"},"geometry":{"type":"MultiPolygon","coordinates":[[[[-112.15343,38.20046],[-112.1447,38.19516],[-112.13677,38.19546],[-112.13332,38.19244],[-112.12702,38.19405],[-112.12379,38.19745],[-112.10589,38.1929],[-112.09165,38.18833],[-112.07899,38.1798],[-112.07151,38.17769],[-112.0537,38.16838],[-112.03223,38.16495],[-112.01933,38.16691],[-112.00545,38.15819],[-112.00205,38.15262],[-111.99849,38.14549],[-111.99885,38.1331],[-111.99997,38.11545],[-111.98972,38.11144],[-111.98399,38.10141],[-111.98153,38.09068],[-111.97993,38.07947],[-111.97906,38.07646],[-111.97743,38.07308],[-111.97639,38.06667],[-111.98839,38.05865],[-111.98602,38.05376],[-111.9788,38.05171],[-111.97192,38.05335],[-111.96591,38.04817],[-111.97376,38.04419],[-111.97737,38.03941],[-111.97654,38.03315],[-111.96913,38.02807],[-111.96169,38.02164],[-111.96279,38.01439],[-111.96966,38.01211],[-111.97747,38.01139],[-111.97928,38.00246],[-111.98628,37.99391],[-111.98847,37.98026],[-112.00265,37.94546],[-112.01833,37.9453],[-112.04231,37.94618],[-112.0467,37.94985],[-112.05355,37.95322],[-112.06209,37.95337],[-112.07217,37.95214],[-112.07959,37.95211],[-112.08394,37.95063],[-112.08852,37.94921],[-112.09513,37.94857],[-112.10088,37.94812],[-112.10356,37.94868],[-112.10697,37.94779],[-112.11036,37.94603],[-112.11448,37.94574],[-112.12025,37.94581],[-112.12732,37.94362],[-112.1331,37.94215],[-112.14137,37.94057],[-112.14508,37.93931],[-112.15065,37.93806],[-112.15921,37.93721],[-112.16398,37.9365],[-112.16965,37.93628],[-112.17541,37.93637],[-112.18439,37.93697],[-112.19054,37.93951],[-112.19538,37.94185],[-112.19859,37.94326],[-112.20086,37.94499],[-112.20451,37.94618],[-112.20706,37.94798],[-112.20691,37.94906],[-112.20811,37.95178],[-112.20892,37.95305],[-112.21014,37.95296],[-112.2129,37.95268],[-112.21332,37.95465],[-112.21092,37.95588],[-112.20801,37.95723],[-112.21037,37.96058],[-112.21251,37.9636],[-112.21425,37.96231],[-112.21662,37.96314],[-112.21483,37.96534],[-112.21451,37.96908],[-112.2154,37.9727],[-112.21624,37.97489],[-112.22036,37.97549],[-112.2225,37.97629],[-112.22351,37.97504],[-112.22527,37.97563],[-112.22613,37.9771],[-112.22516,37.97878],[-112.22433,37.98126],[-112.2241,37.98267],[-112.22391,37.98455],[-112.22511,37.98644],[-112.22521,37.98758],[-112.22697,37.98906],[-112.2294,37.99009],[-112.23174,37.99185],[-112.23226,37.99339],[-112.23097,37.99421],[-112.23048,37.99357],[-112.2304,37.99545],[-112.23227,37.99699],[-112.23008,37.99827],[-112.22973,38.00083],[-112.22759,38.00214],[-112.2271,38.00494],[-112.22805,38.00653],[-112.22731,38.00849],[-112.22516,38.00968],[-112.22215,38.01081],[-112.22328,38.01185],[-112.22123,38.01152],[-112.21952,38.01356],[-112.21799,38.0156],[-112.21516,38.01655],[-112.2141,38.01793],[-112.21122,38.0174],[-112.20938,38.01557],[-112.20716,38.01591],[-112.20572,38.01692],[-112.20366,38.01913],[-112.202,38.02049],[-112.19978,38.02277],[-112.20215,38.02232],[-112.2069,38.02218],[-112.20514,38.02495],[-112.20682,38.0265],[-112.20198,38.02736],[-112.19654,38.02909],[-112.19618,38.03202],[-112.19994,38.03096],[-112.20005,38.03285],[-112.19774,38.03653],[-112.19649,38.03929],[-112.19437,38.04172],[-112.1943,38.04241],[-112.19372,38.04411],[-112.19267,38.04524],[-112.19165,38.04731],[-112.19187,38.04876],[-112.19065,38.05098],[-112.18809,38.05153],[-112.18478,38.05356],[-112.18286,38.05517],[-112.1795,38.05702],[-112.17757,38.05988],[-112.17693,38.06178],[-112.17643,38.06558],[-112.17384,38.06813],[-112.16915,38.07219],[-112.17058,38.07529],[-112.16565,38.07776],[-112.16396,38.08481],[-112.16645,38.0855],[-112.16752,38.08796],[-112.16704,38.09078],[-112.16651,38.09325],[-112.16532,38.09698],[-112.16454,38.10175],[-112.15823,38.10851],[-112.15375,38.12356],[-112.15664,38.13332],[-112.16485,38.13864],[-112.17556,38.1394],[-112.18709,38.13939],[-112.19666,38.13938],[-112.19647,38.14425],[-112.19642,38.14855],[-112.19162,38.15068],[-112.18838,38.1567],[-112.18616,38.16095],[-112.18551,38.1636],[-112.18328,38.16698],[-112.18019,38.16836],[-112.17675,38.17175],[-112.17036,38.17499],[-112.16617,38.17849],[-112.16338,38.18069],[-112.16155,38.18579],[-112.15848,38.19174],[-112.15529,38.19695],[-112.15387,38.20033],[-112.15343,38.20046]]]]}},{"type":"Feature","properties":{"boundary_id":"950","BoundaryID":"950","Boundary_Name":"Mt Dutton North","boundary_name":"Mt Dutton North","source":"arcgis_lite_individual"},"geometry":{"type":"MultiPolygon","coordinates":[[[[-112.15343,38.20046],[-112.1447,38.19516],[-112.13677,38.19546],[-112.13332,38.19244],[-112.12702,38.19405],[-112.12379,38.19745],[-112.10589,38.1929],[-112.09165,38.18833],[-112.07899,38.1798],[-112.07151,38.17769],[-112.0537,38.16838],[-112.03223,38.16495],[-112.01933,38.16691],[-112.00545,38.15819],[-112.00205,38.15262],[-111.99849,38.14549],[-111.99885,38.1331],[-111.99997,38.11545],[-111.98972,38.11144],[-111.98399,38.10141],[-111.98153,38.09068],[-111.97993,38.07947],[-111.97906,38.07646],[-111.97743,38.07308],[-111.97639,38.06667],[-111.98839,38.05865],[-111.98602,38.05376],[-111.9788,38.05171],[-111.97192,38.05335],[-111.96591,38.04817],[-111.97376,38.04419],[-111.97737,38.03941],[-111.97654,38.03315],[-111.96913,38.02807],[-111.96169,38.02164],[-111.96279,38.01439],[-111.96966,38.01211],[-111.97747,38.01139],[-111.97928,38.00246],[-111.98628,37.99391],[-111.98847,37.98026],[-112.00265,37.94546],[-112.01833,37.9453],[-112.04231,37.94618],[-112.0467,37.94985],[-112.05355,37.95322],[-112.06209,37.95337],[-112.07217,37.95214],[-112.07959,37.95211],[-112.08394,37.95063],[-112.08852,37.94921],[-112.09513,37.94857],[-112.10088,37.94812],[-112.10356,37.94868],[-112.10697,37.94779],[-112.11036,37.94603],[-112.11448,37.94574],[-112.12025,37.94581],[-112.12732,37.94362],[-112.1331,37.94215],[-112.14137,37.94057],[-112.14508,37.93931],[-112.15065,37.93806],[-112.15921,37.93721],[-112.16398,37.9365],[-112.16965,37.93628],[-112.17541,37.93637],[-112.18439,37.93697],[-112.19054,37.93951],[-112.19538,37.94185],[-112.19859,37.94326],[-112.20086,37.94499],[-112.20451,37.94618],[-112.20706,37.94798],[-112.20691,37.94906],[-112.20811,37.95178],[-112.20892,37.95305],[-112.21014,37.95296],[-112.2129,37.95268],[-112.21332,37.95465],[-112.21092,37.95588],[-112.20801,37.95723],[-112.21037,37.96058],[-112.21251,37.9636],[-112.21425,37.96231],[-112.21662,37.96314],[-112.21483,37.96534],[-112.21451,37.96908],[-112.2154,37.9727],[-112.21624,37.97489],[-112.22036,37.97549],[-112.2225,37.97629],[-112.22351,37.97504],[-112.22527,37.97563],[-112.22613,37.9771],[-112.22516,37.97878],[-112.22433,37.98126],[-112.2241,37.98267],[-112.22391,37.98455],[-112.22511,37.98644],[-112.22521,37.98758],[-112.22697,37.98906],[-112.2294,37.99009],[-112.23174,37.99185],[-112.23226,37.99339],[-112.23097,37.99421],[-112.23048,37.99357],[-112.2304,37.99545],[-112.23227,37.99699],[-112.23008,37.99827],[-112.22973,38.00083],[-112.22759,38.00214],[-112.2271,38.00494],[-112.22805,38.00653],[-112.22731,38.00849],[-112.22516,38.00968],[-112.22215,38.01081],[-112.22328,38.01185],[-112.22123,38.01152],[-112.21952,38.01356],[-112.21799,38.0156],[-112.21516,38.01655],[-112.2141,38.01793],[-112.21122,38.0174],[-112.20938,38.01557],[-112.20716,38.01591],[-112.20572,38.01692],[-112.20366,38.01913],[-112.202,38.02049],[-112.19978,38.02277],[-112.20215,38.02232],[-112.2069,38.02218],[-112.20514,38.02495],[-112.20682,38.0265],[-112.20198,38.02736],[-112.19654,38.02909],[-112.19618,38.03202],[-112.19994,38.03096],[-112.20005,38.03285],[-112.19774,38.03653],[-112.19649,38.03929],[-112.19437,38.04172],[-112.1943,38.04241],[-112.19372,38.04411],[-112.19267,38.04524],[-112.19165,38.04731],[-112.19187,38.04876],[-112.19065,38.05098],[-112.18809,38.05153],[-112.18478,38.05356],[-112.18286,38.05517],[-112.1795,38.05702],[-112.17757,38.05988],[-112.17693,38.06178],[-112.17643,38.06558],[-112.17384,38.06813],[-112.16915,38.07219],[-112.17058,38.07529],[-112.16565,38.07776],[-112.16396,38.08481],[-112.16645,38.0855],[-112.16752,38.08796],[-112.16704,38.09078],[-112.16651,38.09325],[-112.16532,38.09698],[-112.16454,38.10175],[-112.15823,38.10851],[-112.15375,38.12356],[-112.15664,38.13332],[-112.16485,38.13864],[-112.17556,38.1394],[-112.18709,38.13939],[-112.19666,38.13938],[-112.19647,38.14425],[-112.19642,38.14855],[-112.19162,38.15068],[-112.18838,38.1567],[-112.18616,38.16095],[-112.18551,38.1636],[-112.18328,38.16698],[-112.18019,38.16836],[-112.17675,38.17175],[-112.17036,38.17499],[-112.16617,38.17849],[-112.16338,38.18069],[-112.16155,38.18579],[-112.15848,38.19174],[-112.15529,38.19695],[-112.15387,38.20033],[-112.15343,38.20046]]]]}}]}