{"type":"FeatureCollection","metadata":{"hunt_code":"EB3609","boundary_id":"828","member_boundary_ids":[],"source_boundary_ids":["828"],"source_hunt_code":"EB3609","merged_boundary_id":null,"boundary_geometry_type":"single_boundary_id","generated_from":"display-boundary-index-2026-existing-fallback-reconcile","boundary_source_authority":"Utah DWR","boundary_source_file":"data/hunt-master-canonical-2026-source-of-truth.json","fallback_source_file":"data/hunt_boundaries.geojson"},"features":[{"type":"Feature","properties":{"boundary_id":"828","BoundaryID":"828","Boundary_Name":"Royal Ivory Outfitters","boundary_name":"Royal Ivory Outfitters","source":"arcgis_lite_individual"},"geometry":{"type":"MultiPolygon","coordinates":[[[[-110.80951,40.9969],[-110.6959,40.98919],[-110.71493,40.95999],[-110.73397,40.95985],[-110.7906,40.96752],[-110.80942,40.97448],[-110.80951,40.9969]]]]}},{"type":"Feature","properties":{"boundary_id":"828","BoundaryID":"828","Boundary_Name":"Royal Ivory Outfitters","boundary_name":"Royal Ivory Outfitters","source":"arcgis_lite_individual"},"geometry":{"type":"MultiPolygon","coordinates":[[[[-110.80951,40.9969],[-110.6959,40.98919],[-110.71493,40.95999],[-110.73397,40.95985],[-110.7906,40.96752],[-110.80942,40.97448],[-110.80951,40.9969]]]]}},{"type":"Feature","properties":{"boundary_id":"828","BoundaryID":"828","Boundary_Name":"Royal Ivory Outfitters","boundary_name":"Royal Ivory Outfitters","source":"arcgis_lite_individual"},"geometry":{"type":"MultiPolygon","coordinates":[[[[-110.80951,40.9969],[-110.6959,40.98919],[-110.71493,40.95999],[-110.73397,40.95985],[-110.7906,40.96752],[-110.80942,40.97448],[-110.80951,40.9969]]]]}},{"type":"Feature","properties":{"boundary_id":"828","BoundaryID":"828","Boundary_Name":"Royal Ivory Outfitters","boundary_name":"Royal Ivory Outfitters","source":"arcgis_lite_individual"},"geometry":{"type":"MultiPolygon","coordinates":[[[[-110.80951,40.9969],[-110.6959,40.98919],[-110.71493,40.95999],[-110.73397,40.95985],[-110.7906,40.96752],[-110.80942,40.97448],[-110.80951,40.9969]]]]}}]}